Type,Station,Observed_Date,Temp_Celsius,DewPoint_Celsius,Wind_Speed,Wind_Direction,Cover,Visibility,Observation,Logged_Date
"METAR","KMSP","2022-12-27T02:53:00Z",-15.6,-20,5,220,"BKN",10,"KMSP 270253Z 22005KT 10SM BKN250 M16/M20 A3022 RMK AO2 SLP256 T11561200 55012 $",2022.12.26-21.18.13
"METAR","KMSP","2022-12-27T02:53:00Z",-15.6,-20,5,220,"BKN",10,"KMSP 270253Z 22005KT 10SM BKN250 M16/M20 A3022 RMK AO2 SLP256 T11561200 55012 $",2022.12.26-21.20.01
"METAR","KMSP","2022-12-27T03:53:00Z",-16.1,-21.1,5,200,"SCT",10,"KMSP 270353Z 20005KT 10SM FEW190 SCT250 M16/M21 A3020 RMK AO2 SLP248 T11611211 $",2022.12.26-22.20.01
"METAR","KMSP","2022-12-27T04:53:00Z",-16.1,-20.6,0,0,"BKN",10,"KMSP 270453Z 00000KT 10SM SCT200 BKN250 M16/M21 A3019 RMK AO2 SLP244 T11611206 $",2022.12.26-23.20.01
"METAR","KMSP","2022-12-27T05:53:00Z",-16.1,-20.6,6,180,"BKN",10,"KMSP 270553Z 18006KT 10SM BKN140 M16/M21 A3015 RMK AO2 SLP231 4/009 T11611206 11133 21167 411001167 58022 $",2022.12.27-00.20.01
"METAR","KMSP","2022-12-27T06:53:00Z",-16.1,-20.6,5,170,"BKN",10,"KMSP 270653Z 17005KT 10SM BKN140 M16/M21 A3012 RMK AO2 SLP220 T11611206 $",2022.12.27-01.20.01
"METAR","KMSP","2022-12-27T07:53:00Z",-16.1,-20.6,7,150,"OVC",10,"KMSP 270753Z 15007KT 10SM OVC110 M16/M21 A3006 RMK AO2 SLP201 T11611206 $",2022.12.27-02.20.02
"METAR","KMSP","2022-12-27T08:53:00Z",-15,-20,7,160,"OVC",10,"KMSP 270853Z 16007KT 10SM OVC110 M15/M20 A3004 RMK AO2 SLP193 T11501200 56036 $",2022.12.27-03.20.01
"METAR","KMSP","2022-12-27T09:53:00Z",-13.9,-19.4,7,130,"BKN",10,"KMSP 270953Z 13007KT 10SM BKN110 M14/M19 A3000 RMK AO2 SLP177 T11391194 $",2022.12.27-04.20.01
"METAR","KMSP","2022-12-27T10:53:00Z",-13.3,-18.9,9,150,"OVC",10,"KMSP 271053Z 15009KT 10SM OVC095 M13/M19 A2995 RMK AO2 SLP161 T11331189 $",2022.12.27-05.20.01
"METAR","KMSP","2022-12-27T11:53:00Z",-12.2,-17.8,9,160,"OVC",10,"KMSP 271153Z 16009KT 10SM OVC090 M12/M18 A2991 RMK AO2 SLP147 4/009 T11221178 11122 21167 56044 $",2022.12.27-06.20.01
"METAR","KMSP","2022-12-27T12:53:00Z",-11.7,-17.2,9,170,"SCT",10,"KMSP 271253Z 17009KT 10SM SCT090 M12/M17 A2986 RMK AO2 SLP132 T11171172",2022.12.27-07.20.01
"METAR","KMSP","2022-12-27T13:53:00Z",-11.7,-16.7,9,150,"BKN",10,"KMSP 271353Z 15009KT 10SM SCT080 BKN120 BKN250 M12/M17 A2985 RMK AO2 SLP127 T11171167 $",2022.12.27-08.20.01
"METAR","KMSP","2022-12-27T14:53:00Z",-9.4,-15.6,13,170,"BKN",10,"KMSP 271453Z 17013KT 10SM FEW090 BKN250 M09/M16 A2980 RMK AO2 SLP111 T10941156 56035 $",2022.12.27-09.20.01
"METAR","KMSP","2022-12-27T15:53:00Z",-8.3,-14.4,8,180,"BKN",10,"KMSP 271553Z 18008KT 10SM BKN250 M08/M14 A2979 RMK AO2 SLP108 T10831144 $",2022.12.27-10.20.01
"METAR","KMSP","2022-12-27T15:53:00Z",-8.3,-14.4,8,180,"BKN",10,"KMSP 271553Z 18008KT 10SM BKN250 M08/M14 A2979 RMK AO2 SLP108 T10831144 $",2022.12.27-10.49.38
"METAR","KMSP","2022-12-27T15:53:00Z",-8.3,-14.4,8,180,"BKN",10,"KMSP 271553Z 18008KT 10SM BKN250 M08/M14 A2979 RMK AO2 SLP108 T10831144 $",2022.12.27-10.52.01
"METAR","KMSP","2022-12-27T15:53:00Z",-8.3,-14.4,8,180,"BKN",10,"KMSP 271553Z 18008KT 10SM BKN250 M08/M14 A2979 RMK AO2 SLP108 T10831144 $",2022.12.27-10.55.01
"METAR","KMSP","2022-12-27T16:53:00Z",-7.8,-13.9,13,170,"BKN",10,"KMSP 271653Z 17013G18KT 10SM FEW150 BKN250 M08/M14 A2975 RMK AO2 SLP092 T10781139 $",2022.12.27-11.55.02
"METAR","KMSP","2022-12-27T17:53:00Z",-6.7,-12.8,9,170,"BKN",10,"KMSP 271753Z 17009KT 150V220 10SM FEW150 BKN250 M07/M13 A2972 RMK AO2 SLP082 4/009 T10671128 11067 21122 58027 $",2022.12.27-12.55.01
"METAR","KMSP","2022-12-27T18:53:00Z",-4.4,-10.6,10,200,"BKN",10,"KMSP 271853Z 20010G19KT 10SM FEW150 BKN250 M04/M11 A2968 RMK AO2 SLP066 T10441106 $",2022.12.27-13.55.01
"METAR","KMSP","2022-12-27T19:53:00Z",-4.4,-10,12,200,"BKN",10,"KMSP 271953Z 20012KT 10SM FEW150 BKN250 M04/M10 A2965 RMK AO2 PK WND 23026/1919 SLP055 T10441100",2022.12.27-14.55.01
"METAR","KMSP","2022-12-27T20:53:00Z",-3.9,-9.4,13,190,"BKN",10,"KMSP 272053Z 19013G23KT 10SM FEW150 BKN250 M04/M09 A2962 RMK AO2 SLP046 T10391094 56034",2022.12.27-15.55.01
"METAR","KMSP","2022-12-27T21:53:00Z",-4.4,-10,15,170,"BKN",10,"KMSP 272153Z 17015KT 10SM SCT150 BKN250 M04/M10 A2960 RMK AO2 SLP040 T10441100",2022.12.27-16.55.01
"METAR","KMSP","2022-12-27T22:53:00Z",-4.4,-9.4,13,170,"BKN",10,"KMSP 272253Z 17013KT 10SM BKN130 BKN200 M04/M09 A2961 RMK AO2 SLP043 T10441094",2022.12.27-17.55.01
"METAR","KMSP","2022-12-27T23:53:00Z",-5.6,-10,10,160,"BKN",10,"KMSP 272353Z COR 16010KT 10SM BKN130 BKN250 M06/M10 A2961 RMK AO2 SLP040 4/009 T10561100 11039 21067 56005",2022.12.27-18.55.01
"METAR","KMSP","2022-12-28T00:53:00Z",-5.6,-10,10,160,"BKN",10,"KMSP 280053Z 16010KT 10SM SCT130 BKN250 M06/M10 A2959 RMK AO2 SLP035 T10561100 $",2022.12.27-19.55.01
"METAR","KMSP","2022-12-28T01:53:00Z",-6.1,-10,10,150,"SCT",10,"KMSP 280153Z 15010KT 10SM FEW130 SCT250 M06/M10 A2955 RMK AO2 SLP023 T10611100 $",2022.12.27-20.55.01
"METAR","KMSP","2022-12-28T02:53:00Z",-6.1,-10,9,160,"SCT",10,"KMSP 280253Z 16009KT 10SM FEW150 SCT250 M06/M10 A2956 RMK AO2 SLP023 T10611100 55016 $",2022.12.27-21.55.01
"METAR","KMSP","2022-12-28T03:53:00Z",-5.6,-9.4,9,150,"SCT",10,"KMSP 280353Z 15009KT 10SM FEW150 SCT250 M06/M09 A2953 RMK AO2 SLP013 T10561094 $",2022.12.27-22.55.01
"METAR","KMSP","2022-12-28T04:53:00Z",-4.4,-8.3,8,160,"SCT",10,"KMSP 280453Z 16008KT 10SM SCT160 SCT250 M04/M08 A2952 RMK AO2 SLP009 T10441083 $",2022.12.27-23.55.01
"METAR","KMSP","2022-12-28T05:53:00Z",-3.3,-7.2,10,160,"BKN",10,"KMSP 280553Z 16010KT 10SM BKN170 M03/M07 A2949 RMK AO2 SLP998 4/009 T10331072 11033 21067 410331167 58022 $",2022.12.28-00.55.01
"METAR","KMSP","2022-12-28T06:53:00Z",-3.3,-6.7,9,150,"BKN",10,"KMSP 280653Z 15009KT 10SM BKN170 M03/M07 A2947 RMK AO2 SLP991 T10331067 $",2022.12.28-01.55.01
"METAR","KMSP","2022-12-28T07:53:00Z",-2.8,-6.1,11,150,"BKN",10,"KMSP 280753Z 15011KT 10SM BKN170 M03/M06 A2943 RMK AO2 PRESFR SLP976 T10281061 $",2022.12.28-02.55.01
"METAR","KMSP","2022-12-28T08:53:00Z",-2.2,-6.1,8,150,"BKN",10,"KMSP 280853Z 15008KT 10SM BKN170 M02/M06 A2944 RMK AO2 SLP981 T10221061 55016 $",2022.12.28-03.55.01
"METAR","KMSP","2022-12-28T09:53:00Z",-2.8,-6.1,8,130,"BKN",10,"KMSP 280953Z 13008KT 10SM BKN180 M03/M06 A2942 RMK AO2 SLP973 T10281061 $",2022.12.28-04.55.01
"METAR","KMSP","2022-12-28T10:53:00Z",-2.8,-6.1,10,140,"BKN",10,"KMSP 281053Z 14010KT 10SM BKN180 M03/M06 A2941 RMK AO2 SLP971 T10281061 $",2022.12.28-05.55.01
"METAR","KMSP","2022-12-28T11:53:00Z",-2.2,-5.6,8,140,"OVC",10,"KMSP 281153Z 14008KT 10SM BKN200 OVC250 M02/M06 A2942 RMK AO2 SLP975 4/009 T10221056 11022 21033 55006 $",2022.12.28-06.55.01
"METAR","KMSP","2022-12-28T12:53:00Z",-1.7,-5.6,8,140,"BKN",10,"KMSP 281253Z 14008KT 10SM BKN200 BKN250 M02/M06 A2943 RMK AO2 SLP975 T10171056 $",2022.12.28-07.55.01
"METAR","KMSP","2022-12-28T13:53:00Z",-1.7,-5.6,10,150,"OVC",10,"KMSP 281353Z 15010KT 10SM FEW180 BKN200 OVC250 M02/M06 A2942 RMK AO2 SLP973 T10171056 $",2022.12.28-08.55.01
"METAR","KMSP","2022-12-28T14:53:00Z",-0.6,-5,7,160,"OVC",10,"KMSP 281453Z 16007KT 10SM FEW150 OVC200 M01/M05 A2943 RMK AO2 SLP976 T10061050 53002 $",2022.12.28-09.55.01
"METAR","KMSP","2022-12-28T15:53:00Z",0,-3.9,7,150,"OVC",10,"KMSP 281553Z 15007KT 10SM BKN170 OVC200 00/M04 A2943 RMK AO2 SLP978 T00001039 $",2022.12.28-10.55.01
"METAR","KMSP","2022-12-28T16:53:00Z",1.1,-3.3,8,160,"OVC",10,"KMSP 281653Z 16008KT 10SM BKN170 OVC200 01/M03 A2943 RMK AO2 SLP976 T00111033 $",2022.12.28-11.55.01
"METAR","KMSP","2022-12-28T17:53:00Z",1.7,-2.8,11,170,"OVC",10,"KMSP 281753Z 17011KT 10SM OVC170 02/M03 A2941 RMK AO2 SLP969 4/008 T00171028 10017 21022 58005",2022.12.28-12.55.01
"METAR","KMSP","2022-12-28T18:53:00Z",1.7,-2.8,5,170,"OVC",10,"KMSP 281853Z 17005KT 10SM BKN170 OVC200 02/M03 A2941 RMK AO2 SLP967 T00171028",2022.12.28-13.55.01
"METAR","KMSP","2022-12-28T19:53:00Z",2.8,-2.8,8,170,"OVC",10,"KMSP 281953Z 17008KT 10SM FEW140 BKN170 OVC250 03/M03 A2941 RMK AO2 SLP968 T00281028",2022.12.28-14.55.01
"METAR","KMSP","2022-12-28T20:53:00Z",2.8,-2.2,10,160,"OVC",10,"KMSP 282053Z 16010KT 10SM BKN160 OVC250 03/M02 A2940 RMK AO2 SLP964 T00281022 57004",2022.12.28-15.55.01
"METAR","KMSP","2022-12-28T21:53:00Z",2.8,-2.2,8,170,"OVC",10,"KMSP 282153Z 17008KT 10SM BKN160 OVC250 03/M02 A2943 RMK AO2 SLP975 T00281022",2022.12.28-16.55.01
"METAR","KMSP","2022-12-28T22:53:00Z",2.2,-2.2,9,160,"OVC",10,"KMSP 282253Z 16009KT 10SM FEW090 BKN150 OVC250 02/M02 A2945 RMK AO2 SLP981 VIRGA T00221022",2022.12.28-17.55.01
"METAR","KMSP","2022-12-28T23:53:00Z",2.2,-1.7,5,160,"OVC",10,"KMSP 282353Z 16005KT 10SM FEW090 BKN130 OVC250 02/M02 A2947 RMK AO2 SLP989 4/008 VIRGA T00221017 10033 20017 51023",2022.12.28-18.55.01
"METAR","KMSP","2022-12-29T00:53:00Z",1.7,-1.7,5,160,"OVC",10,"KMSP 290053Z 16005KT 10SM FEW100 BKN130 OVC250 02/M02 A2948 RMK AO2 SLP990 VIRGA T00171017",2022.12.28-19.55.01
"METAR","KMSP","2022-12-29T01:53:00Z",1.7,-1.7,7,160,"OVC",10,"KMSP 290153Z 16007KT 10SM FEW120 BKN130 OVC250 02/M02 A2948 RMK AO2 SLP991 T00171017",2022.12.28-20.55.01
"METAR","KMSP","2022-12-29T02:53:00Z",2.2,-1.7,6,170,"OVC",10,"KMSP 290253Z 17006KT 10SM FEW120 BKN130 OVC250 02/M02 A2949 RMK AO2 SLP993 T00221017 53004",2022.12.28-21.55.01
"METAR","KMSP","2022-12-29T03:53:00Z",2.2,-1.7,5,160,"OVC",10,"KMSP 290353Z 16005KT 10SM FEW070 SCT100 OVC130 02/M02 A2947 RMK AO2 SLP988 VIRGA T00221017",2022.12.28-22.55.01
"METAR","KMSP","2022-12-29T04:53:00Z",2.2,-1.1,4,150,"OVC",10,"KMSP 290453Z 15004KT 10SM FEW080 SCT100 OVC120 02/M01 A2948 RMK AO2 SLP991 VIRGA T00221011",2022.12.28-23.55.01
"METAR","KMSP","2022-12-29T05:53:00Z",1.7,-1.7,8,150,"OVC",10,"KMSP 290553Z 15008KT 10SM FEW080 BKN095 OVC110 02/M02 A2949 RMK AO2 SLP993 4/008 T00171017 10028 20011 400331033 53000",2022.12.29-00.55.01
"METAR","KMSP","2022-12-29T06:53:00Z",1.7,-1.1,0,0,"BKN",10,"KMSP 290653Z 00000KT 10SM BKN110 02/M01 A2949 RMK AO2 SLP993 T00171011",2022.12.29-01.55.01
"METAR","KMSP","2022-12-29T07:53:00Z",1.1,-1.7,5,150,"BKN",10,"KMSP 290753Z 15005KT 10SM BKN110 01/M02 A2949 RMK AO2 SLP992 T00111017",2022.12.29-02.55.01
"METAR","KMSP","2022-12-29T08:53:00Z",1.1,-1.1,3,130,"OVC",10,"KMSP 290853Z 13003KT 10SM OVC150 01/M01 A2950 RMK AO2 SLP998 T00111011 53005",2022.12.29-03.55.01
"METAR","KMSP","2022-12-29T09:53:00Z",0.6,-1.7,3,130,"OVC",10,"KMSP 290953Z 13003KT 10SM OVC160 01/M02 A2952 RMK AO2 SLP003 T00061017",2022.12.29-04.55.01
"METAR","KMSP","2022-12-29T10:53:00Z",1.7,-0.6,4,230,"OVC",10,"KMSP 291053Z 23004KT 10SM OVC140 02/M01 A2956 RMK AO2 PRESRR SLP018 T00171006",2022.12.29-05.55.01
"METAR","KMSP","2022-12-29T11:53:00Z",1.7,-1.1,3,220,"OVC",10,"KMSP 291153Z 22003KT 10SM OVC140 02/M01 A2957 RMK AO2 SLP020 4/008 T00171011 10022 20006 51021",2022.12.29-06.55.01
"METAR","KMSP","2022-12-29T12:53:00Z",1.1,-1.1,3,230,"BKN",10,"KMSP 291253Z 23003KT 10SM BKN140 01/M01 A2957 RMK AO2 SLP021 T00111011",2022.12.29-07.55.01
"METAR","KMSP","2022-12-29T13:53:00Z",0.6,-1.7,4,270,"BKN",8,"KMSP 291353Z 27004KT 8SM BKN140 BKN250 01/M02 A2960 RMK AO2 SLP031 T00061017",2022.12.29-08.55.01
"METAR","KMSP","2022-12-29T14:53:00Z",0.6,-0.6,0,0,"OVC",8,"KMSP 291453Z 00000KT 8SM FEW110 BKN140 OVC250 01/M01 A2960 RMK AO2 SLP033 T00061006 53012",2022.12.29-09.55.01
"METAR","KMSP","2022-12-29T15:53:00Z",1.1,-0.6,4,280,"OVC",8,"KMSP 291553Z 28004KT 8SM FEW100 BKN140 OVC250 01/M01 A2963 RMK AO2 SLP043 T00111006",2022.12.29-10.55.01
"METAR","KMSP","2022-12-29T16:53:00Z",1.7,-1.1,4,260,"OVC",8,"KMSP 291653Z 26004KT 8SM BKN110 OVC130 02/M01 A2964 RMK AO2 SLP046 T00171011",2022.12.29-11.55.01
"METAR","KMSP","2022-12-29T17:53:00Z",1.7,-0.6,3,0,"OVC",7,"KMSP 291753Z VRB03KT 7SM BKN100 BKN130 OVC250 02/M01 A2964 RMK AO2 SLP044 4/007 T00171006 10017 20000 50010",2022.12.29-12.55.02
"METAR","KMSP","2022-12-29T18:53:00Z",2.2,-1.1,3,240,"OVC",7,"KMSP 291853Z 24003KT 7SM OVC095 02/M01 A2963 RMK AO2 SLP041 T00221011",2022.12.29-13.55.01
"METAR","KMSP","2022-12-29T19:53:00Z",2.2,-1.1,7,320,"OVC",7,"KMSP 291953Z 32007KT 7SM OVC095 02/M01 A2961 RMK AO2 SLP036 T00221011",2022.12.29-14.55.01
"METAR","KMSP","2022-12-29T20:53:00Z",2.2,-1.7,4,330,"BKN",8,"KMSP 292053Z 33004KT 8SM FEW016 BKN090 BKN250 02/M02 A2964 RMK AO2 SLP044 T00221017 55000",2022.12.29-15.55.01
"METAR","KMSP","2022-12-29T21:53:00Z",1.7,-1.7,3,290,"OVC",8,"KMSP 292153Z 29003KT 8SM FEW018 OVC085 02/M02 A2966 RMK AO2 SLP053 T00171017",2022.12.29-16.55.01
"METAR","KMSP","2022-12-29T22:53:00Z",1.7,-1.7,6,330,"BKN",9,"KMSP 292253Z 33006KT 9SM SCT018 BKN095 02/M02 A2966 RMK AO2 SLP052 T00171017",2022.12.29-17.55.01
"METAR","KMSP","2022-12-29T23:53:00Z",0.6,-2.2,6,290,"OVC",8,"KMSP 292353Z 29006KT 8SM OVC016 01/M02 A2970 RMK AO2 SLP065 4/006 T00061022 10028 20006 53021",2022.12.29-18.55.01
"METAR","KMSP","2022-12-30T01:49:00Z",0,-3,11,320,"OVC",9,"KMSP 300149Z 32011KT 9SM OVC015 00/M03 A2970 RMK AO2",2022.12.29-19.55.01
"METAR","KMSP","2022-12-30T02:17:00Z",-1.1,-3.3,12,300,"OVC",7,"KMSP 300217Z 30012KT 7SM BKN012 OVC017 M01/M03 A2969 RMK AO2 T10111033",2022.12.29-20.55.01
"METAR","KMSP","2022-12-30T03:45:00Z",-2.8,-5,12,290,"OVC",2.5,"KMSP 300345Z 29012KT 2 1/2SM -SN BR BKN012 BKN035 OVC055 M03/M05 A2973 RMK AO2 SNB27 P0000 T10281050",2022.12.29-21.55.01
"METAR","KMSP","2022-12-30T04:47:00Z",-5,-7,12,280,"OVC",2,"KMSP 300447Z 28012KT 2SM -SN BR SCT013 BKN030 OVC040 M05/M07 A2976 RMK AO2 SFC VIS 3 P0001",2022.12.29-22.55.01
"METAR","KMSP","2022-12-30T05:46:00Z",-6.7,-8.9,12,280,"BKN",6,"KMSP 300546Z 28012KT 6SM BR BKN012 BKN030 M07/M09 A2980 RMK AO2 SNE41 P0000 T10671089",2022.12.29-23.55.01
"METAR","KMSP","2022-12-30T06:48:00Z",-7,-10,10,280,"OVC",10,"KMSP 300648Z 28010KT 10SM BKN013 OVC022 M07/M10 A2983 RMK AO2",2022.12.30-00.55.01
"METAR","KMSP","2022-12-30T07:11:00Z",-7.2,-10.6,11,270,"OVC",10,"KMSP 300711Z 27011KT 10SM OVC015 M07/M11 A2984 RMK AO2 T10721106",2022.12.30-01.55.01
"METAR","KMSP","2022-12-30T08:00:00Z",-7.8,-10.6,10,280,"OVC",10,"KMSP 300800Z 28010KT 10SM OVC013 M08/M11 A2987 RMK AO2 T10781106",2022.12.30-02.55.01
"METAR","KMSP","2022-12-30T08:53:00Z",-7.8,-10.6,10,280,"OVC",10,"KMSP 300853Z 28010KT 10SM OVC010 M08/M11 A2988 RMK AO2 SLP130 T10781106 53016",2022.12.30-03.55.01
"METAR","KMSP","2022-12-30T09:53:00Z",-7.8,-10.6,10,270,"OVC",10,"KMSP 300953Z 27010KT 10SM OVC011 M08/M11 A2991 RMK AO2 SLP141 T10781106",2022.12.30-04.55.01
"METAR","KMSP","2022-12-30T10:53:00Z",-7.8,-11.1,8,250,"OVC",10,"KMSP 301053Z 25008KT 10SM OVC014 M08/M11 A2995 RMK AO2 SLP153 T10781111",2022.12.30-05.55.01
"METAR","KMSP","2022-12-30T11:53:00Z",-7.8,-11.1,9,270,"OVC",10,"KMSP 301153Z 27009KT 10SM OVC013 M08/M11 A2996 RMK AO2 SLP159 4/007 70002 T10781111 11067 21078 51028",2022.12.30-06.55.01
"METAR","KMSP","2022-12-30T13:18:00Z",-7.8,-11.1,10,280,"OVC",10,"KMSP 301318Z 28010KT 10SM SCT014 OVC020 M08/M11 A2999 RMK AO2 T10781111",2022.12.30-07.55.01
"METAR","KMSP","2022-12-30T13:53:00Z",-7.8,-11.7,10,270,"OVC",10,"KMSP 301353Z 27010KT 10SM OVC019 M08/M12 A3000 RMK AO2 SLP172 T10781117",2022.12.30-08.55.01
"METAR","KMSP","2022-12-30T14:53:00Z",-8.3,-11.7,9,290,"OVC",10,"KMSP 301453Z 29009KT 10SM OVC018 M08/M12 A3002 RMK AO2 SLP178 T10831117 51018",2022.12.30-09.55.01
"METAR","KMSP","2022-12-30T16:28:00Z",-6.7,-11.1,6,260,"SCT",10,"KMSP 301628Z 26006KT 10SM SCT019 SCT250 M07/M11 A3002 RMK AO2 T10671111",2022.12.30-10.55.01
"METAR","KMSP","2022-12-30T16:53:00Z",-6.7,-11.1,5,260,"FEW",10,"KMSP 301653Z 26005KT 10SM FEW020 FEW250 M07/M11 A3002 RMK AO2 SLP181 T10671111",2022.12.30-11.55.01
"METAR","KMSP","2022-12-30T17:53:00Z",-6.1,-11.7,8,270,"FEW",10,"KMSP 301753Z 27008KT 10SM FEW020 FEW250 M06/M12 A3002 RMK AO2 SLP181 4/006 T10611117 11061 21083 51002",2022.12.30-12.55.01
"METAR","KMSP","2022-12-30T18:53:00Z",-6.1,-11.1,8,250,"FEW",10,"KMSP 301853Z 25008KT 10SM FEW020 FEW250 M06/M11 A3000 RMK AO2 SLP175 T10611111",2022.12.30-13.55.01
"METAR","KMSP","2022-12-30T19:53:00Z",-5,-11.1,6,260,"FEW",10,"KMSP 301953Z 26006KT 10SM FEW250 M05/M11 A2999 RMK AO2 SLP169 T10501111",2022.12.30-14.55.01
"METAR","KMSP","2022-12-30T20:53:00Z",-4.4,-11.1,4,250,"FEW",10,"KMSP 302053Z 25004KT 10SM FEW250 M04/M11 A2998 RMK AO2 SLP165 T10441111 56016",2022.12.30-15.55.01
"METAR","KMSP","2022-12-30T21:53:00Z",-5,-11.1,5,180,"FEW",10,"KMSP 302153Z 18005KT 10SM FEW250 M05/M11 A3001 RMK AO2 SLP176 T10501111",2022.12.30-16.55.01
"METAR","KMSP","2022-12-30T22:53:00Z",-5.6,-11.7,6,210,"FEW",10,"KMSP 302253Z 21006KT 10SM FEW250 M06/M12 A3001 RMK AO2 SLP178 T10561117",2022.12.30-17.55.01
"METAR","KMSP","2022-12-30T23:53:00Z",-6.1,-11.7,0,0,"FEW",10,"KMSP 302353Z 00000KT 10SM FEW250 M06/M12 A2998 RMK AO2 SLP167 4/006 T10611117 11039 21061 50001",2022.12.30-18.55.01
"METAR","KMSP","2022-12-31T00:53:00Z",-6.1,-11.1,6,0,"FEW",10,"KMSP 310053Z VRB06KT 10SM FEW100 FEW250 M06/M11 A2999 RMK AO2 SLP169 T10611111",2022.12.30-19.55.01
"METAR","KMSP","2022-12-31T01:53:00Z",-8.3,-12.8,5,160,"SCT",10,"KMSP 310153Z 16005KT 10SM FEW100 SCT250 M08/M13 A2998 RMK AO2 SLP167 T10831128",2022.12.30-20.55.02
"METAR","KMSP","2022-12-31T03:41:00Z",-8.9,-12.2,4,160,"BKN",10,"KMSP 310341Z 16004KT 10SM SCT005 BKN012 BKN085 M09/M12 A2997 RMK AO2 T10891122",2022.12.30-21.55.01
"METAR","KMSP","2022-12-31T04:20:00Z",-7.8,-10.6,6,130,"OVC",1,"KMSP 310420Z 13006KT 1SM R30L/P6000FT BR OVC004 M08/M11 A2996 RMK AO2 SFC VIS 6 T10781106",2022.12.30-22.55.01
"METAR","KMSP","2022-12-31T05:01:00Z",-7.2,-8.3,3,160,"OVC",2,"KMSP 310501Z 16003KT 2SM BR OVC003 M07/M08 A2995 RMK AO2 SFC VIS 6 T10721083",2022.12.30-23.55.01
"METAR","KMSP","2022-12-31T06:27:00Z",-6.7,-7.8,6,130,"OVC",0.5,"KMSP 310627Z 13006KT 1/2SM R30L/P6000FT FZFG OVC002 M07/M08 A2991 RMK AO2 I1001 T10671078",2022.12.31-00.55.01
"METAR","KMSP","2022-12-31T06:53:00Z",-6.7,-7.8,6,120,"OVC",0.5,"KMSP 310653Z 12006KT 1/2SM R30L/P6000FT FZFG OVC002 M07/M08 A2989 RMK AO2 SLP137 I1002 T10671078",2022.12.31-01.55.01
"METAR","KMSP","2022-12-31T07:53:00Z",-6.1,-7.2,6,120,"OVC",0.25,"KMSP 310753Z 12006KT 1/4SM R30L/P6000FT FZFG OVC003 M06/M07 A2988 RMK AO2 TWR VIS 1/2 SLP131 I1002 T10611072",2022.12.31-02.55.01
"METAR","KMSP","2022-12-31T09:01:00Z",-5.6,-6.7,8,110,"OVC",1,"KMSP 310901Z 11008KT 1SM R30L/P6000FT BR OVC003 M06/M07 A2986 RMK AO2 SFC VIS 1 1/4 T10561067",2022.12.31-03.55.02
"METAR","KMSP","2022-12-31T10:03:00Z",-5.6,-6.7,9,120,"OVC",2.5,"KMSP 311003Z 12009KT 2 1/2SM BR OVC004 M06/M07 A2986 RMK AO2 T10561067",2022.12.31-04.55.01
"METAR","KMSP","2022-12-31T10:53:00Z",-5,-6.1,9,130,"OVC",2,"KMSP 311053Z 13009KT 2SM BR OVC004 M05/M06 A2986 RMK AO2 TWR VIS 2 1/2 SLP123 I1001 T10501061",2022.12.31-05.55.01
"METAR","KMSP","2022-12-31T12:36:00Z",-4.4,-6.1,9,120,"OVC",2,"KMSP 311236Z 12009KT 2SM BR OVC004 M04/M06 A2983 RMK AO2 SFC VIS 3 I1000 T10441061",2022.12.31-06.55.02
"METAR","KMSP","2022-12-31T13:38:00Z",-5,-6.1,11,120,"OVC",2.5,"KMSP 311338Z 12011KT 2 1/2SM BR OVC005 M05/M06 A2981 RMK AO2 I1000 T10501061 $",2022.12.31-07.55.01
"METAR","KMSP","2022-12-31T14:28:00Z",-4.4,-5.6,9,130,"OVC",4,"KMSP 311428Z 13009KT 4SM BR OVC005 M04/M06 A2980 RMK AO2 T10441056",2022.12.31-08.55.01
"METAR","KMSP","2022-12-31T15:08:00Z",-3.9,-5,9,130,"OVC",7,"KMSP 311508Z 13009KT 7SM SCT007 OVC200 M04/M05 A2979 RMK AO2 T10391050",2022.12.31-09.55.01
"METAR","KMSP","2022-12-31T16:38:00Z",-2.2,-5,10,140,"BKN",10,"KMSP 311638Z 14010KT 10SM FEW008 SCT110 BKN160 M02/M05 A2978 RMK AO2 I1000 T10221050",2022.12.31-10.55.01
"METAR","KMSP","2022-12-31T16:53:00Z",-2.2,-4.4,11,150,"BKN",10,"KMSP 311653Z 15011G15KT 10SM SCT110 BKN160 M02/M04 A2977 RMK AO2 SLP095 I1000 T10221044",2022.12.31-11.55.01
"METAR","KMSP","2022-12-31T17:53:00Z",-1.1,-3.9,9,140,"OVC",10,"KMSP 311753Z COR 14009KT 10SM OVC200 M01/M04 A2975 RMK AO2 SLP085 4/006 I6004 T10111039 11011 21050 58016",2022.12.31-12.55.01
"METAR","KMSP","2022-12-31T18:53:00Z",0.6,-2.8,10,150,"OVC",9,"KMSP 311853Z 15010KT 9SM BKN060 OVC200 01/M03 A2972 RMK AO2 SLP074 T00061028",2022.12.31-13.55.01
"METAR","KMSP","2022-12-31T19:53:00Z",1.7,-1.7,9,160,"BKN",10,"KMSP 311953Z 16009KT 10SM SCT070 BKN140 BKN200 02/M02 A2969 RMK AO2 SLP063 T00171017",2022.12.31-14.55.01
"METAR","KMSP","2022-12-31T20:53:00Z",2.2,-1.7,10,160,"BKN",10,"KMSP 312053Z 16010KT 10SM FEW065 BKN140 02/M02 A2968 RMK AO2 SLP060 T00221017 56023",2022.12.31-15.55.01
"METAR","KMSP","2022-12-31T21:53:00Z",1.7,-1.7,9,170,"BKN",10,"KMSP 312153Z 17009G18KT 10SM BKN055 BKN140 02/M02 A2968 RMK AO2 SLP060 T00171017",2022.12.31-16.55.01
"METAR","KMSP","2022-12-31T23:15:00Z",1.7,-1.7,10,170,"OVC",10,"KMSP 312315Z 17010KT 10SM BKN025 OVC055 02/M02 A2968 RMK AO2 T00171017",2022.12.31-17.55.01
"METAR","KMSP","2022-12-31T23:53:00Z",1.7,-1.1,8,170,"OVC",10,"KMSP 312353Z 17008KT 10SM BKN020 OVC055 02/M01 A2969 RMK AO2 SLP066 4/006 T00171011 10022 21011 53006",2022.12.31-18.55.01
"METAR","KMSP","2023-01-01T00:53:00Z",2.2,-1.1,8,160,"OVC",10,"KMSP 010053Z 16008KT 10SM OVC016 02/M01 A2969 RMK AO2 SLP066 T00221011",2022.12.31-19.55.01
"METAR","KMSP","2023-01-01T02:46:00Z",1.7,-1.1,7,180,"OVC",10,"KMSP 010246Z 18007KT 10SM BKN013 OVC023 02/M01 A2970 RMK AO2 T00171011",2022.12.31-20.55.01
"METAR","KMSP","2023-01-01T02:53:00Z",1.7,-1.1,7,180,"OVC",10,"KMSP 010253Z 18007KT 10SM BKN013 OVC024 02/M01 A2970 RMK AO2 SLP069 T00171011 53003",2022.12.31-21.55.01
"METAR","KMSP","2023-01-01T03:53:00Z",1.7,-0.6,4,190,"OVC",9,"KMSP 010353Z 19004KT 9SM OVC012 02/M01 A2971 RMK AO2 SLP068 T00171006",2022.12.31-22.55.01
"METAR","KMSP","2023-01-01T04:53:00Z",1.7,-0.6,4,0,"OVC",8,"KMSP 010453Z VRB04KT 8SM OVC014 02/M01 A2970 RMK AO2 SLP066 T00171006",2022.12.31-23.55.01
"METAR","KMSP","2023-01-01T05:53:00Z",1.7,-1.1,6,240,"OVC",10,"KMSP 010553Z 24006KT 10SM OVC013 02/M01 A2971 RMK AO2 SLP069 4/006 T00171011 10022 20011 400221067 53002",2023.01.01-00.55.01
"METAR","KMSP","2023-01-01T06:53:00Z",0.6,-2.2,8,240,"BKN",9,"KMSP 010653Z 24008KT 9SM BKN012 01/M02 A2972 RMK AO2 SLP073 T00061022",2023.01.01-01.55.01
"METAR","KMSP","2023-01-01T07:54:00Z",-0.6,-2.2,8,260,"BKN",8,"KMSP 010754Z 26008KT 8SM BKN008 M01/M02 A2974 RMK AO2 T10061022",2023.01.01-02.55.01
"METAR","KMSP","2023-01-01T09:32:00Z",-2.2,-3.3,7,260,"OVC",5,"KMSP 010932Z 26007KT 5SM BR OVC004 M02/M03 A2978 RMK AO2 T10221033",2023.01.01-03.55.01
"METAR","KMSP","2023-01-01T10:45:00Z",-1.7,-3.3,6,260,"OVC",7,"KMSP 011045Z 26006KT 7SM OVC005 M02/M03 A2979 RMK AO2 T10171033",2023.01.01-04.55.01
"METAR","KMSP","2023-01-01T10:53:00Z",-1.7,-3.3,6,270,"OVC",8,"KMSP 011053Z 27006KT 8SM OVC007 M02/M03 A2979 RMK AO2 SLP099 T10171033",2023.01.01-05.55.01
"METAR","KMSP","2023-01-01T11:53:00Z",-1.7,-3.9,6,270,"OVC",9,"KMSP 011153Z 27006KT 9SM OVC008 M02/M04 A2981 RMK AO2 SLP104 4/006 T10171039 10017 21022 53011",2023.01.01-06.55.01
"METAR","KMSP","2023-01-01T12:53:00Z",-2.2,-3.9,7,240,"OVC",9,"KMSP 011253Z 24007KT 9SM OVC008 M02/M04 A2984 RMK AO2 SLP115 T10221039",2023.01.01-07.55.01
"METAR","KMSP","2023-01-01T14:45:00Z",-2.8,-3.9,6,280,"OVC",4,"KMSP 011445Z 28006KT 4SM BR OVC004 M03/M04 A2985 RMK AO2 T10281039",2023.01.01-08.55.01
"METAR","KMSP","2023-01-01T15:15:00Z",-2.8,-3.9,5,250,"OVC",1.5,"KMSP 011515Z 25005KT 1 1/2SM BR OVC004 M03/M04 A2987 RMK AO2 SFC VIS 2 T10281039",2023.01.01-09.55.01
"METAR","KMSP","2023-01-01T15:53:00Z",-2.8,-3.9,4,290,"OVC",2,"KMSP 011553Z 29004KT 2SM BR OVC003 M03/M04 A2990 RMK AO2 TWR VIS 2 1/2 SLP134 T10281039",2023.01.01-10.55.01
"METAR","KMSP","2023-01-01T17:33:00Z",-2.8,-4.4,6,260,"OVC",5,"KMSP 011733Z 26006KT 5SM BR OVC004 M03/M04 A2991 RMK AO2 T10281044",2023.01.01-11.55.01
"METAR","KMSP","2023-01-01T18:00:00Z",-2.8,-5,6,240,"OVC",7,"KMSP 011800Z 24006KT 7SM OVC005 M03/M05 A2992 RMK AO2 T10281050",2023.01.01-12.55.01
"METAR","KMSP","2023-01-01T19:33:00Z",-1.7,-5,4,200,"BKN",8,"KMSP 011933Z 20004KT 8SM BKN010 M02/M05 A2993 RMK AO2 T10171050",2023.01.01-13.55.01
"METAR","KMSP","2023-01-01T19:53:00Z",-1.1,-5,5,220,"SCT",10,"KMSP 011953Z 22005KT 10SM SCT010 M01/M05 A2993 RMK AO2 SLP145 T10111050",2023.01.01-14.55.01
"METAR","KMSP","2023-01-01T20:53:00Z",0,-5.6,4,250,"FEW",10,"KMSP 012053Z 25004KT 10SM FEW010 00/M06 A2993 RMK AO2 SLP146 T00001056 53003",2023.01.01-15.55.01
"METAR","KMSP","2023-01-01T21:53:00Z",-0.6,-6.1,6,240,"FEW",10,"KMSP 012153Z 24006KT 10SM FEW010 M01/M06 A2995 RMK AO2 SLP152 T10061061",2023.01.01-16.55.01
"METAR","KMSP","2023-01-01T22:53:00Z",-1.7,-6.7,5,240,"CLR",10,"KMSP 012253Z 24005KT 10SM CLR M02/M07 A2997 RMK AO2 SLP159 T10171067",2023.01.01-17.55.01
"METAR","KMSP","2023-01-01T23:53:00Z",-3.3,-7.2,4,260,"CLR",10,"KMSP 012353Z 26004KT 10SM CLR M03/M07 A2999 RMK AO2 SLP165 4/006 T10331072 10000 21033 53018",2023.01.01-18.55.02
"METAR","KMSP","2023-01-02T00:53:00Z",-3.3,-7.2,5,250,"SCT",10,"KMSP 020053Z 25005KT 10SM SCT210 M03/M07 A3000 RMK AO2 SLP172 T10331072",2023.01.01-19.55.01
"METAR","KMSP","2023-01-02T01:53:00Z",-3.9,-7.8,6,260,"SCT",10,"KMSP 020153Z 26006KT 10SM SCT210 M04/M08 A3004 RMK AO2 SLP185 T10391078",2023.01.01-20.55.01
"METAR","KMSP","2023-01-02T03:37:00Z",-5.6,-7.8,10,340,"BKN",8,"KMSP 020337Z 34010KT 8SM SCT008 BKN210 M06/M08 A3006 RMK AO2 T10561078",2023.01.01-21.55.01
"METAR","KMSP","2023-01-02T04:19:00Z",-5.6,-7.2,5,320,"OVC",6,"KMSP 020419Z 32005KT 6SM BR OVC007 M06/M07 A3008 RMK AO2 T10561072",2023.01.01-22.55.01
"METAR","KMSP","2023-01-02T04:53:00Z",-5,-6.7,4,330,"OVC",7,"KMSP 020453Z 33004KT 7SM OVC007 M05/M07 A3008 RMK AO2 SLP198 T10501067",2023.01.01-23.55.01
"METAR","KMSP","2023-01-02T05:53:00Z",-5,-6.7,6,310,"OVC",7,"KMSP 020553Z 31006KT 7SM OVC007 M05/M07 A3009 RMK AO2 SLP201 4/006 T10501067 11033 21056 400171056 51012",2023.01.02-00.55.01
"METAR","KMSP","2023-01-02T07:35:00Z",-5,-6.1,5,300,"OVC",4,"KMSP 020735Z 30005KT 4SM BR OVC004 M05/M06 A3008 RMK AO2 T10501061",2023.01.02-01.55.01
"METAR","KMSP","2023-01-02T07:53:00Z",-5,-6.7,4,300,"OVC",5,"KMSP 020753Z 30004KT 5SM BR OVC006 M05/M07 A3009 RMK AO2 SLP201 T10501067",2023.01.02-02.55.01
"METAR","KMSP","2023-01-02T09:49:00Z",-5,-7,5,310,"OVC",5,"KMSP 020949Z 31005KT 5SM BR OVC004 M05/M07 A3010 RMK AO2",2023.01.02-03.55.01
"METAR","KMSP","2023-01-02T09:53:00Z",-5,-6.7,3,290,"OVC",5,"KMSP 020953Z 29003KT 5SM BR OVC004 M05/M07 A3011 RMK AO2 SLP207 T10501067",2023.01.02-04.55.01
"METAR","KMSP","2023-01-02T11:44:00Z",-5,-6.1,3,20,"OVC",2,"KMSP 021144Z 02003KT 2SM BR OVC003 M05/M06 A3010 RMK AO2 SFC VIS 4 4/006 T10501061",2023.01.02-05.55.01
"METAR","KMSP","2023-01-02T11:53:00Z",-5,-6.1,0,0,"OVC",2,"KMSP 021153Z 00000KT 2SM BR OVC003 M05/M06 A3011 RMK AO2 SLP209 4/006 T10501061 11050 21050 53002",2023.01.02-06.55.02
"METAR","KMSP","2023-01-02T13:32:00Z",-5.6,-6.7,5,230,"OVC",1.5,"KMSP 021332Z 23005KT 1 1/2SM BR OVC003 M06/M07 A3014 RMK AO2 SFC VIS 2 T10561067",2023.01.02-07.55.01
"METAR","KMSP","2023-01-02T14:18:00Z",-5.6,-6.1,4,230,"OVC",1.5,"KMSP 021418Z 23004KT 1 1/2SM BR OVC003 M06/M06 A3012 RMK AO2 SFC VIS 3 T10561061",2023.01.02-08.55.01
"METAR","KMSP","2023-01-02T14:53:00Z",-5.6,-6.7,6,310,"OVC",1.5,"KMSP 021453Z 31006KT 1 1/2SM BR OVC003 M06/M07 A3013 RMK AO2 SFC VIS 2 SLP216 I3000 T10561067 51007",2023.01.02-09.55.01
"METAR","KMSP","2023-01-02T15:53:00Z",-5.6,-5.6,0,0,"OVC",1.5,"KMSP 021553Z 00000KT 1 1/2SM BR OVC003 M06/M06 A3012 RMK AO2 SFC VIS 2 SLP214 T10561056",2023.01.02-10.55.01
"METAR","KMSP","2023-01-02T17:24:00Z",-5,-6.7,0,0,"OVC",1.5,"KMSP 021724Z 00000KT 1 1/2SM BR OVC004 M05/M07 A3011 RMK AO2 SFC VIS 3 SNE24 P0000 T10501067",2023.01.02-11.55.01
"METAR","KMSP","2023-01-02T18:45:00Z",-4.4,-6.1,3,350,"OVC",2.5,"KMSP 021845Z 35003KT 2 1/2SM BR OVC004 M04/M06 A3007 RMK AO2 SFC VIS 4 T10441061",2023.01.02-12.55.01
"METAR","KMSP","2023-01-02T19:33:00Z",-3.9,-6.1,3,330,"OVC",5,"KMSP 021933Z 33003KT 5SM BR OVC008 M04/M06 A3006 RMK AO2 T10391061",2023.01.02-13.55.01
"METAR","KMSP","2023-01-02T20:47:00Z",-4,-6,6,190,"OVC",1,"KMSP 022047Z 19006KT 1SM R30L/P6000FT -SN BR OVC009 M04/M06 A3009 RMK AO2 SFC VIS 1 3/4 SNB30 P0000",2023.01.02-14.55.01
"METAR","KMSP","2023-01-02T21:50:00Z",-4,-6,3,330,"OVC",2,"KMSP 022150Z 33003KT 2SM -SN BR BKN022 OVC090 M04/M06 A3007 RMK AO2 P0001",2023.01.02-15.55.01
"METAR","KMSP","2023-01-02T22:30:00Z",-3.3,-6.1,0,0,"OVC",5,"KMSP 022230Z 00000KT 5SM HZ BKN010 OVC075 M03/M06 A3007 RMK AO2 SNE2154 P0000 T10331061",2023.01.02-16.55.01
"METAR","KMSP","2023-01-02T22:53:00Z",-3.3,-6.1,4,330,"OVC",5,"KMSP 022253Z 33004KT 5SM HZ OVC010 M03/M06 A3006 RMK AO2 SNE2154 SLP193 P0000 T10331061",2023.01.02-17.55.01
"METAR","KMSP","2023-01-03T00:28:00Z",-3.3,-5.6,0,0,"BKN",5,"KMSP 030028Z 00000KT 5SM BR SCT009 BKN060 BKN100 M03/M06 A3002 RMK AO2 T10331056",2023.01.02-18.55.01
"METAR","KMSP","2023-01-03T01:45:00Z",-3.3,-5.6,4,30,"OVC",5,"KMSP 030145Z 03004KT 5SM BR OVC009 M03/M06 A3001 RMK AO2 SNB0058E10 P0000 T10331056",2023.01.02-19.55.01
"METAR","KMSP","2023-01-03T02:45:00Z",-3.3,-5.6,0,0,"OVC",6,"KMSP 030245Z 00000KT 6SM BR OVC010 M03/M06 A3005 RMK AO2 T10331056",2023.01.02-20.55.01
"METAR","KMSP","2023-01-03T03:42:00Z",-3.3,-5.6,5,40,"OVC",5,"KMSP 030342Z 04005KT 5SM BR OVC009 M03/M06 A3001 RMK AO2 T10331056",2023.01.02-21.55.01
"METAR","KMSP","2023-01-03T04:25:00Z",-3.3,-5.6,6,30,"OVC",4,"KMSP 030425Z 03006KT 4SM -SN OVC009 M03/M06 A2999 RMK AO2 SNB25 P0000 T10331056",2023.01.02-22.55.02
"METAR","KMSP","2023-01-03T05:46:00Z",-3.3,-5.6,4,60,"OVC",3,"KMSP 030546Z 06004KT 3SM -SN FEW008 OVC039 M03/M06 A2997 RMK AO2 P0000 T10331056",2023.01.02-23.55.02
"METAR","KMSP","2023-01-03T05:53:00Z",-3.3,-5.6,5,0,"OVC",3,"KMSP 030553Z VRB05KT 3SM -SN FEW008 OVC039 M03/M06 A2996 RMK AO2 SLP159 4/006 P0000 60000 T10331056 11028 21033 410281056 56027",2023.01.03-00.55.01
"METAR","KMSP","2023-01-03T07:30:00Z",-3.9,-6.1,7,30,"OVC",4,"KMSP 030730Z 03007KT 4SM BR FEW009 OVC038 M04/M06 A2993 RMK AO2 T10391061",2023.01.03-01.55.01
"METAR","KMSP","2023-01-03T08:48:00Z",-4,-6,9,40,"OVC",5,"KMSP 030848Z 04009KT 5SM BR BKN008 OVC055 M04/M06 A2988 RMK AO2 $",2023.01.03-02.55.01
"METAR","KMSP","2023-01-03T09:11:00Z",-4.4,-6.1,7,40,"BKN",5,"KMSP 030911Z 04007KT 5SM BR SCT008 BKN055 M04/M06 A2987 RMK AO2 T10441061 $",2023.01.03-03.55.01
"METAR","KMSP","2023-01-03T10:39:00Z",-4.4,-6.7,10,30,"BKN",6,"KMSP 031039Z 03010KT 6SM BR SCT008 BKN046 BKN120 M04/M07 A2983 RMK AO2 T10441067 $",2023.01.03-04.55.01
"METAR","KMSP","2023-01-03T11:04:00Z",-4.4,-6.7,12,20,"BKN",6,"KMSP 031104Z 02012G20KT 6SM BR BKN008 BKN110 M04/M07 A2982 RMK AO2 T10441067 $",2023.01.03-05.55.01
"METAR","KMSP","2023-01-03T12:41:00Z",-4.4,-6.7,12,20,"OVC",6,"KMSP 031241Z 02012KT 6SM BR SCT009 OVC090 M04/M07 A2978 RMK AO2 T10441067",2023.01.03-06.55.01
"METAR","KMSP","2023-01-03T13:46:00Z",-4.4,-6.7,11,30,"OVC",7,"KMSP 031346Z 03011G20KT 7SM SCT009 BKN043 OVC075 M04/M07 A2976 RMK AO2 PK WND 05032/1324 T10441067",2023.01.03-07.55.01
"METAR","KMSP","2023-01-03T14:44:00Z",-3.9,-6.1,14,50,"OVC",7,"KMSP 031444Z 05014G21KT 7SM -FZDZSN OVC041 M04/M06 A2974 RMK AO2 PK WND 04028/1415 FZDZB44 P0000 I1000 T10391061",2023.01.03-08.55.01
"METAR","KMSP","2023-01-03T15:48:00Z",-4,-6,13,30,"OVC",1.25,"KMSP 031548Z 03013G28KT 1 1/4SM R30L/4500VP6000FT -SN BR SCT013 OVC022 M04/M06 A2970 RMK AO2 PK WND 02028/1542 TWR VIS 4 FZDZE12 P0001 I1000",2023.01.03-09.55.01
"METAR","KMSP","2023-01-03T16:36:00Z",-3.9,-6.1,9,40,"OVC",1.5,"KMSP 031636Z 04009G19KT 1 1/2SM R30L/4500VP6000FT -SN BR OVC015 M04/M06 A2970 RMK AO2 PK WND 04029/1603 SFC VIS 2 P0007 T10391061",2023.01.03-10.55.01
"METAR","KMSP","2023-01-03T17:46:00Z",-3.9,-5.6,10,30,"OVX",0.5,"KMSP 031746Z 03010KT 1/2SM R30L/3000V4500FT SN FZFG VV013 M04/M06 A2966 RMK AO2 P0008 T10391056",2023.01.03-11.55.01
"METAR","KMSP","2023-01-03T18:46:00Z",-3.9,-5.6,9,30,"OVX",0.25,"KMSP 031846Z 03009KT 1/4SM R30L/2800V4000FT SN FZFG VV008 M04/M06 A2965 RMK AO2 SFC VIS 1/2 P0013 T10391056",2023.01.03-12.55.01
"METAR","KMSP","2023-01-03T19:46:00Z",-3.9,-5,13,10,"OVX",0.25,"KMSP 031946Z 01013G27KT 1/4SM R30L/1400V2800FT SN FZFG VV003 M04/M05 A2961 RMK AO2 PK WND 03028/1935 TWR VIS 1/4 P0015 T10391050",2023.01.03-13.55.01
"METAR","KMSP","2023-01-03T20:18:00Z",-3.3,-5,12,30,"OVC",9,"KMSP 032018Z 03012KT 9SM -SN BKN011 OVC019 M03/M05 A2960 RMK AO2 P0000 T10331050",2023.01.03-14.55.01
"METAR","KMSP","2023-01-03T21:33:00Z",-2.2,-3.9,11,40,"OVC",6,"KMSP 032133Z 04011KT 6SM -FZDZ BR OVC011 M02/M04 A2960 RMK AO2 SNE33 P0001 I1000 T10221039",2023.01.03-15.55.01
"METAR","KMSP","2023-01-03T22:14:00Z",-2.2,-3.9,12,40,"OVC",3,"KMSP 032214Z 04012KT 3SM -FZDZ BR OVC007 M02/M04 A2960 RMK AO2 P0000 I1001 T10221039",2023.01.03-16.55.01
"METAR","KMSP","2023-01-03T22:53:00Z",-2.2,-3.3,11,30,"OVC",4,"KMSP 032253Z 03011KT 4SM -FZDZ BR BKN008 OVC015 M02/M03 A2960 RMK AO2 SLP034 PCPN VRL LGT P0000 I1001 T10221033",2023.01.03-17.55.01
"METAR","KMSP","2023-01-04T00:41:00Z",-1.1,-2.8,11,40,"OVC",3,"KMSP 040041Z 04011KT 3SM -FZDZSN BR OVC007 M01/M03 A2961 RMK AO2 SNB41 P0001 I1004 T10111028",2023.01.03-18.55.01
"METAR","KMSP","2023-01-04T00:53:00Z",-1.1,-2.8,13,30,"OVC",3,"KMSP 040053Z 03013KT 3SM -FZDZSN BR OVC006 M01/M03 A2961 RMK AO2 SNB41 SLP038 P0001 I1004 T10111028",2023.01.03-19.55.01
"METAR","KMSP","2023-01-04T01:53:00Z",-0.6,-2.2,11,40,"OVC",3,"KMSP 040153Z 04011KT 3SM -FZDZSN BR OVC007 M01/M02 A2961 RMK AO2 SLP038 P0001 I1000 T10061022",2023.01.03-20.55.01
"METAR","KMSP","2023-01-04T03:06:00Z",-0.6,-2.2,11,50,"OVC",2.5,"KMSP 040306Z 05011KT 2 1/2SM -SN BR OVC007 M01/M02 A2961 RMK AO2 FZDZE06 P0000 I1000 T10061022",2023.01.03-21.55.01
"METAR","KMSP","2023-01-04T04:26:00Z",-0.6,-1.7,9,40,"OVC",2.5,"KMSP 040426Z 04009KT 2 1/2SM -SN BR SCT006 OVC016 M01/M02 A2961 RMK AO2 P0002 T10061017",2023.01.03-22.55.01
"METAR","KMSP","2023-01-04T05:17:00Z",-0.6,-1.7,9,30,"OVC",2.5,"KMSP 040517Z 03009KT 2 1/2SM -SN BR BKN008 OVC015 M01/M02 A2962 RMK AO2 P0001 T10061017",2023.01.03-23.55.01
"METAR","KMSP","2023-01-04T06:50:00Z",-1,-2,10,30,"OVC",2,"KMSP 040650Z 03010KT 2SM -SN BR SCT007 OVC011 M01/M02 A2961 RMK AO2 P0003",2023.01.04-00.55.02
"METAR","KMSP","2023-01-04T07:37:00Z",-0.6,-1.7,9,30,"OVC",3,"KMSP 040737Z 03009KT 3SM -SN BR OVC008 M01/M02 A2961 RMK AO2 P0003 T10061017",2023.01.04-01.55.01
"METAR","KMSP","2023-01-04T08:02:00Z",-0.6,-1.7,9,20,"OVC",1.25,"KMSP 040802Z 02009KT 1 1/4SM -SN BR OVC009 M01/M02 A2961 RMK AO2 P0001 T10061017",2023.01.04-02.55.01
"METAR","KMSP","2023-01-04T08:53:00Z",-0.6,-1.7,11,20,"OVX",1,"KMSP 040853Z 02011KT 1SM R30L/P6000FT -SN BR VV009 M01/M02 A2962 RMK AO2 TWR VIS 1 1/4 SLP041 P0005 60012 T10061017 53005 $",2023.01.04-03.55.01
"METAR","KMSP","2023-01-04T10:40:00Z",-0.6,-1.7,11,20,"OVX",1,"KMSP 041040Z 02011KT 1SM R30L/6000VP6000FT -SN BR VV006 M01/M02 A2961 RMK AO2 TWR VIS 1 1/4 P0005 T10061017 $",2023.01.04-04.55.02
"METAR","KMSP","2023-01-04T11:07:00Z",-0.6,-1.7,11,20,"OVX",1,"KMSP 041107Z 02011KT 1SM R30L/P6000FT -SN BR VV007 M01/M02 A2961 RMK AO2 P0002 T10061017 $",2023.01.04-05.55.01
"METAR","KMSP","2023-01-04T11:53:00Z",-0.6,-1.7,10,20,"OVX",1,"KMSP 041153Z 02010KT 1SM R30L/5000VP6000FT -SN BR VV007 M01/M02 A2962 RMK AO2 SLP040 4/014 P0007 60030 70095 T10061017 11006 21006 55001 $",2023.01.04-06.55.01
"METAR","KMSP","2023-01-04T13:05:00Z",-0.6,-1.1,11,20,"OVC",1,"KMSP 041305Z 02011KT 1SM R30L/P6000FT -SN BR FEW006 OVC010 M01/M01 A2963 RMK AO2 SFC VIS 1 3/4 P0001 T10061011",2023.01.04-07.55.01
"METAR","KMSP","2023-01-04T14:40:00Z",0,-1.1,10,30,"OVC",2.5,"KMSP 041440Z 03010KT 2 1/2SM -SN BR BKN010 OVC018 00/M01 A2965 RMK AO2 SFC VIS 4 P0002 T00001011",2023.01.04-08.55.01
"METAR","KMSP","2023-01-04T15:49:00Z",0,-1,11,30,"OVC",1.5,"KMSP 041549Z 03011KT 1 1/2SM -SN BR FEW007 OVC012 00/M01 A2966 RMK AO2 SFC VIS 2 1/2 P0002",2023.01.04-09.55.01
"METAR","KMSP","2023-01-04T16:41:00Z",0.6,-0.6,10,40,"OVC",2,"KMSP 041641Z 04010KT 2SM R30L/4000VP6000FT -SN BR OVC014 01/M01 A2967 RMK AO2 TWR VIS 3 P0001 T00061006",2023.01.04-10.55.01
"METAR","KMSP","2023-01-04T17:50:00Z",0.6,-0.6,8,30,"OVC",1.25,"KMSP 041750Z 03008KT 1 1/4SM R30L/5500VP6000FT -SN BR FEW006 SCT010 OVC017 01/M01 A2967 RMK AO2 TWR VIS 2 SLP057 P0002 60018 T00061006 10006 21006 50003",2023.01.04-11.55.01
"METAR","KMSP","2023-01-04T18:23:00Z",0.6,-0.6,9,20,"OVC",2,"KMSP 041823Z 02009KT 2SM -SN BR SCT008 OVC014 01/M01 A2967 RMK AO2 P0001 T00061006",2023.01.04-12.55.01
"METAR","KMSP","2023-01-04T19:36:00Z",0.6,-0.6,10,20,"OVC",3,"KMSP 041936Z 02010G21KT 3SM -SN BR BKN009 OVC017 01/M01 A2966 RMK AO2 SFC VIS 4 P0000 T00061006",2023.01.04-13.55.01
"METAR","KMSP","2023-01-04T20:28:00Z",0.6,-0.6,9,10,"OVC",2,"KMSP 042028Z 01009G21KT 2SM -SN BR BKN008 OVC014 01/M01 A2966 RMK AO2 TWR VIS 3 P0001 T00061006",2023.01.04-14.55.01
"METAR","KMSP","2023-01-04T21:31:00Z",0,-1.1,9,10,"OVC",3,"KMSP 042131Z 01009KT 3SM -SN BR BKN008 OVC015 00/M01 A2969 RMK AO2 SFC VIS 4 P0000 T00001011",2023.01.04-15.55.01
"METAR","KMSP","2023-01-04T22:40:00Z",0,-1.7,10,20,"OVC",1.75,"KMSP 042240Z 02010KT 1 3/4SM -SN BR BKN008 OVC016 00/M02 A2971 RMK AO2 TWR VIS 2 P0000 T00001017",2023.01.04-16.55.01
"METAR","KMSP","2023-01-04T23:24:00Z",0,-1.7,8,10,"OVC",4,"KMSP 042324Z 01008KT 4SM -SN BR BKN010 OVC014 00/M02 A2973 RMK AO2 P0000 T00001017",2023.01.04-17.55.01
"METAR","KMSP","2023-01-05T00:44:00Z",-0.6,-1.7,10,10,"OVC",2,"KMSP 050044Z 01010KT 2SM -SN BR FEW009 OVC014 M01/M02 A2975 RMK AO2 P0001 T10061017",2023.01.04-18.55.01
"METAR","KMSP","2023-01-05T01:52:00Z",-0.6,-1.7,9,10,"OVC",1.25,"KMSP 050152Z 01009KT 1 1/4SM -SN BR OVC009 M01/M02 A2977 RMK AO2 TWR VIS 2 1/2 SLP089 P0002 T10061017",2023.01.04-19.55.01
"METAR","KMSP","2023-01-05T02:29:00Z",-1.1,-2.2,11,10,"OVC",1.5,"KMSP 050229Z 01011KT 1 1/2SM -SN BR FEW007 OVC010 M01/M02 A2977 RMK AO2 TWR VIS 2 P0002 T10111022",2023.01.04-20.55.01
"METAR","KMSP","2023-01-05T03:50:00Z",-1,-2,10,10,"OVC",2,"KMSP 050350Z 01010KT 2SM -SN BR FEW009 OVC018 M01/M02 A2978 RMK AO2 TWR VIS 3 P0001",2023.01.04-21.55.01
"METAR","KMSP","2023-01-05T04:42:00Z",-1.1,-2.8,11,10,"OVC",2.5,"KMSP 050442Z 01011KT 2 1/2SM -SN BR BKN010 OVC029 M01/M03 A2979 RMK AO2 TWR VIS 3 P0001 T10111028",2023.01.04-22.55.01
"METAR","KMSP","2023-01-05T05:17:00Z",-1.1,-2.8,9,10,"OVC",3,"KMSP 050517Z 01009KT 3SM -SN BR BKN011 BKN016 OVC034 M01/M03 A2980 RMK AO2 SFC VIS 6 P0000 T10111028",2023.01.04-23.55.01
"METAR","KMSP","2023-01-05T06:32:00Z",-1.1,-2.8,11,360,"OVC",7,"KMSP 050632Z 36011KT 7SM SCT011 OVC037 M01/M03 A2981 RMK AO2 P0000 T10111028",2023.01.05-00.55.01
"METAR","KMSP","2023-01-05T07:27:00Z",-1.1,-2.8,12,10,"OVC",4,"KMSP 050727Z 01012KT 4SM -FZDZSN SCT011 BKN032 OVC040 M01/M03 A2981 RMK AO2 FZDZB21 P0000 I1000 T10111028",2023.01.05-01.55.01
"METAR","KMSP","2023-01-05T08:39:00Z",-1.7,-3.3,11,360,"OVC",7,"KMSP 050839Z 36011KT 7SM SCT011 OVC034 M02/M03 A2983 RMK AO2 SNE35 P0000 T10171033",2023.01.05-02.55.02
"METAR","KMSP","2023-01-05T09:27:00Z",-1.7,-3.3,9,360,"OVC",3,"KMSP 050927Z 36009KT 3SM R30L/2800VP6000FT -SN BR FEW011 OVC022 M02/M03 A2984 RMK AO2 SNB0854 P0000 T10171033",2023.01.05-03.55.01
"METAR","KMSP","2023-01-05T10:42:00Z",-2.2,-3.9,14,10,"OVC",7,"KMSP 051042Z 01014G21KT 7SM -SN BR FEW013 OVC030 M02/M04 A2985 RMK AO2 SNB35 P0000 T10221039",2023.01.05-04.55.01
"METAR","KMSP","2023-01-05T11:40:00Z",-2.2,-3.9,12,360,"OVC",5,"KMSP 051140Z 36012G18KT 5SM -SN BR BKN012 OVC034 M02/M04 A2988 RMK AO2 P0000 T10221039",2023.01.05-05.55.01
"METAR","KMSP","2023-01-05T11:53:00Z",-2.2,-3.9,12,350,"OVC",4,"KMSP 051153Z 35012KT 4SM -SN BR BKN012 OVC026 M02/M04 A2988 RMK AO2 SLP130 4/016 P0000 60000 70031 I6000 T10221039 11011 21022 53016",2023.01.05-06.55.01
"METAR","KMSP","2023-01-05T13:47:00Z",-4,-6,11,360,"BKN",6,"KMSP 051347Z 36011KT 6SM -SN BR SCT011 BKN027 M04/M06 A2991 RMK AO2 P0000",2023.01.05-07.55.01
"METAR","KMSP","2023-01-05T13:53:00Z",-3.9,-5.6,12,360,"OVC",9,"KMSP 051353Z 36012KT 9SM BKN011 BKN025 OVC130 M04/M06 A2991 RMK AO2 SNE50 SLP141 PRESENT WX VCSH P0000 T10391056",2023.01.05-08.55.01
"METAR","KMSP","2023-01-05T15:07:00Z",-3.3,-6.1,7,360,"OVC",10,"KMSP 051507Z 36007KT 10SM SCT013 BKN031 OVC090 M03/M06 A2993 RMK AO2 T10331061",2023.01.05-09.55.01
"METAR","KMSP","2023-01-05T16:15:00Z",-4.4,-7.2,11,350,"BKN",10,"KMSP 051615Z 35011KT 10SM SCT013 BKN060 BKN250 M04/M07 A2995 RMK AO2 T10441072",2023.01.05-10.55.01
"METAR","KMSP","2023-01-05T16:53:00Z",-3.9,-7.2,10,340,"BKN",10,"KMSP 051653Z 34010KT 10SM FEW013 FEW060 BKN250 M04/M07 A2996 RMK AO2 SLP155 T10391072",2023.01.05-11.55.01
"METAR","KMSP","2023-01-05T17:53:00Z",-3.3,-6.7,8,320,"BKN",10,"KMSP 051753Z 32008KT 10SM FEW013 BKN049 BKN250 M03/M07 A2995 RMK AO2 SLP154 4/016 60001 T10331067 11022 21044 50007",2023.01.05-12.55.01
"METAR","KMSP","2023-01-05T19:40:00Z",-3.3,-7.2,11,320,"BKN",10,"KMSP 051940Z 32011KT 10SM BKN014 BKN250 M03/M07 A2995 RMK AO2 T10331072",2023.01.05-13.55.01
"METAR","KMSP","2023-01-05T19:53:00Z",-3.9,-7.2,9,320,"BKN",10,"KMSP 051953Z 32009KT 10SM SCT013 BKN250 M04/M07 A2995 RMK AO2 SLP154 T10391072",2023.01.05-14.55.01
"METAR","KMSP","2023-01-05T20:53:00Z",-3.9,-7.8,8,320,"BKN",10,"KMSP 052053Z 32008KT 10SM FEW014 BKN250 M04/M08 A2995 RMK AO2 SLP155 T10391078 53000",2023.01.05-15.55.01
"METAR","KMSP","2023-01-05T22:18:00Z",-5.6,-7.8,9,330,"OVC",5,"KMSP 052218Z 33009KT 5SM BR OVC009 M06/M08 A2999 RMK AO2 T10561078",2023.01.05-16.55.01
"METAR","KMSP","2023-01-05T23:49:00Z",-6,-8,6,300,"OVC",3,"KMSP 052349Z 30006KT 3SM BR OVC010 M06/M08 A3001 RMK AO2 SNB33E42 P0000",2023.01.05-17.55.01
"METAR","KMSP","2023-01-06T00:13:00Z",-6.1,-7.8,5,290,"OVC",7,"KMSP 060013Z 29005KT 7SM OVC008 M06/M08 A3001 RMK AO2 T10611078",2023.01.05-18.55.01
"METAR","KMSP","2023-01-06T00:53:00Z",-6.1,-8.3,5,340,"OVC",3,"KMSP 060053Z 34005KT 3SM BR OVC010 M06/M08 A3002 RMK AO2 SLP180 T10611083",2023.01.05-19.55.01
"METAR","KMSP","2023-01-06T02:19:00Z",-6.7,-8.9,6,360,"OVC",9,"KMSP 060219Z 36006KT 9SM OVC009 M07/M09 A3004 RMK AO2 T10671089",2023.01.05-20.55.01
"METAR","KMSP","2023-01-06T03:27:00Z",-7.2,-9.4,7,320,"OVC",7,"KMSP 060327Z 32007KT 7SM OVC010 M07/M09 A3004 RMK AO2 SNB04E13 P0000 T10721094",2023.01.05-21.55.01
"METAR","KMSP","2023-01-06T04:48:00Z",-8,-9,7,320,"OVC",8,"KMSP 060448Z 32007KT 8SM OVC009 M08/M09 A3005 RMK AO2",2023.01.05-22.55.01
"METAR","KMSP","2023-01-06T04:53:00Z",-7.8,-9.4,6,310,"OVC",8,"KMSP 060453Z 31006KT 8SM OVC009 M08/M09 A3005 RMK AO2 SLP190 T10781094",2023.01.05-23.55.01
"METAR","KMSP","2023-01-06T05:53:00Z",-7.2,-9.4,8,280,"OVC",9,"KMSP 060553Z 28008KT 9SM OVC007 M07/M09 A3006 RMK AO2 SLP193 4/016 60000 T10721094 11061 21078 410111078 53008",2023.01.06-00.55.01
"METAR","KMSP","2023-01-06T06:53:00Z",-8.3,-10,5,300,"OVC",7,"KMSP 060653Z 30005KT 7SM OVC006 M08/M10 A3006 RMK AO2 SLP194 T10831100",2023.01.06-01.55.01
"METAR","KMSP","2023-01-06T07:53:00Z",-8.3,-10,3,290,"OVC",8,"KMSP 060753Z 29003KT 8SM OVC007 M08/M10 A3007 RMK AO2 SLP197 T10831100",2023.01.06-02.55.01
"METAR","KMSP","2023-01-06T08:53:00Z",-8.3,-10,5,280,"OVC",8,"KMSP 060853Z 28005KT 8SM OVC007 M08/M10 A3009 RMK AO2 SLP204 T10831100 53009",2023.01.06-03.55.01
"METAR","KMSP","2023-01-06T09:53:00Z",-8.3,-10.6,4,250,"OVC",9,"KMSP 060953Z 25004KT 9SM OVC007 M08/M11 A3010 RMK AO2 SLP207 T10831106",2023.01.06-04.55.01
"METAR","KMSP","2023-01-06T10:53:00Z",-8.9,-10.6,4,270,"OVC",6,"KMSP 061053Z 27004KT 6SM BR OVC006 M09/M11 A3010 RMK AO2 SLP208 T10891106",2023.01.06-05.55.01
"METAR","KMSP","2023-01-06T11:53:00Z",-10,-12.2,5,260,"OVC",7,"KMSP 061153Z 26005KT 7SM -SN OVC006 M10/M12 A3012 RMK AO2 SNB49 SLP214 4/016 P0000 60000 70001 T11001122 11072 21100 53009",2023.01.06-06.55.01
"METAR","KMSP","2023-01-06T13:38:00Z",-10.6,-12.2,5,270,"OVC",3,"KMSP 061338Z 27005KT 3SM -SN BR OVC004 M11/M12 A3015 RMK AO2 PCPN VRY LGT P0000 T11061122",2023.01.06-07.55.01
"METAR","KMSP","2023-01-06T13:57:00Z",-11.1,-12.2,4,270,"OVC",2,"KMSP 061357Z 27004KT 2SM R30L/3500VP6000FT -SN BR OVC004 M11/M12 A3015 RMK AO2 SFC VIS 2 1/2 VIS NE-SE 1 1/2 PCPN VRY LGT P0000 T11111122",2023.01.06-08.55.01
"METAR","KMSP","2023-01-06T15:19:00Z",-12.8,-13.9,6,230,"BKN",3,"KMSP 061519Z 23006KT 3SM -SN BKN008 BKN250 M13/M14 A3018 RMK AO2 SFC VIS 7 P0000 T11281139",2023.01.06-09.55.01
"METAR","KMSP","2023-01-06T16:26:00Z",-12.2,-13.9,4,280,"BKN",8,"KMSP 061626Z 28004KT 8SM SCT008 BKN250 M12/M14 A3020 RMK AO2 SNE26 P0000 T11221139",2023.01.06-10.55.01
"METAR","KMSP","2023-01-06T16:53:00Z",-11.7,-14.4,4,220,"SCT",9,"KMSP 061653Z 22004KT 9SM FEW008 SCT250 M12/M14 A3021 RMK AO2 SNE26 SLP248 P0000 T11171144",2023.01.06-11.55.02
"METAR","KMSP","2023-01-06T17:53:00Z",-10.6,-13.3,3,220,"FEW",9,"KMSP 061753Z 22003KT 9SM FEW250 M11/M13 A3020 RMK AO2 SLP244 4/015 60000 T11061133 11100 21128 50010",2023.01.06-12.55.01
"METAR","KMSP","2023-01-06T18:53:00Z",-9.4,-12.8,4,180,"FEW",9,"KMSP 061853Z 18004KT 9SM FEW250 M09/M13 A3019 RMK AO2 SLP239 T10941128",2023.01.06-13.55.01
"METAR","KMSP","2023-01-06T19:53:00Z",-9.4,-13.3,4,130,"FEW",9,"KMSP 061953Z 13004KT 9SM FEW250 M09/M13 A3019 RMK AO2 SLP240 T10941133",2023.01.06-14.55.01
"METAR","KMSP","2023-01-06T20:53:00Z",-8.3,-12.8,3,140,"CLR",9,"KMSP 062053Z 14003KT 9SM CLR M08/M13 A3021 RMK AO2 SLP247 T10831128 53003",2023.01.06-15.55.01
"METAR","KMSP","2023-01-06T21:53:00Z",-7.8,-12.2,6,250,"CLR",7,"KMSP 062153Z 25006KT 7SM CLR M08/M12 A3023 RMK AO2 SLP251 T10781122",2023.01.06-16.55.01
"METAR","KMSP","2023-01-06T22:53:00Z",-9.4,-13.3,5,230,"CLR",7,"KMSP 062253Z 23005KT 7SM CLR M09/M13 A3024 RMK AO2 SLP258 T10941133",2023.01.06-17.55.01
"METAR","KMSP","2023-01-06T23:53:00Z",-11.1,-14.4,5,220,"CLR",7,"KMSP 062353Z 22005KT 7SM CLR M11/M14 A3026 RMK AO2 SLP266 4/015 T11111144 11072 21111 53016",2023.01.06-18.55.01
"METAR","KMSP","2023-01-07T00:53:00Z",-11.7,-14.4,4,240,"CLR",7,"KMSP 070053Z 24004KT 7SM CLR M12/M14 A3028 RMK AO2 SLP272 T11171144",2023.01.06-19.55.01
"METAR","KMSP","2023-01-07T01:53:00Z",-12.2,-15,4,230,"CLR",6,"KMSP 070153Z 23004KT 6SM BR CLR M12/M15 A3030 RMK AO2 SLP278 T11221150",2023.01.06-20.55.01
"METAR","KMSP","2023-01-07T02:53:00Z",-13.3,-15.6,4,230,"CLR",6,"KMSP 070253Z 23004KT 6SM BR CLR M13/M16 A3031 RMK AO2 SLP283 T11331156 51016",2023.01.06-21.55.01
"METAR","KMSP","2023-01-07T03:53:00Z",-13.3,-15.6,4,240,"CLR",6,"KMSP 070353Z 24004KT 6SM BR CLR M13/M16 A3032 RMK AO2 SLP289 T11331156",2023.01.06-22.55.01
"METAR","KMSP","2023-01-07T04:53:00Z",-14.4,-16.7,4,230,"CLR",7,"KMSP 070453Z 23004KT 7SM CLR M14/M17 A3034 RMK AO2 SLP294 T11441167",2023.01.06-23.55.01
"METAR","KMSP","2023-01-07T05:53:00Z",-15,-17.2,3,230,"CLR",7,"KMSP 070553Z 23003KT 7SM CLR M15/M17 A3035 RMK AO2 SLP298 4/015 T11501172 11111 21150 410721150 51014",2023.01.07-00.55.01
"METAR","KMSP","2023-01-07T06:53:00Z",-15.6,-17.8,0,0,"CLR",5,"KMSP 070653Z 00000KT 5SM BR CLR M16/M18 A3035 RMK AO2 SLP297 T11561178",2023.01.07-01.55.01
"METAR","KMSP","2023-01-07T07:53:00Z",-16.1,-18.3,3,240,"CLR",5,"KMSP 070753Z 24003KT 5SM BR CLR M16/M18 A3035 RMK AO2 SLP298 T11611183",2023.01.07-02.55.01
"METAR","KMSP","2023-01-07T08:53:00Z",-16.7,-18.9,4,230,"CLR",5,"KMSP 070853Z 23004KT 5SM BR CLR M17/M19 A3037 RMK AO2 SLP304 T11671189 53007",2023.01.07-03.55.01
"METAR","KMSP","2023-01-07T09:53:00Z",-16.7,-18.9,3,210,"CLR",5,"KMSP 070953Z 21003KT 5SM BR CLR M17/M19 A3038 RMK AO2 SLP309 T11671189",2023.01.07-04.55.01
"METAR","KMSP","2023-01-07T10:53:00Z",-16.7,-19.4,0,0,"CLR",4,"KMSP 071053Z 00000KT 4SM HZ CLR M17/M19 A3038 RMK AO2 SLP309 T11671194",2023.01.07-05.55.01
"METAR","KMSP","2023-01-07T11:53:00Z",-17.2,-19.4,0,0,"CLR",5,"KMSP 071153Z 00000KT 5SM BR CLR M17/M19 A3039 RMK AO2 SLP311 4/015 I1000 I6000 T11721194 11150 21172 51005",2023.01.07-06.55.01
"METAR","KMSP","2023-01-07T12:53:00Z",-17.2,-20.6,0,0,"FEW",5,"KMSP 071253Z 00000KT 5SM HZ FEW200 M17/M21 A3040 RMK AO2 SLP317 T11721206",2023.01.07-07.55.01
"METAR","KMSP","2023-01-07T13:53:00Z",-17.2,-20,4,250,"FEW",5,"KMSP 071353Z 25004KT 5SM BR FEW200 M17/M20 A3041 RMK AO2 SLP320 T11721200",2023.01.07-08.55.02
"METAR","KMSP","2023-01-07T14:53:00Z",-17.2,-18.9,3,0,"CLR",6,"KMSP 071453Z VRB03KT 6SM BR CLR M17/M19 A3042 RMK AO2 SLP324 T11721189 51012",2023.01.07-09.55.02
"METAR","KMSP","2023-01-07T15:53:00Z",-16.1,-17.8,4,170,"CLR",6,"KMSP 071553Z 17004KT 6SM BR CLR M16/M18 A3043 RMK AO2 SLP327 T11611178",2023.01.07-10.55.01
"METAR","KMSP","2023-01-07T16:53:00Z",-14.4,-17.2,0,0,"CLR",6,"KMSP 071653Z 00000KT 6SM BR CLR M14/M17 A3043 RMK AO2 SLP326 T11441172",2023.01.07-11.55.01
"METAR","KMSP","2023-01-07T17:53:00Z",-12.2,-15.6,3,170,"CLR",6,"KMSP 071753Z COR 17003KT 6SM BR CLR M12/M16 A3042 RMK AO2 SLP322 4/015 T11221156 11122 21178 58002",2023.01.07-12.55.01
"METAR","KMSP","2023-01-07T18:53:00Z",-9.4,-13.3,3,170,"CLR",10,"KMSP 071853Z COR 17003KT 10SM CLR M09/M13 A3040 RMK AO2 SLP315 T10941133",2023.01.07-13.55.01
"METAR","KMSP","2023-01-07T19:53:00Z",-8.3,-12.8,3,160,"CLR",8,"KMSP 071953Z 16003KT 8SM CLR M08/M13 A3039 RMK AO2 SLP311 T10831128",2023.01.07-14.55.02
"METAR","KMSP","2023-01-07T20:53:00Z",-7.2,-12.8,0,0,"FEW",7,"KMSP 072053Z 00000KT 7SM FEW250 M07/M13 A3039 RMK AO2 SLP310 T10721128 56009",2023.01.07-15.55.01
"METAR","KMSP","2023-01-07T21:53:00Z",-6.7,-11.7,0,0,"FEW",7,"KMSP 072153Z 00000KT 7SM FEW250 M07/M12 A3039 RMK AO2 SLP311 T10671117",2023.01.07-16.55.02
"METAR","KMSP","2023-01-07T22:53:00Z",-7.2,-12.2,3,230,"CLR",7,"KMSP 072253Z 23003KT 7SM CLR M07/M12 A3038 RMK AO2 SLP307 T10721122",2023.01.07-17.55.01
"METAR","KMSP","2023-01-07T23:53:00Z",-9.4,-13.3,4,190,"CLR",7,"KMSP 072353Z 19004KT 7SM CLR M09/M13 A3036 RMK AO2 SLP303 4/015 T10941133 11061 21122 58008",2023.01.07-18.55.01
"METAR","KMSP","2023-01-08T00:53:00Z",-8.9,-12.8,5,220,"CLR",7,"KMSP 080053Z 22005KT 7SM CLR M09/M13 A3037 RMK AO2 SLP304 T10891128",2023.01.07-19.55.01
"METAR","KMSP","2023-01-08T01:53:00Z",-11.1,-13.9,4,200,"CLR",7,"KMSP 080153Z 20004KT 7SM CLR M11/M14 A3037 RMK AO2 SLP305 T11111139",2023.01.07-20.55.01
"METAR","KMSP","2023-01-08T02:53:00Z",-11.7,-15,4,220,"CLR",7,"KMSP 080253Z 22004KT 7SM CLR M12/M15 A3035 RMK AO2 SLP300 T11171150 58004",2023.01.07-21.55.01
"METAR","KMSP","2023-01-08T03:53:00Z",-12.2,-15,4,200,"CLR",7,"KMSP 080353Z 20004KT 7SM CLR M12/M15 A3034 RMK AO2 SLP296 T11221150",2023.01.07-22.55.01
"METAR","KMSP","2023-01-08T04:53:00Z",-13.3,-15.6,0,0,"CLR",7,"KMSP 080453Z 00000KT 7SM CLR M13/M16 A3033 RMK AO2 SLP292 T11331156",2023.01.07-23.55.01
"METAR","KMSP","2023-01-08T05:53:00Z",-15,-17.2,4,160,"CLR",7,"KMSP 080553Z 16004KT 7SM CLR M15/M17 A3032 RMK AO2 SLP287 4/015 T11501172 11083 21150 410611178 58012",2023.01.08-00.55.01
"METAR","KMSP","2023-01-08T06:53:00Z",-14.4,-16.7,5,140,"CLR",5,"KMSP 080653Z 14005KT 5SM BR CLR M14/M17 A3029 RMK AO2 SLP275 T11441167",2023.01.08-01.55.01
"METAR","KMSP","2023-01-08T07:53:00Z",-13.9,-16.1,0,0,"CLR",5,"KMSP 080753Z 00000KT 5SM BR CLR M14/M16 A3028 RMK AO2 SLP272 T11391161",2023.01.08-02.55.01
"METAR","KMSP","2023-01-08T08:53:00Z",-15,-17.8,4,130,"CLR",5,"KMSP 080853Z 13004KT 5SM HZ CLR M15/M18 A3027 RMK AO2 SLP268 T11501178 56016",2023.01.08-03.55.01
"METAR","KMSP","2023-01-08T09:53:00Z",-15.6,-17.8,4,130,"CLR",5,"KMSP 080953Z 13004KT 5SM BR CLR M16/M18 A3024 RMK AO2 SLP260 I1000 T11561178",2023.01.08-04.55.01
"METAR","KMSP","2023-01-08T10:53:00Z",-15.6,-17.8,0,0,"CLR",5,"KMSP 081053Z 00000KT 5SM BR CLR M16/M18 A3024 RMK AO2 SLP259 I1000 T11561178",2023.01.08-05.55.01
"METAR","KMSP","2023-01-08T11:53:00Z",-16.1,-17.8,0,0,"CLR",5,"KMSP 081153Z 00000KT 5SM BR CLR M16/M18 A3023 RMK AO2 SLP258 4/015 I1000 I6000 T11611178 11139 21178 56011",2023.01.08-06.55.01
"METAR","KMSP","2023-01-08T12:53:00Z",-16.1,-17.8,5,140,"CLR",5,"KMSP 081253Z 14005KT 5SM BR CLR M16/M18 A3022 RMK AO2 SLP254 I1000 T11611178",2023.01.08-07.55.01
"METAR","KMSP","2023-01-08T13:53:00Z",-15.6,-17.2,7,140,"FEW",4,"KMSP 081353Z 14007KT 4SM BR FEW200 M16/M17 A3019 RMK AO2 SLP245 T11561172",2023.01.08-08.55.01
"METAR","KMSP","2023-01-08T14:53:00Z",-15.6,-16.7,4,150,"FEW",4,"KMSP 081453Z 15004KT 4SM BR FEW200 M16/M17 A3019 RMK AO2 SLP245 I3000 T11561167 56014",2023.01.08-09.55.01
"METAR","KMSP","2023-01-08T15:53:00Z",-13.3,-15.6,3,140,"CLR",4,"KMSP 081553Z 14003KT 4SM HZ CLR M13/M16 A3019 RMK AO2 SLP242 T11331156",2023.01.08-10.55.01
"METAR","KMSP","2023-01-08T16:53:00Z",-10.6,-14.4,5,170,"CLR",6,"KMSP 081653Z 17005KT 6SM HZ CLR M11/M14 A3018 RMK AO2 SLP237 T11061144",2023.01.08-11.55.01
"METAR","KMSP","2023-01-08T17:53:00Z",-7.8,-12.8,6,160,"FEW",6,"KMSP 081753Z COR 16006KT 6SM HZ FEW200 M08/M13 A3014 RMK AO2 SLP226 4/015 T10781128 11078 21161 58016",2023.01.08-12.55.01
"METAR","KMSP","2023-01-08T18:53:00Z",-6.1,-11.1,3,180,"FEW",6,"KMSP 081853Z 18003KT 6SM HZ FEW200 M06/M11 A3011 RMK AO2 SLP214 T10611111",2023.01.08-13.55.01
"METAR","KMSP","2023-01-08T19:53:00Z",-5,-10,5,180,"CLR",6,"KMSP 081953Z 18005KT 6SM HZ CLR M05/M10 A3010 RMK AO2 SLP209 T10501100",2023.01.08-14.55.01
"METAR","KMSP","2023-01-08T20:53:00Z",-5,-9.4,6,160,"CLR",6,"KMSP 082053Z 16006KT 6SM HZ CLR M05/M09 A3009 RMK AO2 SLP205 T10501094 56019",2023.01.08-15.55.01
"METAR","KMSP","2023-01-08T21:53:00Z",-5,-10,6,190,"CLR",6,"KMSP 082153Z 19006KT 6SM HZ CLR M05/M10 A3010 RMK AO2 SLP210 T10501100",2023.01.08-16.55.02
"METAR","KMSP","2023-01-08T22:53:00Z",-6.7,-10.6,4,160,"CLR",6,"KMSP 082253Z 16004KT 6SM HZ CLR M07/M11 A3009 RMK AO2 SLP209 T10671106",2023.01.08-17.55.02
"METAR","KMSP","2023-01-08T23:53:00Z",-6.7,-10.6,5,220,"CLR",6,"KMSP 082353Z 22005KT 6SM HZ CLR M07/M11 A3010 RMK AO2 SLP210 4/015 T10671106 11039 21078 51003",2023.01.08-18.55.02
"METAR","KMSP","2023-01-09T00:53:00Z",-7.2,-11.1,6,200,"CLR",6,"KMSP 090053Z 20006KT 6SM HZ CLR M07/M11 A3008 RMK AO2 SLP205 T10721111",2023.01.08-19.55.01
"METAR","KMSP","2023-01-09T01:53:00Z",-7.8,-11.1,5,210,"CLR",6,"KMSP 090153Z 21005KT 6SM HZ CLR M08/M11 A3009 RMK AO2 SLP206 T10781111",2023.01.08-20.55.01
"METAR","KMSP","2023-01-09T02:53:00Z",-9.4,-12.2,0,0,"CLR",5,"KMSP 090253Z 00000KT 5SM HZ CLR M09/M12 A3007 RMK AO2 SLP201 T10941122 58009",2023.01.08-21.55.01
"METAR","KMSP","2023-01-09T03:53:00Z",-8.9,-12.2,0,0,"CLR",5,"KMSP 090353Z 00000KT 5SM HZ CLR M09/M12 A3007 RMK AO2 SLP202 T10891122",2023.01.08-22.55.01
"METAR","KMSP","2023-01-09T04:53:00Z",-10,-12.2,4,180,"CLR",4,"KMSP 090453Z 18004KT 4SM BR CLR M10/M12 A3006 RMK AO2 SLP197 I1000 T11001122",2023.01.08-23.55.01
"METAR","KMSP","2023-01-09T05:53:00Z",-11.1,-12.8,3,130,"CLR",4,"KMSP 090553Z 13003KT 4SM BR CLR M11/M13 A3006 RMK AO2 SLP197 4/015 I1000 I6000 T11111128 11067 21111 410391178 58002",2023.01.09-00.55.01
"METAR","KMSP","2023-01-09T06:53:00Z",-11.7,-13.9,5,150,"CLR",4,"KMSP 090653Z 15005KT 4SM BR CLR M12/M14 A3006 RMK AO2 SLP194 I1000 T11171139",2023.01.09-01.55.01
"METAR","KMSP","2023-01-09T07:53:00Z",-11.7,-13.3,0,0,"CLR",4,"KMSP 090753Z 00000KT 4SM BR CLR M12/M13 A3005 RMK AO2 SLP193 I1000 T11171133",2023.01.09-02.55.01
"METAR","KMSP","2023-01-09T08:53:00Z",-12.2,-13.9,4,80,"CLR",4,"KMSP 090853Z 08004KT 4SM BR CLR M12/M14 A3005 RMK AO2 SLP191 I3000 T11221139 57004",2023.01.09-03.55.01
"METAR","KMSP","2023-01-09T09:53:00Z",-12.8,-14.4,4,130,"CLR",4,"KMSP 090953Z 13004KT 4SM BR CLR M13/M14 A3004 RMK AO2 SLP187 I1000 T11281144",2023.01.09-04.55.01
"METAR","KMSP","2023-01-09T10:53:00Z",-12.2,-14.4,4,130,"CLR",3,"KMSP 091053Z 13004KT 3SM BR CLR M12/M14 A3001 RMK AO2 SLP181 T11221144",2023.01.09-05.55.01
"METAR","KMSP","2023-01-09T11:53:00Z",-11.7,-13.9,3,110,"CLR",4,"KMSP 091153Z 11003KT 4SM BR CLR M12/M14 A3001 RMK AO2 SLP178 4/015 I1000 I6000 T11171139 11106 21133 56013",2023.01.09-06.55.01
"METAR","KMSP","2023-01-09T13:44:00Z",-11.7,-13.3,5,100,"SCT",2,"KMSP 091344Z 10005KT 2SM BR SCT250 M12/M13 A2998 RMK AO2 TWR VIS 2 1/2 T11171133",2023.01.09-07.55.01
"METAR","KMSP","2023-01-09T14:04:00Z",-11.1,-12.8,6,130,"SCT",2,"KMSP 091404Z 13006KT 2SM BR FEW004 SCT250 M11/M13 A2998 RMK AO2 TWR VIS 2 1/2 T11111128",2023.01.09-08.55.01
"METAR","KMSP","2023-01-09T15:08:00Z",-9.4,-11.1,6,120,"SCT",2.5,"KMSP 091508Z 12006KT 2 1/2SM BR SCT004 SCT250 M09/M11 A2997 RMK AO2 T10941111",2023.01.09-09.55.01
"METAR","KMSP","2023-01-09T16:05:00Z",-7.8,-10,8,130,"SCT",3,"KMSP 091605Z 13008KT 3SM BR FEW170 SCT250 M08/M10 A2994 RMK AO2 T10781100",2023.01.09-10.55.01
"METAR","KMSP","2023-01-09T16:53:00Z",-6.7,-8.9,7,130,"BKN",3,"KMSP 091653Z 13007KT 3SM BR SCT170 BKN250 M07/M09 A2993 RMK AO2 SFC VIS 4 SLP153 T10671089",2023.01.09-11.55.01
"METAR","KMSP","2023-01-09T17:53:00Z",-4.4,-7.2,8,120,"BKN",4,"KMSP 091753Z 12008KT 4SM HZ SCT160 BKN250 M04/M07 A2988 RMK AO2 SLP134 4/015 933027 I6001 T10441072 11044 21122 58028",2023.01.09-12.55.01
"METAR","KMSP","2023-01-09T18:53:00Z",-3.3,-6.1,8,110,"BKN",4,"KMSP 091853Z 11008KT 4SM HZ SCT160 BKN250 M03/M06 A2985 RMK AO2 PRESFR SLP122 T10331061",2023.01.09-13.55.01
"METAR","KMSP","2023-01-09T19:53:00Z",-2.2,-5.6,8,130,"OVC",5,"KMSP 091953Z 13008KT 5SM HZ OVC220 M02/M06 A2982 RMK AO2 SLP111 T10221056",2023.01.09-14.55.01
"METAR","KMSP","2023-01-09T20:53:00Z",-1.1,-4.4,7,140,"OVC",5,"KMSP 092053Z 14007KT 5SM HZ OVC220 M01/M04 A2978 RMK AO2 SLP100 T10111044 56033",2023.01.09-15.55.01
"METAR","KMSP","2023-01-09T22:11:00Z",0,-3.3,8,150,"OVC",6,"KMSP 092211Z 15008KT 6SM HZ BKN021 OVC220 00/M03 A2979 RMK AO2 T00001033",2023.01.09-16.55.01
"METAR","KMSP","2023-01-09T23:14:00Z",-0.6,-3.3,7,140,"OVC",6,"KMSP 092314Z 14007KT 6SM HZ OVC017 M01/M03 A2978 RMK AO2 T10061033",2023.01.09-17.55.01
"METAR","KMSP","2023-01-09T23:53:00Z",-0.6,-3.3,6,130,"OVC",7,"KMSP 092353Z 13006KT 7SM OVC017 M01/M03 A2977 RMK AO2 SLP095 4/014 T10061033 10000 21044 58004",2023.01.09-18.55.01
"METAR","KMSP","2023-01-10T00:53:00Z",-0.6,-2.8,3,0,"OVC",6,"KMSP 100053Z VRB03KT 6SM BR OVC015 M01/M03 A2978 RMK AO2 SLP096 T10061028",2023.01.09-19.55.01
"METAR","KMSP","2023-01-10T01:53:00Z",-0.6,-2.8,3,220,"OVC",6,"KMSP 100153Z 22003KT 6SM BR OVC018 M01/M03 A2977 RMK AO2 SLP095 T10061028",2023.01.09-20.55.01
"METAR","KMSP","2023-01-10T02:53:00Z",-0.6,-2.8,4,240,"OVC",6,"KMSP 100253Z 24004KT 6SM BR OVC016 M01/M03 A2977 RMK AO2 SLP094 T10061028 51000",2023.01.09-21.55.01
"METAR","KMSP","2023-01-10T03:53:00Z",-1.7,-3.9,5,230,"OVC",6,"KMSP 100353Z 23005KT 6SM BR OVC015 M02/M04 A2978 RMK AO2 SLP096 T10171039",2023.01.09-22.55.01
"METAR","KMSP","2023-01-10T05:11:00Z",-3.3,-5.6,3,230,"OVC",5,"KMSP 100511Z 23003KT 5SM BR FEW007 OVC016 M03/M06 A2979 RMK AO2 T10331056",2023.01.09-23.55.01
"METAR","KMSP","2023-01-10T06:48:00Z",-6,-7,8,220,"OVC",4,"KMSP 100648Z 22008KT 4SM BR BKN007 OVC013 M06/M07 A2979 RMK AO2",2023.01.10-00.55.01
"METAR","KMSP","2023-01-10T06:53:00Z",-5.6,-7.2,6,230,"OVC",4,"KMSP 100653Z 23006KT 4SM BR BKN007 OVC013 M06/M07 A2979 RMK AO2 SLP102 T10561072",2023.01.10-01.55.01
"METAR","KMSP","2023-01-10T07:53:00Z",-6.7,-7.8,4,230,"OVC",4,"KMSP 100753Z 23004KT 4SM BR OVC006 M07/M08 A2979 RMK AO2 SLP101 T10671078",2023.01.10-02.55.01
"METAR","KMSP","2023-01-10T08:53:00Z",-6.7,-8.3,5,220,"OVC",5,"KMSP 100853Z 22005KT 5SM BR OVC006 M07/M08 A2981 RMK AO2 SLP108 T10671083 53006",2023.01.10-03.55.02
"METAR","KMSP","2023-01-10T09:53:00Z",-6.7,-8.3,3,240,"OVC",5,"KMSP 100953Z 24003KT 5SM BR OVC005 M07/M08 A2982 RMK AO2 SLP109 T10671083",2023.01.10-04.55.01
"METAR","KMSP","2023-01-10T10:53:00Z",-6.7,-8.3,3,260,"OVC",4,"KMSP 101053Z 26003KT 4SM BR OVC006 M07/M08 A2983 RMK AO2 SLP114 T10671083",2023.01.10-05.55.01
"METAR","KMSP","2023-01-10T11:53:00Z",-6.1,-7.2,0,0,"OVC",4,"KMSP 101153Z COR 00000KT 4SM BR OVC005 M06/M07 A2983 RMK AO2 SLP113 4/014 T10611072 11039 21072 50007",2023.01.10-06.55.01
"METAR","KMSP","2023-01-10T13:50:00Z",-5,-6,0,0,"OVC",1.75,"KMSP 101350Z 00000KT 1 3/4SM -FZDZ BR OVC004 M05/M06 A2984 RMK AO2 TWR VIS 2 FZDZB34 PCPN VRY LGT P0000 I1000",2023.01.10-07.55.01
"METAR","KMSP","2023-01-10T14:40:00Z",-5,-6.1,3,230,"OVC",2,"KMSP 101440Z 23003KT 2SM BR OVC004 M05/M06 A2985 RMK AO2 FZDZE04 P0000 I1000 T10501061",2023.01.10-08.55.01
"METAR","KMSP","2023-01-10T15:41:00Z",-4.4,-5.6,3,230,"OVC",1.5,"KMSP 101541Z 23003KT 1 1/2SM BR OVC004 M04/M06 A2987 RMK AO2 TWR VIS 2 T10441056",2023.01.10-09.55.01
"METAR","KMSP","2023-01-10T16:15:00Z",-3.9,-5.6,5,230,"OVC",0.75,"KMSP 101615Z 23005KT 3/4SM R30L/4500V5500FT BR OVC003 M04/M06 A2989 RMK AO2 TWR VIS 1 T10391056",2023.01.10-10.55.01
"METAR","KMSP","2023-01-10T17:41:00Z",-3.9,-5,3,230,"OVC",1,"KMSP 101741Z 23003KT 1SM R30L/5000V5500FT BR OVC003 M04/M05 A2987 RMK AO2 T10391050",2023.01.10-11.55.01
"METAR","KMSP","2023-01-10T17:53:00Z",-3.9,-5,4,240,"OVC",1,"KMSP 101753Z 24004KT 1SM R30L/5500FT BR OVC003 M04/M05 A2987 RMK AO2 SLP127 4/014 60000 I6000 T10391050 11033 21061 50004",2023.01.10-12.55.01
"METAR","KMSP","2023-01-10T19:02:00Z",-3.3,-5,5,240,"OVC",1.25,"KMSP 101902Z 24005KT 1 1/4SM BR OVC005 M03/M05 A2986 RMK AO2 TWR VIS 1 1/2 T10331050",2023.01.10-13.55.01
"METAR","KMSP","2023-01-10T20:32:00Z",-2.8,-4.4,0,0,"OVC",1.5,"KMSP 102032Z 00000KT 1 1/2SM BR OVC006 M03/M04 A2984 RMK AO2 T10281044",2023.01.10-14.55.01
"METAR","KMSP","2023-01-10T20:53:00Z",-2.8,-4.4,0,0,"OVC",1.5,"KMSP 102053Z 00000KT 1 1/2SM BR OVC006 M03/M04 A2984 RMK AO2 SLP118 T10281044 56009",2023.01.10-15.55.01
"METAR","KMSP","2023-01-10T21:53:00Z",-2.2,-4.4,4,220,"OVC",1.5,"KMSP 102153Z 22004KT 1 1/2SM BR OVC007 M02/M04 A2985 RMK AO2 SLP121 T10221044",2023.01.10-16.55.01
"METAR","KMSP","2023-01-10T22:53:00Z",-2.8,-5,4,200,"OVC",1.5,"KMSP 102253Z 20004KT 1 1/2SM BR OVC007 M03/M05 A2987 RMK AO2 SFC VIS 1 3/4 SLP128 T10281050",2023.01.10-17.55.01
"METAR","KMSP","2023-01-11T00:32:00Z",-2.8,-4.4,0,0,"OVC",2,"KMSP 110032Z 00000KT 2SM BR OVC007 M03/M04 A2987 RMK AO2 T10281044",2023.01.10-18.55.01
"METAR","KMSP","2023-01-11T00:53:00Z",-2.8,-5,0,0,"OVC",2,"KMSP 110053Z 00000KT 2SM BR OVC006 M03/M05 A2986 RMK AO2 SLP125 T10281050",2023.01.10-19.55.01
"METAR","KMSP","2023-01-11T01:53:00Z",-2.8,-5,3,230,"OVC",2,"KMSP 110153Z 23003KT 2SM BR OVC006 M03/M05 A2986 RMK AO2 SFC VIS 2 1/2 SLP124 T10281050",2023.01.10-20.55.01
"METAR","KMSP","2023-01-11T03:42:00Z",-3.3,-5,6,230,"OVC",2,"KMSP 110342Z 23006KT 2SM BR SCT008 OVC016 M03/M05 A2987 RMK AO2 SFC VIS 2 1/2 T10331050",2023.01.10-21.55.01
"METAR","KMSP","2023-01-11T04:41:00Z",-3.3,-5,0,0,"OVC",2,"KMSP 110441Z 00000KT 2SM -PL BR BKN008 OVC012 M03/M05 A2986 RMK AO2 SFC VIS 2 1/2 PLB41 P0000 T10331050",2023.01.10-22.55.01
"METAR","KMSP","2023-01-11T05:50:00Z",-3,-5,0,0,"OVC",2.5,"KMSP 110550Z 00000KT 2 1/2SM BR OVC009 M03/M05 A2986 RMK AO2 RAE32PLE32 4/014 P0000",2023.01.10-23.55.01
"METAR","KMSP","2023-01-11T06:46:00Z",-3.3,-5,0,0,"OVC",2.5,"KMSP 110646Z 00000KT 2 1/2SM -FZRASN BR OVC006 M03/M05 A2983 RMK AO2 UPB01E02RAB07E40FZRAB40SNB10 P0000 I1000 T10331050",2023.01.11-00.55.01
"METAR","KMSP","2023-01-11T06:53:00Z",-3.3,-4.4,0,0,"OVC",2.5,"KMSP 110653Z 00000KT 2 1/2SM -FZRASN BR BKN006 OVC031 M03/M04 A2983 RMK AO2 UPB01E02RAB07E40FZRAB40SNB10 SLP111 P0000 I1000 T10331044",2023.01.11-01.55.02
"METAR","KMSP","2023-01-11T07:53:00Z",-2.8,-4.4,4,90,"OVC",2,"KMSP 110753Z 09004KT 2SM -FZRASN BR BKN006 OVC030 M03/M04 A2981 RMK AO2 TWR VIS 2 1/2 SLP106 P0002 I1000 T10281044",2023.01.11-02.55.01
"METAR","KMSP","2023-01-11T08:53:00Z",-2.2,-3.3,0,0,"OVC",2,"KMSP 110853Z 00000KT 2SM -FZRASN BR BKN006 OVC025 M02/M03 A2981 RMK AO2 TWR VIS 2 1/2 SLP104 P0001 60003 I1000 I3000 T10221033 56016",2023.01.11-03.55.01
"METAR","KMSP","2023-01-11T09:53:00Z",-2.2,-3.9,7,60,"OVC",2,"KMSP 110953Z 06007KT 2SM -FZRASN BR OVC005 M02/M04 A2978 RMK AO2 TWR VIS 2 1/2 SLP095 P0001 I1000 T10221039",2023.01.11-04.55.01
"METAR","KMSP","2023-01-11T10:53:00Z",-2.2,-3.3,0,0,"OVC",2.5,"KMSP 111053Z 00000KT 2 1/2SM -FZRASN BR OVC005 M02/M03 A2980 RMK AO2 SFC VIS 3 SLP101 P0001 I1000 T10221033",2023.01.11-05.55.01
"METAR","KMSP","2023-01-11T12:38:00Z",-2.2,-3.3,3,110,"BKN",2.5,"KMSP 111238Z 11003KT 2 1/2SM BR SCT005 SCT028 BKN080 M02/M03 A2979 RMK AO2 FZRAE32SNE32 P0000 I1000 T10221033",2023.01.11-06.55.01
"METAR","KMSP","2023-01-11T13:39:00Z",-1.7,-3.3,5,70,"OVC",2.5,"KMSP 111339Z 07005KT 2 1/2SM BR FEW005 BKN017 OVC075 M02/M03 A2979 RMK AO2 SFC VIS 3 T10171033",2023.01.11-07.55.01
"METAR","KMSP","2023-01-11T13:53:00Z",-1.7,-3.3,5,60,"OVC",2.5,"KMSP 111353Z 06005KT 2 1/2SM BR FEW005 OVC017 M02/M03 A2979 RMK AO2 SFC VIS 3 SLP100 T10171033",2023.01.11-08.55.01
"METAR","KMSP","2023-01-11T14:59:00Z",-1.1,-2.8,4,100,"OVC",2.5,"KMSP 111459Z 10004KT 2 1/2SM BR FEW006 OVC019 M01/M03 A2981 RMK AO2 SFC VIS 3 T10111028",2023.01.11-09.55.01
"METAR","KMSP","2023-01-11T15:53:00Z",-1.1,-2.8,0,0,"OVC",2.5,"KMSP 111553Z 00000KT 2 1/2SM BR SCT006 OVC020 M01/M03 A2981 RMK AO2 SFC VIS 3 SLP107 T10111028",2023.01.11-10.55.01
"METAR","KMSP","2023-01-11T17:30:00Z",-0.6,-1.7,0,0,"OVC",3,"KMSP 111730Z 00000KT 3SM BR OVC008 M01/M02 A2982 RMK AO2 T10061017",2023.01.11-11.55.01
"METAR","KMSP","2023-01-11T17:53:00Z",-0.6,-1.7,0,0,"OVC",3,"KMSP 111753Z 00000KT 3SM BR OVC008 M01/M02 A2981 RMK AO2 SFC VIS 4 SLP106 4/013 60000 I6000 T10061017 10000 21022 50003",2023.01.11-12.55.01
"METAR","KMSP","2023-01-11T18:53:00Z",0.6,-2.2,0,0,"OVC",3,"KMSP 111853Z 00000KT 3SM HZ SCT008 OVC014 01/M02 A2979 RMK AO2 SFC VIS 4 SLP100 T00061022",2023.01.11-13.55.01
"METAR","KMSP","2023-01-11T19:53:00Z",0.6,-1.7,0,0,"OVC",3,"KMSP 111953Z 00000KT 3SM BR OVC010 01/M02 A2980 RMK AO2 SFC VIS 4 SLP103 T00061017",2023.01.11-14.55.01
"METAR","KMSP","2023-01-11T20:53:00Z",0.6,-1.7,4,320,"OVC",3,"KMSP 112053Z 32004KT 3SM BR OVC011 01/M02 A2983 RMK AO2 SFC VIS 4 SLP110 T00061017 53005",2023.01.11-15.55.01
"METAR","KMSP","2023-01-11T21:53:00Z",0.6,-1.7,5,320,"OVC",3,"KMSP 112153Z 32005KT 3SM BR OVC010 01/M02 A2986 RMK AO2 SFC VIS 4 SLP122 T00061017",2023.01.11-16.55.01
"METAR","KMSP","2023-01-11T23:33:00Z",0.6,-1.7,6,320,"OVC",3,"KMSP 112333Z 32006KT 3SM BR OVC009 01/M02 A2989 RMK AO2 SFC VIS 4 T00061017",2023.01.11-17.55.01
"METAR","KMSP","2023-01-11T23:53:00Z",0.6,-1.7,6,330,"OVC",3,"KMSP 112353Z 33006KT 3SM BR OVC009 01/M02 A2991 RMK AO2 SFC VIS 3 SLP137 4/013 T00061017 10011 21006 51026",2023.01.11-18.55.01
"METAR","KMSP","2023-01-12T01:46:00Z",0,-1.7,10,340,"OVC",3,"KMSP 120146Z 34010KT 3SM -SN BR OVC007 00/M02 A2994 RMK AO2 SFC VIS 3 SNB46 P0000 T00001017",2023.01.11-19.55.01
"METAR","KMSP","2023-01-12T02:46:00Z",0,-1.7,8,340,"OVC",5,"KMSP 120246Z 34008KT 5SM BR SCT009 SCT019 OVC042 00/M02 A2994 RMK AO2 SNE10 P0000 T00001017",2023.01.11-20.55.01
"METAR","KMSP","2023-01-12T03:37:00Z",0,-1.7,6,340,"OVC",5,"KMSP 120337Z 34006KT 5SM BR OVC010 00/M02 A2996 RMK AO2 T00001017",2023.01.11-21.55.01
"METAR","KMSP","2023-01-12T04:10:00Z",0,-1.7,9,320,"OVC",5,"KMSP 120410Z 32009KT 5SM BR BKN010 BKN024 OVC043 00/M02 A2998 RMK AO2 T00001017",2023.01.11-22.55.01
"METAR","KMSP","2023-01-12T04:53:00Z",0,-2.2,8,310,"OVC",5,"KMSP 120453Z 31008KT 5SM BR OVC013 00/M02 A3001 RMK AO2 SLP173 T00001022",2023.01.11-23.55.01
"METAR","KMSP","2023-01-12T05:53:00Z",0,-2.2,6,310,"OVC",6,"KMSP 120553Z 31006KT 6SM BR OVC013 00/M02 A3003 RMK AO2 SLP180 4/013 60000 T00001022 10000 20000 400111033 51028",2023.01.12-00.55.01
"METAR","KMSP","2023-01-12T06:53:00Z",0,-2.2,7,310,"OVC",5,"KMSP 120653Z 31007KT 5SM BR OVC013 00/M02 A3004 RMK AO2 SLP183 T00001022",2023.01.12-01.55.01
"METAR","KMSP","2023-01-12T08:37:00Z",-1.7,-3.3,14,310,"OVC",5,"KMSP 120837Z 31014KT 5SM -SN BR OVC008 M02/M03 A3008 RMK AO2 SNE13B35 P0000 T10171033",2023.01.12-02.55.01
"METAR","KMSP","2023-01-12T09:14:00Z",-2.8,-3.9,11,330,"OVC",4,"KMSP 120914Z 33011KT 4SM BR OVC006 M03/M04 A3009 RMK AO2 T10281039",2023.01.12-03.55.01
"METAR","KMSP","2023-01-12T10:24:00Z",-3.9,-6.1,13,310,"OVC",6,"KMSP 121024Z 31013KT 6SM BR OVC011 M04/M06 A3011 RMK AO2 T10391061",2023.01.12-04.55.01
"METAR","KMSP","2023-01-12T10:53:00Z",-4.4,-6.7,14,320,"OVC",6,"KMSP 121053Z 32014KT 6SM BR OVC012 M04/M07 A3012 RMK AO2 SLP211 T10441067",2023.01.12-05.55.01
"METAR","KMSP","2023-01-12T11:53:00Z",-4.4,-7.2,12,320,"OVC",6,"KMSP 121153Z 32012KT 6SM HZ OVC011 M04/M07 A3013 RMK AO2 SLP216 4/013 60000 T10441072 10000 21044 51017",2023.01.12-06.55.01
"METAR","KMSP","2023-01-12T12:53:00Z",-5,-7.2,11,320,"OVC",7,"KMSP 121253Z 32011KT 7SM OVC013 M05/M07 A3015 RMK AO2 SLP220 T10501072",2023.01.12-07.55.01
"METAR","KMSP","2023-01-12T13:53:00Z",-5,-7.2,12,310,"OVC",7,"KMSP 121353Z 31012KT 7SM OVC013 M05/M07 A3017 RMK AO2 SLP229 T10501072",2023.01.12-08.55.02
"METAR","KMSP","2023-01-12T14:53:00Z",-5,-7.8,12,320,"OVC",8,"KMSP 121453Z 32012KT 8SM OVC013 M05/M08 A3019 RMK AO2 SLP235 T10501078 53019",2023.01.12-09.55.01
"METAR","KMSP","2023-01-12T16:18:00Z",-5,-8.3,12,330,"OVC",10,"KMSP 121618Z 33012KT 10SM OVC015 M05/M08 A3023 RMK AO2 T10501083",2023.01.12-10.55.01
"METAR","KMSP","2023-01-12T16:53:00Z",-5,-8.3,11,320,"OVC",10,"KMSP 121653Z 32011KT 10SM OVC016 M05/M08 A3024 RMK AO2 SLP252 T10501083",2023.01.12-11.55.01
"METAR","KMSP","2023-01-12T17:53:00Z",-4.4,-7.8,11,340,"OVC",10,"KMSP 121753Z 34011KT 10SM OVC016 M04/M08 A3024 RMK AO2 SLP252 4/012 T10441078 11044 21050 51017",2023.01.12-12.55.01
"METAR","KMSP","2023-01-12T18:53:00Z",-4.4,-8.3,14,320,"OVC",10,"KMSP 121853Z 32014KT 10SM OVC016 M04/M08 A3024 RMK AO2 SLP251 T10441083",2023.01.12-13.55.01
"METAR","KMSP","2023-01-12T20:22:00Z",-5,-8.3,14,340,"OVC",10,"KMSP 122022Z 34014KT 10SM OVC017 M05/M08 A3024 RMK AO2 T10501083",2023.01.12-14.55.01
"METAR","KMSP","2023-01-12T20:53:00Z",-5,-8.9,11,330,"OVC",10,"KMSP 122053Z 33011KT 10SM OVC017 M05/M09 A3024 RMK AO2 SLP254 T10501089 53001",2023.01.12-15.55.01
"METAR","KMSP","2023-01-12T21:53:00Z",-5,-8.9,13,330,"OVC",10,"KMSP 122153Z 33013KT 10SM OVC018 M05/M09 A3027 RMK AO2 SLP263 T10501089",2023.01.12-16.55.01
"METAR","KMSP","2023-01-12T23:14:00Z",-5.6,-8.9,12,350,"OVC",10,"KMSP 122314Z 35012KT 10SM -SN OVC018 M06/M09 A3030 RMK AO2 SNB14 P0000 T10561089",2023.01.12-17.55.01
"METAR","KMSP","2023-01-13T00:09:00Z",-5.6,-8.9,12,330,"OVC",9,"KMSP 130009Z 33012KT 9SM OVC019 M06/M09 A3032 RMK AO2 SNE08 P0000 T10561089",2023.01.12-18.55.01
"METAR","KMSP","2023-01-13T01:49:00Z",-6,-9,7,350,"OVC",10,"KMSP 130149Z 35007KT 10SM SCT020 BKN031 OVC045 M06/M09 A3034 RMK AO2",2023.01.12-19.55.01
"METAR","KMSP","2023-01-13T02:15:00Z",-6.1,-9.4,12,330,"OVC",10,"KMSP 130215Z 33012KT 10SM BKN019 OVC047 M06/M09 A3035 RMK AO2 T10611094",2023.01.12-20.55.01
"METAR","KMSP","2023-01-13T02:53:00Z",-6.1,-9.4,12,330,"OVC",10,"KMSP 130253Z 33012KT 10SM OVC017 M06/M09 A3035 RMK AO2 SLP294 60000 T10611094 53007",2023.01.12-21.55.01
"METAR","KMSP","2023-01-13T03:53:00Z",-6.7,-10,12,360,"OVC",10,"KMSP 130353Z 36012KT 10SM OVC014 M07/M10 A3036 RMK AO2 SLP296 T10671100",2023.01.12-22.55.01
"METAR","KMSP","2023-01-13T04:53:00Z",-6.7,-10,10,350,"OVC",10,"KMSP 130453Z 35010KT 10SM OVC014 M07/M10 A3038 RMK AO2 SLP303 T10671100",2023.01.12-23.55.01
"METAR","KMSP","2023-01-13T05:53:00Z",-7.2,-10,10,350,"OVC",10,"KMSP 130553Z 35010KT 10SM OVC013 M07/M10 A3039 RMK AO2 SLP307 4/012 60000 T10721100 11056 21072 400001072 53012",2023.01.13-00.55.01
"METAR","KMSP","2023-01-13T06:53:00Z",-7.2,-10,9,350,"OVC",10,"KMSP 130653Z 35009KT 10SM OVC013 M07/M10 A3039 RMK AO2 SLP304 T10721100",2023.01.13-01.55.01
"METAR","KMSP","2023-01-13T07:53:00Z",-7.2,-10,6,350,"OVC",10,"KMSP 130753Z 35006KT 10SM OVC013 M07/M10 A3039 RMK AO2 SLP304 T10721100",2023.01.13-02.55.01
"METAR","KMSP","2023-01-13T08:53:00Z",-7.2,-9.4,8,10,"OVC",10,"KMSP 130853Z 01008KT 10SM OVC012 M07/M09 A3040 RMK AO2 SLP311 T10721094 53004",2023.01.13-03.55.02
"METAR","KMSP","2023-01-13T09:53:00Z",-7.2,-10,8,30,"OVC",10,"KMSP 130953Z 03008KT 10SM OVC012 M07/M10 A3041 RMK AO2 SLP313 T10721100",2023.01.13-04.55.01
"METAR","KMSP","2023-01-13T10:53:00Z",-7.2,-9.4,5,330,"OVC",10,"KMSP 131053Z 33005KT 10SM OVC012 M07/M09 A3042 RMK AO2 SLP316 T10721094",2023.01.13-05.55.01
"METAR","KMSP","2023-01-13T11:53:00Z",-7.2,-9.4,5,10,"OVC",10,"KMSP 131153Z 01005KT 10SM OVC013 M07/M09 A3042 RMK AO2 SLP316 4/012 T10721094 11067 21072 50005",2023.01.13-06.55.01
"METAR","KMSP","2023-01-13T12:53:00Z",-7.2,-10,4,20,"OVC",10,"KMSP 131253Z 02004KT 10SM OVC012 M07/M10 A3041 RMK AO2 SLP314 T10721100",2023.01.13-07.55.01
"METAR","KMSP","2023-01-13T13:53:00Z",-7.8,-10,5,350,"OVC",10,"KMSP 131353Z 35005KT 10SM OVC011 M08/M10 A3040 RMK AO2 SLP309 T10781100",2023.01.13-08.55.01
"METAR","KMSP","2023-01-13T15:43:00Z",-7.2,-9.4,3,40,"OVC",10,"KMSP 131543Z 04003KT 10SM OVC009 M07/M09 A3042 RMK AO2 T10721094",2023.01.13-09.55.01
"METAR","KMSP","2023-01-13T15:53:00Z",-7.2,-9.4,3,320,"OVC",10,"KMSP 131553Z 32003KT 10SM OVC009 M07/M09 A3042 RMK AO2 SLP318 T10721094",2023.01.13-10.55.01
"METAR","KMSP","2023-01-13T17:25:00Z",-7.2,-9.4,4,240,"OVC",10,"KMSP 131725Z 24004KT 10SM OVC011 M07/M09 A3041 RMK AO2 SNB02E25 P0000 T10721094",2023.01.13-11.55.01
"METAR","KMSP","2023-01-13T17:53:00Z",-7.2,-9.4,5,330,"OVC",10,"KMSP 131753Z 33005KT 10SM OVC011 M07/M09 A3041 RMK AO2 SNB02E25 SLP313 4/012 P0000 60000 T10721094 11067 21078 58001",2023.01.13-12.55.01
"METAR","KMSP","2023-01-13T18:53:00Z",-6.7,-9.4,5,250,"OVC",10,"KMSP 131853Z 25005KT 10SM OVC010 M07/M09 A3037 RMK AO2 SLP301 T10671094",2023.01.13-13.55.01
"METAR","KMSP","2023-01-13T19:53:00Z",-6.7,-8.9,0,0,"OVC",9,"KMSP 131953Z 00000KT 9SM OVC010 M07/M09 A3034 RMK AO2 SLP291 T10671089",2023.01.13-14.55.01
"METAR","KMSP","2023-01-13T20:53:00Z",-6.7,-8.9,0,0,"OVC",9,"KMSP 132053Z 00000KT 9SM OVC011 M07/M09 A3034 RMK AO2 SLP291 T10671089 56021",2023.01.13-15.55.01
"METAR","KMSP","2023-01-13T21:53:00Z",-7.2,-9.4,5,260,"OVC",10,"KMSP 132153Z 26005KT 10SM OVC010 M07/M09 A3035 RMK AO2 SLP294 T10721094",2023.01.13-16.55.01
"METAR","KMSP","2023-01-13T22:53:00Z",-7.8,-10,3,210,"OVC",10,"KMSP 132253Z 21003KT 10SM OVC009 M08/M10 A3034 RMK AO2 SLP291 T10781100",2023.01.13-17.55.01
"METAR","KMSP","2023-01-13T23:53:00Z",-8.3,-10,7,230,"OVC",9,"KMSP 132353Z 23007KT 9SM OVC007 M08/M10 A3034 RMK AO2 SNB29E38 SLP288 4/012 P0000 60000 T10831100 11067 21083 58002",2023.01.13-18.55.01
"METAR","KMSP","2023-01-14T00:53:00Z",-8.9,-10,5,190,"OVC",8,"KMSP 140053Z 19005KT 8SM OVC006 M09/M10 A3031 RMK AO2 SLP279 T10891100",2023.01.13-19.55.01
"METAR","KMSP","2023-01-14T02:22:00Z",-9.4,-10.6,6,210,"OVC",6,"KMSP 140222Z 21006KT 6SM -SN BR OVC004 M09/M11 A3031 RMK AO2 SNB09 P0000 T10941106",2023.01.13-20.55.01
"METAR","KMSP","2023-01-14T03:38:00Z",-9.4,-10.6,6,170,"OVC",5,"KMSP 140338Z 17006KT 5SM BR OVC003 M09/M11 A3028 RMK AO2 SNE38 P0000 T10941106",2023.01.13-21.55.02
"METAR","KMSP","2023-01-14T03:53:00Z",-9.4,-10.6,5,180,"OVC",5,"KMSP 140353Z 18005KT 5SM BR OVC003 M09/M11 A3027 RMK AO2 SNE38 SLP267 P0000 T10941106",2023.01.13-22.55.01
"METAR","KMSP","2023-01-14T04:53:00Z",-10,-11.1,8,160,"OVC",5,"KMSP 140453Z 16008KT 5SM BR OVC004 M10/M11 A3026 RMK AO2 SNB49E52 SLP263 P0000 T11001111",2023.01.13-23.55.01
"METAR","KMSP","2023-01-14T05:53:00Z",-10,-11.7,9,170,"OVC",5,"KMSP 140553Z 17009KT 5SM BR OVC003 M10/M12 A3024 RMK AO2 SLP258 4/012 60000 T11001117 11083 21100 410671100 58013",2023.01.14-00.55.01
"METAR","KMSP","2023-01-14T07:50:00Z",-11,-12,10,170,"OVC",7,"KMSP 140750Z 17010KT 7SM OVC005 M11/M12 A3019 RMK AO2",2023.01.14-01.55.01
"METAR","KMSP","2023-01-14T07:53:00Z",-10.6,-11.7,9,180,"OVC",7,"KMSP 140753Z 18009KT 7SM OVC005 M11/M12 A3019 RMK AO2 SLP241 T11061117",2023.01.14-02.55.01
"METAR","KMSP","2023-01-14T08:53:00Z",-10,-11.7,10,140,"OVC",7,"KMSP 140853Z 14010KT 7SM OVC006 M10/M12 A3017 RMK AO2 SLP234 I3000 T11001117 58010",2023.01.14-03.55.01
"METAR","KMSP","2023-01-14T09:53:00Z",-10,-11.1,9,150,"OVC",8,"KMSP 140953Z 15009KT 8SM OVC006 M10/M11 A3015 RMK AO2 SLP224 T11001111",2023.01.14-04.55.01
"METAR","KMSP","2023-01-14T10:53:00Z",-9.4,-11.1,9,140,"OVC",9,"KMSP 141053Z COR 14009KT 9SM SCT007 OVC180 M09/M11 A3013 RMK AO2 SLP218 T10941111",2023.01.14-05.55.01
"METAR","KMSP","2023-01-14T11:53:00Z",-8.9,-10.6,13,160,"OVC",10,"KMSP 141153Z 16013KT 10SM FEW009 OVC180 M09/M11 A3011 RMK AO2 SLP213 4/012 I6000 T10891106 11089 21106 56011",2023.01.14-06.55.01
"METAR","KMSP","2023-01-14T13:18:00Z",-8.9,-10.6,8,140,"SCT",10,"KMSP 141318Z 14008KT 10SM FEW009 SCT180 M09/M11 A3009 RMK AO2 T10891106",2023.01.14-07.55.01
"METAR","KMSP","2023-01-14T13:53:00Z",-8.3,-10.6,7,150,"SCT",9,"KMSP 141353Z 15007KT 9SM FEW009 FEW150 SCT250 M08/M11 A3008 RMK AO2 SLP203 T10831106",2023.01.14-08.55.01
"METAR","KMSP","2023-01-14T14:53:00Z",-7.8,-9.4,9,140,"SCT",10,"KMSP 141453Z 14009KT 10SM FEW150 SCT250 M08/M09 A3006 RMK AO2 SLP196 T10781094 56017",2023.01.14-09.55.01
"METAR","KMSP","2023-01-14T15:53:00Z",-6.7,-8.9,11,160,"BKN",10,"KMSP 141553Z 16011KT 10SM BKN250 M07/M09 A3006 RMK AO2 SLP194 T10671089",2023.01.14-10.55.01
"METAR","KMSP","2023-01-14T16:53:00Z",-4.4,-8.3,12,170,"BKN",10,"KMSP 141653Z 17012KT 10SM BKN250 M04/M08 A3005 RMK AO2 SLP190 T10441083",2023.01.14-11.55.01
"METAR","KMSP","2023-01-14T17:53:00Z",-3.3,-7.8,10,160,"BKN",10,"KMSP 141753Z 16010KT 10SM BKN250 M03/M08 A3001 RMK AO2 SLP179 4/012 T10331078 11033 21089 58016",2023.01.14-12.55.01
"METAR","KMSP","2023-01-14T18:53:00Z",-2.8,-7.2,14,160,"OVC",10,"KMSP 141853Z 16014G21KT 10SM OVC250 M03/M07 A2997 RMK AO2 SLP165 T10281072",2023.01.14-13.55.01
"METAR","KMSP","2023-01-14T19:53:00Z",-2.2,-6.7,15,160,"OVC",10,"KMSP 141953Z 16015KT 10SM OVC250 M02/M07 A2994 RMK AO2 SLP153 T10221067",2023.01.14-14.55.01
"METAR","KMSP","2023-01-14T20:53:00Z",-2.2,-6.1,10,160,"OVC",10,"KMSP 142053Z 16010KT 10SM OVC250 M02/M06 A2992 RMK AO2 SLP147 T10221061 56030",2023.01.14-15.55.02
"METAR","KMSP","2023-01-14T21:53:00Z",-1.1,-5.6,9,160,"OVC",10,"KMSP 142153Z 16009KT 10SM SCT180 BKN210 OVC250 M01/M06 A2991 RMK AO2 SLP142 T10111056",2023.01.14-16.55.01
"METAR","KMSP","2023-01-14T22:53:00Z",-1.1,-5,12,150,"BKN",10,"KMSP 142253Z 15012KT 10SM FEW180 SCT200 BKN250 M01/M05 A2989 RMK AO2 SLP134 T10111050",2023.01.14-17.55.01
"METAR","KMSP","2023-01-14T23:53:00Z",-1.1,-5,9,160,"BKN",10,"KMSP 142353Z 16009KT 10SM FEW200 BKN250 M01/M05 A2989 RMK AO2 SLP136 4/012 T10111050 11006 21033 55010",2023.01.14-18.55.01
"METAR","KMSP","2023-01-15T00:53:00Z",-0.6,-4.4,13,170,"BKN",10,"KMSP 150053Z 17013G19KT 10SM FEW170 SCT210 BKN250 M01/M04 A2988 RMK AO2 SLP130 T10061044",2023.01.14-19.55.01
"METAR","KMSP","2023-01-15T01:53:00Z",-0.6,-4.4,11,160,"BKN",10,"KMSP 150153Z 16011KT 10SM FEW170 SCT210 BKN250 M01/M04 A2986 RMK AO2 SLP125 T10061044",2023.01.14-20.55.01
"METAR","KMSP","2023-01-15T02:53:00Z",-1.1,-4.4,10,160,"FEW",10,"KMSP 150253Z 16010G23KT 10SM FEW190 FEW250 M01/M04 A2985 RMK AO2 SLP122 T10111044 56014",2023.01.14-21.55.01
"METAR","KMSP","2023-01-15T03:53:00Z",-1.1,-5,10,160,"CLR",10,"KMSP 150353Z 16010G19KT 10SM CLR M01/M05 A2985 RMK AO2 SLP122 T10111050",2023.01.14-22.55.01
"METAR","KMSP","2023-01-15T04:53:00Z",-1.7,-5,11,150,"BKN",10,"KMSP 150453Z 15011KT 10SM BKN240 M02/M05 A2984 RMK AO2 SLP116 T10171050",2023.01.14-23.55.01
"METAR","KMSP","2023-01-15T05:53:00Z",-1.1,-5,15,160,"SCT",10,"KMSP 150553Z 16015G20KT 10SM SCT240 M01/M05 A2982 RMK AO2 SLP108 4/012 T10111050 11006 21017 410061106 58011",2023.01.15-00.55.01
"METAR","KMSP","2023-01-15T06:53:00Z",-1.1,-5,10,160,"BKN",10,"KMSP 150653Z 16010KT 10SM BKN250 M01/M05 A2981 RMK AO2 SLP106 T10111050",2023.01.15-01.55.01
"METAR","KMSP","2023-01-15T07:53:00Z",-0.6,-4.4,11,170,"BKN",10,"KMSP 150753Z 17011G18KT 10SM BKN250 M01/M04 A2980 RMK AO2 SLP103 T10061044",2023.01.15-02.55.01
"METAR","KMSP","2023-01-15T08:53:00Z",-0.6,-5,11,170,"SCT",10,"KMSP 150853Z 17011KT 10SM SCT250 M01/M05 A2981 RMK AO2 SLP104 T10061050 55004",2023.01.15-03.55.01
"METAR","KMSP","2023-01-15T09:53:00Z",-1.1,-5,9,170,"SCT",10,"KMSP 150953Z 17009KT 10SM SCT250 M01/M05 A2979 RMK AO2 SLP099 T10111050",2023.01.15-04.55.01
"METAR","KMSP","2023-01-15T10:53:00Z",-1.7,-5,7,170,"SCT",10,"KMSP 151053Z 17007KT 10SM SCT250 M02/M05 A2978 RMK AO2 SLP096 T10171050",2023.01.15-05.55.01
"METAR","KMSP","2023-01-15T11:53:00Z",-0.6,-4.4,7,170,"BKN",10,"KMSP 151153Z 17007G16KT 10SM BKN200 M01/M04 A2977 RMK AO2 SLP091 4/012 T10061044 11006 21017 56012",2023.01.15-06.55.01
"METAR","KMSP","2023-01-15T12:53:00Z",-0.6,-4.4,5,160,"OVC",10,"KMSP 151253Z 16005KT 10SM OVC180 M01/M04 A2977 RMK AO2 SLP089 T10061044",2023.01.15-07.55.01
"METAR","KMSP","2023-01-15T13:53:00Z",-1.1,-4.4,4,120,"OVC",10,"KMSP 151353Z 12004KT 10SM BKN170 BKN190 OVC250 M01/M04 A2977 RMK AO2 SLP090 T10111044",2023.01.15-08.55.01
"METAR","KMSP","2023-01-15T14:53:00Z",-1.1,-3.9,6,160,"BKN",10,"KMSP 151453Z 16006KT 10SM BKN180 BKN250 M01/M04 A2978 RMK AO2 SLP094 T10111039 53001",2023.01.15-09.55.01
"METAR","KMSP","2023-01-15T15:53:00Z",0,-3.3,8,160,"BKN",10,"KMSP 151553Z 16008KT 10SM SCT180 BKN250 00/M03 A2978 RMK AO2 SLP093 T00001033",2023.01.15-10.55.01
"METAR","KMSP","2023-01-15T16:53:00Z",1.1,-3.3,11,160,"FEW",10,"KMSP 151653Z 16011G17KT 10SM FEW180 FEW250 01/M03 A2976 RMK AO2 SLP087 T00111033",2023.01.15-11.55.02
"METAR","KMSP","2023-01-15T17:53:00Z",1.7,-2.8,15,170,"FEW",10,"KMSP 151753Z 17015KT 10SM FEW250 02/M03 A2974 RMK AO2 SLP081 4/012 T00171028 10017 21011 58011",2023.01.15-12.55.01
"METAR","KMSP","2023-01-15T18:53:00Z",2.2,-2.8,12,160,"FEW",10,"KMSP 151853Z 16012KT 10SM FEW250 02/M03 A2972 RMK AO2 SLP072 T00221028",2023.01.15-13.55.01
"METAR","KMSP","2023-01-15T19:53:00Z",2.2,-2.8,13,150,"FEW",10,"KMSP 151953Z 15013KT 10SM FEW250 02/M03 A2969 RMK AO2 SLP064 T00221028",2023.01.15-14.55.01
"METAR","KMSP","2023-01-15T20:53:00Z",2.8,-2.2,11,160,"SCT",10,"KMSP 152053Z 16011G22KT 10SM SCT250 03/M02 A2969 RMK AO2 SLP061 T00281022 56019",2023.01.15-15.55.01
"METAR","KMSP","2023-01-15T21:53:00Z",2.8,-2.2,10,160,"SCT",10,"KMSP 152153Z 16010KT 10SM SCT250 03/M02 A2970 RMK AO2 SLP064 T00281022",2023.01.15-16.55.01
"METAR","KMSP","2023-01-15T22:53:00Z",1.7,-2.2,7,140,"SCT",10,"KMSP 152253Z 14007KT 10SM SCT250 02/M02 A2970 RMK AO2 SLP065 T00171022",2023.01.15-17.55.01
"METAR","KMSP","2023-01-15T23:53:00Z",1.1,-2.2,8,140,"SCT",10,"KMSP 152353Z 14008KT 10SM SCT250 01/M02 A2971 RMK AO2 SLP068 4/011 T00111022 10028 20011 53006",2023.01.15-18.55.01
"METAR","KMSP","2023-01-16T00:53:00Z",0.6,-2.8,8,130,"SCT",10,"KMSP 160053Z 13008KT 10SM FEW150 SCT250 01/M03 A2970 RMK AO2 SLP066 T00061028",2023.01.15-19.55.01
"METAR","KMSP","2023-01-16T01:53:00Z",1.1,-2.2,8,120,"OVC",10,"KMSP 160153Z COR 12008KT 10SM SCT030 BKN200 OVC250 01/M02 A2969 RMK AO2 SLP064 T00111022",2023.01.15-20.55.01
"METAR","KMSP","2023-01-16T02:53:00Z",1.7,-1.7,10,140,"OVC",10,"KMSP 160253Z 14010KT 10SM BKN180 OVC250 02/M02 A2969 RMK AO2 SLP061 VIRGA T00171017 56006",2023.01.15-21.55.01
"METAR","KMSP","2023-01-16T03:53:00Z",1.7,-1.7,11,140,"OVC",10,"KMSP 160353Z 14011KT 10SM SCT120 BKN150 OVC250 02/M02 A2968 RMK AO2 SLP060 VIRGA T00171017",2023.01.15-22.55.01
"METAR","KMSP","2023-01-16T04:53:00Z",1.7,-1.7,10,130,"OVC",10,"KMSP 160453Z 13010KT 10SM SCT120 OVC250 02/M02 A2967 RMK AO2 SLP055 VIRGA T00171017",2023.01.15-23.55.01
"METAR","KMSP","2023-01-16T05:53:00Z",1.1,-1.7,7,120,"OVC",10,"KMSP 160553Z COR 12007KT 10SM BKN040 OVC130 01/M02 A2965 RMK AO2 SLP050 4/011 T00111017 10022 20006 400281017 58010",2023.01.16-00.55.01
"METAR","KMSP","2023-01-16T06:53:00Z",1.1,-1.7,10,110,"OVC",10,"KMSP 160653Z 11010KT 10SM BKN120 OVC160 01/M02 A2963 RMK AO2 SLP041 T00111017",2023.01.16-01.55.01
"METAR","KMSP","2023-01-16T07:53:00Z",1.7,-1.1,8,100,"OVC",10,"KMSP 160753Z 10008KT 10SM -RA FEW037 BKN049 OVC090 02/M01 A2961 RMK AO2 RAB36 SLP033 P0000 T00171011",2023.01.16-02.55.01
"METAR","KMSP","2023-01-16T08:53:00Z",1.7,-1.1,8,110,"OVC",10,"KMSP 160853Z 11008KT 10SM OVC032 02/M01 A2961 RMK AO2 RAE31UPB10E19 SLP034 P0000 60000 T00171011 55015",2023.01.16-03.55.01
"METAR","KMSP","2023-01-16T10:39:00Z",2.8,-0.6,9,100,"OVC",10,"KMSP 161039Z 10009KT 10SM OVC029 03/M01 A2957 RMK AO2 T00281006",2023.01.16-04.55.01
"METAR","KMSP","2023-01-16T10:53:00Z",2.2,-0.6,7,100,"OVC",10,"KMSP 161053Z 10007KT 10SM BKN029 OVC036 02/M01 A2957 RMK AO2 SLP019 T00221006",2023.01.16-05.55.01
"METAR","KMSP","2023-01-16T11:53:00Z",2.2,-0.6,10,100,"OVC",10,"KMSP 161153Z 10010KT 10SM OVC024 02/M01 A2956 RMK AO2 SLP018 4/011 60000 T00221006 10028 20006 56017",2023.01.16-06.55.01
"METAR","KMSP","2023-01-16T12:53:00Z",2.2,-0.6,9,100,"OVC",7,"KMSP 161253Z 10009KT 7SM -RA FEW018 OVC024 02/M01 A2954 RMK AO2 RAB17 SLP012 P0000 T00221006",2023.01.16-07.55.01
"METAR","KMSP","2023-01-16T14:18:00Z",1.7,0,7,80,"OVC",7,"KMSP 161418Z 08007KT 7SM -RA OVC014 02/00 A2953 RMK AO2 P0002 T00170000",2023.01.16-08.55.01
"METAR","KMSP","2023-01-16T14:53:00Z",1.7,0,8,80,"OVC",9,"KMSP 161453Z 08008KT 9SM -RA OVC014 02/00 A2953 RMK AO2 SLP007 P0003 60006 T00170000 56010",2023.01.16-09.55.01
"METAR","KMSP","2023-01-16T16:44:00Z",1.1,0.6,7,70,"OVC",3,"KMSP 161644Z 07007KT 3SM -RA BR OVC008 01/01 A2950 RMK AO2 DZB22E32 P0000 T00110006",2023.01.16-10.55.01
"METAR","KMSP","2023-01-16T16:53:00Z",1.1,0.6,8,70,"OVC",4,"KMSP 161653Z 07008KT 4SM -RA BR OVC007 01/01 A2949 RMK AO2 DZB22E32 SLP996 P0000 T00110006",2023.01.16-11.55.01
"METAR","KMSP","2023-01-16T17:53:00Z",1.1,0.6,7,70,"OVC",4,"KMSP 161753Z 07007KT 4SM -RA BR OVC006 01/01 A2946 RMK AO2 SLP983 4/011 933028 P0002 60008 T00110006 10028 20011 58023",2023.01.16-12.55.01
"METAR","KMSP","2023-01-16T19:43:00Z",1.7,0.6,8,60,"OVC",4,"KMSP 161943Z 06008KT 4SM -RA BR OVC007 02/01 A2941 RMK AO2 P0011 T00170006",2023.01.16-13.55.01
"METAR","KMSP","2023-01-16T19:53:00Z",1.1,0.6,8,60,"OVC",4,"KMSP 161953Z 06008KT 4SM -RA BR OVC007 01/01 A2941 RMK AO2 SLP968 P0012 T00110006",2023.01.16-14.55.01
"METAR","KMSP","2023-01-16T21:28:00Z",1.7,0.6,7,50,"OVC",6,"KMSP 162128Z 05007KT 6SM -RA BR OVC009 02/01 A2941 RMK AO2 P0002 T00170006",2023.01.16-15.55.01
"METAR","KMSP","2023-01-16T22:48:00Z",1,1,6,0,"OVC",10,"KMSP 162248Z VRB06KT 10SM FEW009 OVC016 01/01 A2942 RMK AO2 RAE40 P0001",2023.01.16-16.55.01
"METAR","KMSP","2023-01-16T23:05:00Z",1.1,0.6,5,40,"OVC",10,"KMSP 162305Z 04005KT 10SM BKN008 BKN014 OVC019 01/01 A2942 RMK AO2 T00110006",2023.01.16-17.55.01
"METAR","KMSP","2023-01-17T00:14:00Z",0.6,0,7,10,"OVC",7,"KMSP 170014Z 01007KT 7SM -RASN OVC007 01/00 A2943 RMK AO2 P0000 T00060000",2023.01.16-18.55.01
"METAR","KMSP","2023-01-17T01:39:00Z",0,-0.6,6,350,"OVC",2.5,"KMSP 170139Z 35006KT 2 1/2SM -SN BR FEW004 BKN008 OVC016 00/M01 A2944 RMK AO2 P0003 T00001006",2023.01.16-19.55.01
"METAR","KMSP","2023-01-17T02:12:00Z",0,-0.6,6,350,"OVC",2,"KMSP 170212Z 35006KT 2SM -SN BR SCT005 OVC011 00/M01 A2944 RMK AO2 SFC VIS 2 1/2 P0002 T00001006",2023.01.16-20.55.01
"METAR","KMSP","2023-01-17T03:17:00Z",0,-0.6,6,340,"OVC",2,"KMSP 170317Z 34006KT 2SM -SN BR BKN005 OVC017 00/M01 A2945 RMK AO2 SFC VIS 3 P0002 T00001006",2023.01.16-21.55.01
"METAR","KMSP","2023-01-17T03:53:00Z",0,-0.6,6,340,"OVC",2,"KMSP 170353Z 34006KT 2SM -SN BR BKN007 OVC015 00/M01 A2945 RMK AO2 SFC VIS 2 1/2 SLP982 P0004 T00001006",2023.01.16-22.55.01
"METAR","KMSP","2023-01-17T04:53:00Z",0,-0.6,5,330,"OVC",2,"KMSP 170453Z 33005KT 2SM -SN BR OVC008 00/M01 A2946 RMK AO2 SFC VIS 4 SLP984 P0002 T00001006",2023.01.16-23.55.01
"METAR","KMSP","2023-01-17T05:53:00Z",0,-0.6,6,320,"OVC",2,"KMSP 170553Z 32006KT 2SM -SN BR OVC008 00/M01 A2947 RMK AO2 SFC VIS 3 SLP988 4/011 P0002 60018 T00001006 10011 20000 400280000 53008",2023.01.17-00.55.01
"METAR","KMSP","2023-01-17T06:53:00Z",0,-0.6,9,330,"OVC",2,"KMSP 170653Z 33009KT 2SM OVC008 00/M01 A2948 RMK AO2 SFC VIS 7 SNE49 SLP989 P0001 T00001006",2023.01.17-01.55.01
"METAR","KMSP","2023-01-17T07:53:00Z",0,-0.6,8,320,"OVC",2,"KMSP 170753Z 32008KT 2SM OVC008 00/M01 A2949 RMK AO2 SFC VIS 9 SLP993 P0001 T00001006",2023.01.17-02.55.01
"METAR","KMSP","2023-01-17T09:42:00Z",0.6,-0.6,9,310,"OVC",8,"KMSP 170942Z 31009KT 8SM OVC008 01/M01 A2952 RMK AO2 T00061006",2023.01.17-03.55.01
"METAR","KMSP","2023-01-17T10:31:00Z",0.6,-0.6,9,320,"OVC",10,"KMSP 171031Z 32009KT 10SM OVC009 01/M01 A2954 RMK AO2 T00061006",2023.01.17-04.55.01
"METAR","KMSP","2023-01-17T11:00:00Z",0.6,-0.6,8,320,"OVC",10,"KMSP 171100Z 32008KT 10SM OVC010 01/M01 A2954 RMK AO2 T00061006",2023.01.17-05.55.01
"METAR","KMSP","2023-01-17T12:30:00Z",0.6,-0.6,7,320,"OVC",9,"KMSP 171230Z 32007KT 9SM OVC009 01/M01 A2957 RMK AO2 T00061006",2023.01.17-06.55.01
"METAR","KMSP","2023-01-17T13:01:00Z",0.6,-0.6,8,310,"OVC",10,"KMSP 171301Z 31008KT 10SM OVC010 01/M01 A2958 RMK AO2 T00061006",2023.01.17-07.55.01
"METAR","KMSP","2023-01-17T13:53:00Z",0.6,-0.6,11,320,"OVC",9,"KMSP 171353Z 32011KT 9SM OVC011 01/M01 A2959 RMK AO2 SLP029 T00061006",2023.01.17-08.55.01
"METAR","KMSP","2023-01-17T14:53:00Z",0.6,-0.6,10,310,"OVC",10,"KMSP 171453Z 31010KT 10SM OVC012 01/M01 A2962 RMK AO2 SLP039 T00061006 53022",2023.01.17-09.55.01
"METAR","KMSP","2023-01-17T15:53:00Z",1.1,-0.6,7,320,"OVC",10,"KMSP 171553Z 32007KT 10SM OVC013 01/M01 A2964 RMK AO2 SLP046 T00111006",2023.01.17-10.55.01
"METAR","KMSP","2023-01-17T17:02:00Z",1.1,-0.6,11,330,"OVC",10,"KMSP 171702Z 33011KT 10SM OVC015 01/M01 A2966 RMK AO2 T00111006",2023.01.17-11.55.01
"METAR","KMSP","2023-01-17T18:17:00Z",1.1,-1.1,9,320,"OVC",10,"KMSP 171817Z 32009KT 10SM OVC015 01/M01 A2967 RMK AO2 T00111011",2023.01.17-12.55.01
"METAR","KMSP","2023-01-17T19:41:00Z",1.1,-1.1,9,300,"OVC",10,"KMSP 171941Z 30009KT 10SM OVC017 01/M01 A2969 RMK AO2 T00111011",2023.01.17-13.55.01
"METAR","KMSP","2023-01-17T20:24:00Z",1.1,-1.1,9,310,"OVC",10,"KMSP 172024Z 31009KT 10SM OVC017 01/M01 A2971 RMK AO2 T00111011",2023.01.17-14.55.01
"METAR","KMSP","2023-01-17T21:21:00Z",1.1,-0.6,8,310,"OVC",10,"KMSP 172121Z 31008KT 10SM -SN BKN022 OVC028 01/M01 A2973 RMK AO2 SNB21 P0000 T00111006",2023.01.17-15.55.01
"METAR","KMSP","2023-01-17T22:34:00Z",0.6,-1.1,8,300,"OVC",10,"KMSP 172234Z 30008KT 10SM BKN014 OVC030 01/M01 A2978 RMK AO2 SNE08 P0000 T00061011",2023.01.17-16.55.01
"METAR","KMSP","2023-01-17T22:53:00Z",0.6,-1.1,9,300,"OVC",10,"KMSP 172253Z 30009KT 10SM BKN014 OVC030 01/M01 A2978 RMK AO2 SNE08 SLP094 P0000 T00061011",2023.01.17-17.55.01
"METAR","KMSP","2023-01-17T23:53:00Z",0.6,-1.1,8,300,"OVC",10,"KMSP 172353Z 30008KT 10SM OVC013 01/M01 A2981 RMK AO2 SLP103 4/009 60000 T00061011 10017 20006 53030",2023.01.17-18.55.01
"METAR","KMSP","2023-01-18T00:53:00Z",0.6,-1.1,10,310,"OVC",10,"KMSP 180053Z 31010KT 10SM OVC011 01/M01 A2984 RMK AO2 SLP112 T00061011",2023.01.17-19.55.01
"METAR","KMSP","2023-01-18T01:53:00Z",0.6,-1.7,9,340,"OVC",10,"KMSP 180153Z 34009KT 10SM BKN013 OVC017 01/M02 A2986 RMK AO2 SLP119 T00061017",2023.01.17-20.55.01
"METAR","KMSP","2023-01-18T02:53:00Z",0.6,-2.2,10,340,"OVC",10,"KMSP 180253Z 34010KT 10SM FEW013 OVC017 01/M02 A2987 RMK AO2 SLP123 T00061022 51019",2023.01.17-21.55.01
"METAR","KMSP","2023-01-18T03:53:00Z",0.6,-2.2,8,310,"OVC",10,"KMSP 180353Z 31008KT 10SM OVC015 01/M02 A2990 RMK AO2 SLP134 T00061022",2023.01.17-22.55.01
"METAR","KMSP","2023-01-18T05:20:00Z",-0.6,-2.2,7,280,"OVC",10,"KMSP 180520Z 28007KT 10SM OVC014 M01/M02 A2993 RMK AO2 T10061022",2023.01.17-23.55.01
"METAR","KMSP","2023-01-18T06:39:00Z",-1.1,-2.8,5,280,"OVC",10,"KMSP 180639Z 28005KT 10SM OVC014 M01/M03 A2994 RMK AO2 T10111028",2023.01.18-00.55.01
"METAR","KMSP","2023-01-18T06:53:00Z",-1.1,-2.8,4,290,"OVC",10,"KMSP 180653Z 29004KT 10SM OVC016 M01/M03 A2994 RMK AO2 SLP148 T10111028",2023.01.18-01.55.01
"METAR","KMSP","2023-01-18T07:53:00Z",-0.6,-2.2,3,310,"OVC",10,"KMSP 180753Z 31003KT 10SM OVC015 M01/M02 A2994 RMK AO2 SLP147 T10061022",2023.01.18-02.55.01
"METAR","KMSP","2023-01-18T08:53:00Z",-0.6,-2.2,5,280,"OVC",10,"KMSP 180853Z 28005KT 10SM OVC014 M01/M02 A2997 RMK AO2 SLP157 T10061022 53013",2023.01.18-03.55.01
"METAR","KMSP","2023-01-18T10:13:00Z",-1.7,-3.9,8,240,"OVC",10,"KMSP 181013Z 24008KT 10SM OVC014 M02/M04 A3000 RMK AO2 T10171039",2023.01.18-04.55.01
"METAR","KMSP","2023-01-18T10:53:00Z",-1.7,-3.3,3,260,"OVC",10,"KMSP 181053Z 26003KT 10SM OVC014 M02/M03 A3000 RMK AO2 SLP169 T10171033",2023.01.18-05.55.01
"METAR","KMSP","2023-01-18T11:53:00Z",-1.7,-3.3,4,200,"OVC",10,"KMSP 181153Z 20004KT 10SM OVC013 M02/M03 A3000 RMK AO2 SLP170 4/009 T10171033 11006 21017 51012",2023.01.18-06.55.01
"METAR","KMSP","2023-01-18T13:02:00Z",-1.7,-3.9,3,250,"OVC",10,"KMSP 181302Z 25003KT 10SM OVC015 M02/M04 A3002 RMK AO2 T10171039",2023.01.18-07.55.01
"METAR","KMSP","2023-01-18T14:21:00Z",-1.1,-2.8,0,0,"OVC",9,"KMSP 181421Z 00000KT 9SM OVC014 M01/M03 A3002 RMK AO2 T10111028",2023.01.18-08.55.01
"METAR","KMSP","2023-01-18T14:53:00Z",-0.6,-2.8,0,0,"OVC",9,"KMSP 181453Z 00000KT 9SM OVC014 M01/M03 A3004 RMK AO2 SLP181 T10061028 52010",2023.01.18-09.55.01
"METAR","KMSP","2023-01-18T15:53:00Z",-0.6,-2.8,5,80,"OVC",10,"KMSP 181553Z 08005KT 10SM OVC014 M01/M03 A3002 RMK AO2 SLP175 T10061028",2023.01.18-10.55.01
"METAR","KMSP","2023-01-18T16:53:00Z",0,-3.3,8,70,"OVC",10,"KMSP 181653Z 07008KT 10SM OVC013 00/M03 A3001 RMK AO2 SLP173 T00001033",2023.01.18-11.55.01
"METAR","KMSP","2023-01-18T18:02:00Z",0,-3.3,6,80,"OVC",10,"KMSP 181802Z 08006KT 10SM OVC015 00/M03 A3000 RMK AO2 T00001033",2023.01.18-12.55.01
"METAR","KMSP","2023-01-18T19:24:00Z",0,-2.8,9,70,"OVC",10,"KMSP 181924Z 07009KT 10SM OVC015 00/M03 A2997 RMK AO2 T00001028",2023.01.18-13.55.01
"METAR","KMSP","2023-01-18T19:53:00Z",0,-2.8,8,60,"OVC",10,"KMSP 181953Z 06008KT 10SM OVC015 00/M03 A2995 RMK AO2 SLP152 T00001028",2023.01.18-14.55.01
"METAR","KMSP","2023-01-18T20:53:00Z",0,-3.3,12,90,"OVC",10,"KMSP 182053Z 09012KT 10SM OVC016 00/M03 A2995 RMK AO2 SLP151 T00001033 56016",2023.01.18-15.55.01
"METAR","KMSP","2023-01-18T21:53:00Z",0,-3.3,10,80,"OVC",10,"KMSP 182153Z 08010G22KT 10SM OVC015 00/M03 A2996 RMK AO2 SLP156 T00001033",2023.01.18-16.55.01
"METAR","KMSP","2023-01-18T22:53:00Z",0,-3.3,11,90,"OVC",10,"KMSP 182253Z 09011KT 10SM OVC015 00/M03 A2995 RMK AO2 SLP152 T00001033",2023.01.18-17.55.01
"METAR","KMSP","2023-01-18T23:53:00Z",0,-3.3,11,80,"OVC",10,"KMSP 182353Z 08011KT 10SM OVC016 00/M03 A2992 RMK AO2 PK WND 06026/2317 SLP143 4/009 T00001033 10006 21006 58008",2023.01.18-18.55.01
"METAR","KMSP","2023-01-19T00:53:00Z",0,-3.3,13,70,"OVC",10,"KMSP 190053Z 07013G27KT 10SM OVC017 00/M03 A2986 RMK AO2 PK WND 06027/0051 SLP122 T00001033",2023.01.18-19.55.01
"METAR","KMSP","2023-01-19T01:53:00Z",0,-3.3,12,80,"OVC",10,"KMSP 190153Z 08012G24KT 10SM OVC019 00/M03 A2989 RMK AO2 PK WND 06027/0102 SLP130 T00001033",2023.01.18-20.55.01
"METAR","KMSP","2023-01-19T02:53:00Z",0,-3.3,9,70,"OVC",10,"KMSP 190253Z 07009KT 10SM OVC019 00/M03 A2987 RMK AO2 SLP124 T00001033 56019",2023.01.18-21.55.01
"METAR","KMSP","2023-01-19T03:53:00Z",0,-3.3,11,70,"OVC",10,"KMSP 190353Z 07011KT 10SM OVC019 00/M03 A2985 RMK AO2 PK WND 11026/0313 SLP117 T00001033",2023.01.18-22.55.01
"METAR","KMSP","2023-01-19T04:53:00Z",0,-3.3,9,60,"OVC",10,"KMSP 190453Z 06009KT 10SM OVC017 00/M03 A2981 RMK AO2 SLP104 T00001033",2023.01.18-23.55.02
"METAR","KMSP","2023-01-19T05:53:00Z",-0.6,-3.3,9,50,"OVC",10,"KMSP 190553Z 05009G19KT 10SM OVC017 M01/M03 A2977 RMK AO2 SLP091 4/009 T10061033 10006 21006 400061022 58031",2023.01.19-00.55.01
"METAR","KMSP","2023-01-19T07:50:00Z",-1,-4,10,40,"OVC",5,"KMSP 190750Z 04010KT 5SM -SN OVC014 M01/M04 A2975 RMK AO2 SNB48 P0000",2023.01.19-01.55.01
"METAR","KMSP","2023-01-19T08:36:00Z",-1.7,-3.3,8,50,"OVC",1.5,"KMSP 190836Z 05008KT 1 1/2SM -SN BR OVC013 M02/M03 A2975 RMK AO2 P0000 T10171033",2023.01.19-02.55.01
"METAR","KMSP","2023-01-19T08:53:00Z",-1.7,-3.3,8,40,"OVC",1.5,"KMSP 190853Z 04008KT 1 1/2SM -SN BR OVC011 M02/M03 A2974 RMK AO2 SLP081 P0001 60001 T10171033 56004",2023.01.19-03.55.01
"METAR","KMSP","2023-01-19T10:32:00Z",-2.2,-3.3,10,10,"OVC",2,"KMSP 191032Z 01010KT 2SM -SN BR FEW009 OVC016 M02/M03 A2970 RMK AO2 P0002 T10221033",2023.01.19-04.55.01
"METAR","KMSP","2023-01-19T10:53:00Z",-2.2,-3.3,10,10,"OVC",3,"KMSP 191053Z 01010KT 3SM -SN BR FEW007 OVC016 M02/M03 A2969 RMK AO2 SLP065 P0002 T10221033",2023.01.19-05.55.01
null,null,null,null,null,null,null,null,null,null,2023.01.19-06.55.01
"METAR","KMSP","2023-01-19T12:53:00Z",-2.2,-3.3,10,10,"OVC",2,"KMSP 191253Z 01010KT 2SM -SN BR FEW008 OVC027 M02/M03 A2967 RMK AO2 SFC VIS 2 1/2 SLP056 P0002 T10221033",2023.01.19-07.55.01
"METAR","KMSP","2023-01-19T14:32:00Z",-1.7,-3.3,10,30,"OVC",1.5,"KMSP 191432Z 03010KT 1 1/2SM -SN BR FEW011 OVC029 M02/M03 A2966 RMK AO2 TWR VIS 2 P0001 T10171033",2023.01.19-08.55.01
"METAR","KMSP","2023-01-19T15:45:00Z",-1.7,-2.2,6,360,"OVC",1.5,"KMSP 191545Z 36006KT 1 1/2SM R30L/5500VP6000FT -SN BR OVC018 M02/M02 A2966 RMK AO2 SFC VIS 2 P0001 T10171022",2023.01.19-09.55.01
"METAR","KMSP","2023-01-19T15:53:00Z",-1.7,-2.8,8,360,"OVC",2,"KMSP 191553Z 36008KT 2SM R30L/5000VP6000FT -SN BR FEW009 OVC018 M02/M03 A2967 RMK AO2 TWR VIS 2 1/2 SLP055 P0001 T10171028",2023.01.19-10.55.01
"METAR","KMSP","2023-01-19T16:53:00Z",-1.1,-2.2,8,350,"OVC",2,"KMSP 191653Z 35008KT 2SM R30L/4000VP6000FT -SN BR FEW008 OVC016 M01/M02 A2967 RMK AO2 SLP057 P0002 T10111022",2023.01.19-11.55.01
"METAR","KMSP","2023-01-19T17:53:00Z",0,-1.7,9,350,"OVC",2,"KMSP 191753Z 35009KT 2SM R30L/6000VP6000FT -SN BR SCT008 BKN013 OVC029 00/M02 A2966 RMK AO2 SFC VIS 4 SLP053 4/011 P0001 60007 T00001017 10000 21022 58003",2023.01.19-12.55.02
"METAR","KMSP","2023-01-19T19:48:00Z",0,-2,13,350,"OVC",6,"KMSP 191948Z 35013KT 6SM -SN BR BKN010 OVC015 00/M02 A2967 RMK AO2 P0000",2023.01.19-13.55.02
"METAR","KMSP","2023-01-19T19:53:00Z",0,-2.2,13,350,"OVC",4,"KMSP 191953Z 35013KT 4SM -SN BR BKN010 OVC017 00/M02 A2967 RMK AO2 SLP056 P0000 T00001022",2023.01.19-14.55.02
"METAR","KMSP","2023-01-19T21:36:00Z",-0.6,-2.8,15,360,"OVC",3,"KMSP 192136Z 36015G22KT 3SM -SN BR BKN013 OVC023 M01/M03 A2972 RMK AO2 P0000 T10061028",2023.01.19-15.55.01
"METAR","KMSP","2023-01-19T22:19:00Z",-1.1,-3.9,16,10,"BKN",9,"KMSP 192219Z 01016G25KT 9SM FEW015 SCT023 BKN040 BKN200 M01/M04 A2976 RMK AO2 SNE19 P0000 T10111039",2023.01.19-16.55.01
"METAR","KMSP","2023-01-19T22:53:00Z",-1.1,-3.9,15,350,"BKN",10,"KMSP 192253Z 35015KT 10SM FEW017 BKN025 BKN110 BKN250 M01/M04 A2978 RMK AO2 SNE19 SLP095 PRESENT WX VCSH P0000 T10111039",2023.01.19-17.55.01
"METAR","KMSP","2023-01-20T00:11:00Z",-1.1,-3.9,13,330,"OVC",9,"KMSP 200011Z 33013KT 9SM -SN OVC020 M01/M04 A2982 RMK AO2 SNB10 P0000 T10111039",2023.01.19-18.55.01
"METAR","KMSP","2023-01-20T00:53:00Z",-1.7,-4.4,16,340,"OVC",9,"KMSP 200053Z 34016G21KT 9SM -SN OVC016 M02/M04 A2984 RMK AO2 SNB10 SLP116 P0000 T10171044",2023.01.19-19.55.01
"METAR","KMSP","2023-01-20T02:21:00Z",-2.2,-5.6,13,340,"OVC",10,"KMSP 200221Z 34013KT 10SM SCT019 OVC049 M02/M06 A2989 RMK AO2 T10221056",2023.01.19-20.55.01
"METAR","KMSP","2023-01-20T03:39:00Z",-2.8,-5.6,11,340,"OVC",10,"KMSP 200339Z 34011KT 10SM BKN017 OVC044 M03/M06 A2991 RMK AO2 T10281056",2023.01.19-21.55.02
"METAR","KMSP","2023-01-20T03:53:00Z",-2.8,-5.6,10,340,"OVC",10,"KMSP 200353Z 34010KT 10SM BKN017 OVC044 M03/M06 A2992 RMK AO2 SLP143 T10281056",2023.01.19-22.55.01
"METAR","KMSP","2023-01-20T04:53:00Z",-2.8,-5.6,7,340,"OVC",10,"KMSP 200453Z 34007KT 10SM OVC020 M03/M06 A2995 RMK AO2 SLP152 T10281056",2023.01.19-23.55.02
"METAR","KMSP","2023-01-20T05:53:00Z",-2.8,-6.1,9,320,"OVC",10,"KMSP 200553Z 32009KT 10SM OVC020 M03/M06 A2996 RMK AO2 SLP156 4/011 60000 T10281061 11011 21028 400001028 51022",2023.01.20-00.55.01
"METAR","KMSP","2023-01-20T06:53:00Z",-2.8,-5.6,9,310,"OVC",10,"KMSP 200653Z 31009KT 10SM OVC019 M03/M06 A2997 RMK AO2 SLP161 T10281056",2023.01.20-01.55.01
"METAR","KMSP","2023-01-20T07:53:00Z",-3.3,-6.7,10,340,"OVC",10,"KMSP 200753Z 34010KT 10SM OVC024 M03/M07 A3000 RMK AO2 SLP170 T10331067",2023.01.20-02.55.01
"METAR","KMSP","2023-01-20T08:53:00Z",-3.3,-6.7,9,330,"OVC",10,"KMSP 200853Z 33009KT 10SM OVC021 M03/M07 A3003 RMK AO2 SLP181 T10331067 53024",2023.01.20-03.55.01
"METAR","KMSP","2023-01-20T09:53:00Z",-2.8,-6.1,7,320,"OVC",10,"KMSP 200953Z 32007KT 10SM OVC017 M03/M06 A3004 RMK AO2 SLP185 T10281061",2023.01.20-04.55.01
"METAR","KMSP","2023-01-20T10:53:00Z",-2.8,-5.6,11,340,"OVC",10,"KMSP 201053Z 34011G18KT 10SM OVC015 M03/M06 A3006 RMK AO2 SLP191 T10281056",2023.01.20-05.55.01
"METAR","KMSP","2023-01-20T11:53:00Z",-2.8,-6.1,12,330,"OVC",10,"KMSP 201153Z 33012KT 10SM OVC018 M03/M06 A3008 RMK AO2 SLP197 4/011 70009 T10281061 11028 21033 53016",2023.01.20-06.55.01
"METAR","KMSP","2023-01-20T12:53:00Z",-2.8,-6.7,10,340,"OVC",10,"KMSP 201253Z 34010G20KT 10SM OVC019 M03/M07 A3009 RMK AO2 SLP202 T10281067",2023.01.20-07.55.01
"METAR","KMSP","2023-01-20T14:02:00Z",-3.3,-6.1,9,310,"OVC",10,"KMSP 201402Z 31009KT 10SM OVC016 M03/M06 A3011 RMK AO2 T10331061",2023.01.20-08.55.01
"METAR","KMSP","2023-01-20T15:20:00Z",-3.3,-5.6,6,290,"OVC",10,"KMSP 201520Z 29006KT 10SM OVC014 M03/M06 A3013 RMK AO2 T10331056",2023.01.20-09.55.01
"METAR","KMSP","2023-01-20T16:46:00Z",-2.8,-5.6,7,290,"OVC",10,"KMSP 201646Z 29007KT 10SM BKN016 OVC024 M03/M06 A3016 RMK AO2 T10281056",2023.01.20-10.55.01
"METAR","KMSP","2023-01-20T16:53:00Z",-3.3,-6.1,8,270,"OVC",10,"KMSP 201653Z 27008KT 10SM SCT015 OVC026 M03/M06 A3017 RMK AO2 SLP227 T10331061",2023.01.20-11.55.01
"METAR","KMSP","2023-01-20T17:53:00Z",-3.3,-6.7,7,290,"OVC",10,"KMSP 201753Z 29007KT 10SM FEW014 OVC026 M03/M07 A3016 RMK AO2 SLP227 4/011 T10331067 11028 21033 51014",2023.01.20-12.55.01
"METAR","KMSP","2023-01-20T19:33:00Z",-3.3,-7.2,8,260,"OVC",10,"KMSP 201933Z 26008KT 10SM BKN017 OVC027 M03/M07 A3015 RMK AO2 T10331072",2023.01.20-13.55.01
"METAR","KMSP","2023-01-20T19:53:00Z",-3.9,-7.8,9,260,"OVC",10,"KMSP 201953Z 26009KT 10SM OVC017 M04/M08 A3015 RMK AO2 SLP223 T10391078",2023.01.20-14.55.01
"METAR","KMSP","2023-01-20T20:53:00Z",-4.4,-7.8,9,250,"OVC",10,"KMSP 202053Z 25009KT 10SM OVC021 M04/M08 A3016 RMK AO2 SLP227 T10441078 55002",2023.01.20-15.55.01
"METAR","KMSP","2023-01-20T21:53:00Z",-5,-7.8,8,250,"OVC",10,"KMSP 202153Z 25008KT 10SM OVC014 M05/M08 A3017 RMK AO2 SLP229 T10501078",2023.01.20-16.55.01
"METAR","KMSP","2023-01-20T23:46:00Z",-6.1,-8.3,6,250,"OVC",10,"KMSP 202346Z 25006KT 10SM OVC009 M06/M08 A3019 RMK AO2 T10611083",2023.01.20-17.55.01
"METAR","KMSP","2023-01-20T23:53:00Z",-6.7,-8.3,7,260,"OVC",10,"KMSP 202353Z 26007KT 10SM OVC009 M07/M08 A3018 RMK AO2 SLP235 4/011 T10671083 11028 21067 50006",2023.01.20-18.55.01
"METAR","KMSP","2023-01-21T00:53:00Z",-6.7,-8.9,7,250,"OVC",10,"KMSP 210053Z 25007KT 10SM OVC008 M07/M09 A3019 RMK AO2 SLP236 T10671089",2023.01.20-19.55.01
"METAR","KMSP","2023-01-21T01:53:00Z",-7.8,-9.4,7,230,"OVC",10,"KMSP 210153Z 23007KT 10SM OVC008 M08/M09 A3019 RMK AO2 SLP237 T10781094",2023.01.20-20.55.01
"METAR","KMSP","2023-01-21T02:53:00Z",-7.8,-8.9,8,270,"OVC",9,"KMSP 210253Z 27008KT 9SM OVC006 M08/M09 A3018 RMK AO2 SLP234 T10781089 58001",2023.01.20-21.55.01
"METAR","KMSP","2023-01-21T03:53:00Z",-7.2,-8.3,6,280,"OVC",8,"KMSP 210353Z 28006KT 8SM OVC005 M07/M08 A3018 RMK AO2 SLP234 T10721083",2023.01.20-22.55.01
"METAR","KMSP","2023-01-21T04:53:00Z",-7.2,-8.3,5,260,"OVC",10,"KMSP 210453Z 26005KT 10SM OVC005 M07/M08 A3018 RMK AO2 SLP234 T10721083",2023.01.20-23.55.01
"METAR","KMSP","2023-01-21T06:43:00Z",-6.7,-7.8,6,270,"OVC",8,"KMSP 210643Z 27006KT 8SM OVC004 M07/M08 A3017 RMK AO2 T10671078",2023.01.21-00.55.01
"METAR","KMSP","2023-01-21T07:41:00Z",-6.7,-7.8,7,260,"OVC",8,"KMSP 210741Z 26007KT 8SM OVC005 M07/M08 A3017 RMK AO2 T10671078",2023.01.21-01.55.01
"METAR","KMSP","2023-01-21T08:25:00Z",-6.7,-7.2,5,240,"OVC",6,"KMSP 210825Z 24005KT 6SM BR OVC004 M07/M07 A3016 RMK AO2 T10671072",2023.01.21-02.55.01
"METAR","KMSP","2023-01-21T09:16:00Z",-7.2,-7.8,5,250,"OVC",6,"KMSP 210916Z 25005KT 6SM -SN BR OVC004 M07/M08 A3016 RMK AO2 SNB16 P0000 T10721078",2023.01.21-03.55.01
"METAR","KMSP","2023-01-21T09:53:00Z",-7.8,-8.3,7,240,"OVC",5,"KMSP 210953Z 24007KT 5SM -SN BR OVC003 M08/M08 A3015 RMK AO2 SNB16 SLP225 P0000 T10781083",2023.01.21-04.55.01
"METAR","KMSP","2023-01-21T10:53:00Z",-8.3,-8.9,8,230,"OVC",6,"KMSP 211053Z 23008KT 6SM -SN BR OVC004 M08/M09 A3015 RMK AO2 SLP225 P0000 T10831089",2023.01.21-05.55.01
"METAR","KMSP","2023-01-21T12:11:00Z",-7.8,-8.3,5,250,"OVC",8,"KMSP 211211Z 25005KT 8SM OVC005 M08/M08 A3013 RMK AO2 T10781083",2023.01.21-06.55.01
"METAR","KMSP","2023-01-21T12:53:00Z",-7.2,-7.8,4,260,"OVC",6,"KMSP 211253Z 26004KT 6SM BR OVC005 M07/M08 A3012 RMK AO2 SLP216 T10721078",2023.01.21-07.55.01
"METAR","KMSP","2023-01-21T13:53:00Z",-7.2,-7.2,4,280,"OVC",5,"KMSP 211353Z 28004KT 5SM BR OVC005 M07/M07 A3012 RMK AO2 SLP215 I1001 T10721072",2023.01.21-08.55.01
"METAR","KMSP","2023-01-21T14:53:00Z",-6.7,-7.2,3,220,"OVC",4,"KMSP 211453Z 22003KT 4SM BR OVC005 M07/M07 A3011 RMK AO2 SLP212 I3001 T10671072 57007",2023.01.21-09.55.01
"METAR","KMSP","2023-01-21T15:53:00Z",-6.1,-6.7,3,210,"OVC",3,"KMSP 211553Z 21003KT 3SM BR OVC005 M06/M07 A3011 RMK AO2 SLP210 T10611067",2023.01.21-10.55.01
"METAR","KMSP","2023-01-21T16:53:00Z",-5.6,-6.7,8,250,"OVC",6,"KMSP 211653Z 25008KT 6SM BR OVC006 M06/M07 A3011 RMK AO2 SLP211 T10561067",2023.01.21-11.55.01
"METAR","KMSP","2023-01-21T17:53:00Z",-5,-6.7,6,240,"OVC",8,"KMSP 211753Z 24006KT 8SM OVC006 M05/M07 A3008 RMK AO2 SLP201 4/010 I6001 T10501067 11050 21078 58009",2023.01.21-12.55.01
"METAR","KMSP","2023-01-21T19:49:00Z",-4,-6,5,240,"OVC",8,"KMSP 211949Z 24005KT 8SM OVC005 M04/M06 A3002 RMK AO2",2023.01.21-13.55.01
"METAR","KMSP","2023-01-21T19:53:00Z",-4.4,-5.6,5,240,"OVC",8,"KMSP 211953Z 24005KT 8SM OVC005 M04/M06 A3002 RMK AO2 SLP180 T10441056",2023.01.21-14.55.01
"METAR","KMSP","2023-01-21T20:53:00Z",-4.4,-5.6,4,210,"OVC",9,"KMSP 212053Z 21004KT 9SM OVC006 M04/M06 A3003 RMK AO2 SLP183 T10441056 55007",2023.01.21-15.55.01
"METAR","KMSP","2023-01-21T21:53:00Z",-4.4,-6.1,4,210,"OVC",9,"KMSP 212153Z 21004KT 9SM OVC006 M04/M06 A3004 RMK AO2 SLP186 T10441061",2023.01.21-16.55.01
"METAR","KMSP","2023-01-21T22:53:00Z",-5,-6.1,6,200,"OVC",10,"KMSP 212253Z 20006KT 10SM OVC007 M05/M06 A3004 RMK AO2 SLP189 T10501061",2023.01.21-17.55.01
"METAR","KMSP","2023-01-21T23:53:00Z",-5,-6.1,4,230,"OVC",10,"KMSP 212353Z 23004KT 10SM OVC006 M05/M06 A3003 RMK AO2 SLP183 4/010 T10501061 11044 21050 50000",2023.01.21-18.55.01
"METAR","KMSP","2023-01-22T00:53:00Z",-5,-6.1,0,0,"OVC",10,"KMSP 220053Z 00000KT 10SM OVC006 M05/M06 A3003 RMK AO2 SLP182 T10501061",2023.01.21-19.55.01
"METAR","KMSP","2023-01-22T01:53:00Z",-5.6,-6.7,3,230,"OVC",9,"KMSP 220153Z 23003KT 9SM OVC006 M06/M07 A3001 RMK AO2 SLP175 T10561067",2023.01.21-20.55.01
"METAR","KMSP","2023-01-22T02:53:00Z",-5.6,-6.7,4,230,"OVC",9,"KMSP 220253Z 23004KT 9SM OVC007 M06/M07 A2999 RMK AO2 SLP171 T10561067 58012",2023.01.21-21.55.01
"METAR","KMSP","2023-01-22T03:53:00Z",-5.6,-6.7,4,210,"OVC",8,"KMSP 220353Z 21004KT 8SM OVC006 M06/M07 A2999 RMK AO2 SLP170 T10561067",2023.01.21-22.55.01
"METAR","KMSP","2023-01-22T04:53:00Z",-5.6,-7.2,4,250,"OVC",8,"KMSP 220453Z 25004KT 8SM OVC006 M06/M07 A2999 RMK AO2 SLP170 T10561072",2023.01.21-23.55.01
"METAR","KMSP","2023-01-22T05:53:00Z",-6.1,-7.2,4,310,"OVC",6,"KMSP 220553Z 31004KT 6SM BR OVC006 M06/M07 A2999 RMK AO2 SLP168 4/010 T10611072 11050 21061 410441083 58002",2023.01.22-00.55.01
"METAR","KMSP","2023-01-22T07:31:00Z",-6.7,-6.7,3,280,"OVC",6,"KMSP 220731Z 28003KT 6SM BR OVC004 M07/M07 A2997 RMK AO2 T10671067",2023.01.22-01.55.01
"METAR","KMSP","2023-01-22T07:53:00Z",-6.7,-7.8,5,250,"OVC",6,"KMSP 220753Z 25005KT 6SM BR OVC004 M07/M08 A2996 RMK AO2 SLP160 T10671078",2023.01.22-02.55.01
"METAR","KMSP","2023-01-22T08:53:00Z",-7.2,-7.8,3,310,"OVC",6,"KMSP 220853Z 31003KT 6SM BR OVC004 M07/M08 A2996 RMK AO2 SLP160 T10721078 55008",2023.01.22-03.55.01
"METAR","KMSP","2023-01-22T09:53:00Z",-7.2,-7.8,4,320,"OVC",5,"KMSP 220953Z 32004KT 5SM BR OVC004 M07/M08 A2995 RMK AO2 SLP155 T10721078",2023.01.22-04.55.01
"METAR","KMSP","2023-01-22T10:53:00Z",-7.8,-8.3,5,320,"OVC",5,"KMSP 221053Z 32005KT 5SM BR OVC003 M08/M08 A2994 RMK AO2 SLP152 T10781083",2023.01.22-05.55.01
"METAR","KMSP","2023-01-22T11:53:00Z",-7.8,-8.9,6,350,"OVC",5,"KMSP 221153Z 35006KT 5SM BR OVC003 M08/M09 A2994 RMK AO2 SLP152 4/010 I1000 I6000 T10781089 11061 21078 56008",2023.01.22-06.55.01
"METAR","KMSP","2023-01-22T13:03:00Z",-8.3,-8.9,3,320,"OVC",6,"KMSP 221303Z 32003KT 6SM BR OVC005 M08/M09 A2993 RMK AO2 T10831089",2023.01.22-07.55.01
"METAR","KMSP","2023-01-22T14:16:00Z",-8.3,-8.9,3,320,"OVC",4,"KMSP 221416Z 32003KT 4SM BR OVC005 M08/M09 A2994 RMK AO2 T10831089",2023.01.22-08.55.01
"METAR","KMSP","2023-01-22T14:53:00Z",-8.3,-9.4,4,330,"OVC",4,"KMSP 221453Z 33004KT 4SM BR OVC006 M08/M09 A2995 RMK AO2 SLP157 T10831094 53004",2023.01.22-09.55.01
"METAR","KMSP","2023-01-22T16:13:00Z",-8.3,-10,3,340,"OVC",4,"KMSP 221613Z 34003KT 4SM R30L/3500VP6000FT BR OVC007 M08/M10 A2996 RMK AO2 SNB1554E12 P0001 T10831100",2023.01.22-10.55.01
"METAR","KMSP","2023-01-22T16:53:00Z",-8.3,-10,3,270,"OVC",5,"KMSP 221653Z 27003KT 5SM BR OVC007 M08/M10 A2997 RMK AO2 SNB1554E12 SLP164 P0001 T10831100",2023.01.22-11.55.01
"METAR","KMSP","2023-01-22T17:53:00Z",-7.8,-10,5,310,"OVC",6,"KMSP 221753Z 31005KT 6SM BR OVC008 M08/M10 A2996 RMK AO2 SLP160 4/010 60001 T10781100 11072 21089 50003",2023.01.22-12.55.01
"METAR","KMSP","2023-01-22T19:44:00Z",-7.8,-10,7,300,"OVC",4,"KMSP 221944Z 30007KT 4SM -SN BR OVC010 M08/M10 A2993 RMK AO2 SNB41 P0000 T10781100",2023.01.22-13.55.01
"METAR","KMSP","2023-01-22T20:11:00Z",-7.8,-8.9,3,0,"OVC",5,"KMSP 222011Z VRB03KT 5SM BR OVC009 M08/M09 A2994 RMK AO2 T10781089",2023.01.22-14.55.01
"METAR","KMSP","2023-01-22T21:16:00Z",-7.2,-8.9,0,0,"OVC",4,"KMSP 222116Z 00000KT 4SM -SN BR OVC008 M07/M09 A2994 RMK AO2 SNE00B13 P0000 T10721089",2023.01.22-15.55.02
"METAR","KMSP","2023-01-22T21:53:00Z",-7.8,-8.9,3,260,"OVC",5,"KMSP 222153Z 26003KT 5SM -SN BR OVC008 M08/M09 A2995 RMK AO2 SNE00B13 SLP157 P0000 T10781089",2023.01.22-16.55.01
"METAR","KMSP","2023-01-22T22:53:00Z",-7.8,-9.4,6,340,"OVC",5,"KMSP 222253Z 34006KT 5SM -SN BR OVC007 M08/M09 A2996 RMK AO2 SLP161 P0000 T10781094",2023.01.22-17.55.02
"METAR","KMSP","2023-01-23T00:05:00Z",-7.8,-9.4,4,250,"OVC",6,"KMSP 230005Z 25004KT 6SM BR OVC006 M08/M09 A2998 RMK AO2 SNE05 P0000 T10781094",2023.01.22-18.55.01
"METAR","KMSP","2023-01-23T01:28:00Z",-8.3,-8.9,4,260,"OVC",6,"KMSP 230128Z 26004KT 6SM -SN BR OVC006 M08/M09 A2998 RMK AO2 SNB27 P0000 T10831089",2023.01.22-19.55.01
"METAR","KMSP","2023-01-23T02:26:00Z",-8.3,-8.9,0,0,"OVC",5,"KMSP 230226Z 00000KT 5SM BR OVC005 M08/M09 A2998 RMK AO2 SNE26 P0000 T10831089",2023.01.22-20.55.01
"METAR","KMSP","2023-01-23T03:04:00Z",-8.9,-9.4,4,260,"OVC",6,"KMSP 230304Z 26004KT 6SM BR OVC004 M09/M09 A2998 RMK AO2 T10891094",2023.01.22-21.55.01
"METAR","KMSP","2023-01-23T04:21:00Z",-8.9,-9.4,7,220,"OVC",5,"KMSP 230421Z 22007KT 5SM -SN BR OVC004 M09/M09 A2999 RMK AO2 SNB20 P0000 I1000 T10891094",2023.01.22-22.55.01
"METAR","KMSP","2023-01-23T04:53:00Z",-8.9,-10,7,230,"OVC",4,"KMSP 230453Z 23007KT 4SM -SN BR OVC003 M09/M10 A2999 RMK AO2 SNB20 SLP172 P0000 I1000 T10891100",2023.01.22-23.55.01
"METAR","KMSP","2023-01-23T05:53:00Z",-9.4,-10,7,250,"OVC",3,"KMSP 230553Z 25007KT 3SM -SN BR OVC003 M09/M10 A3000 RMK AO2 SLP175 4/010 P0000 60000 I6000 T10941100 11078 21094 410611094 53006",2023.01.23-00.55.01
"METAR","KMSP","2023-01-23T07:41:00Z",-10,-11.1,6,210,"OVC",2,"KMSP 230741Z 21006KT 2SM -SN BR OVC003 M10/M11 A3000 RMK AO2 SFC VIS 4 SNB04E20B21 P0000 T11001111",2023.01.23-01.55.01
"METAR","KMSP","2023-01-23T08:24:00Z",-10,-11.1,5,200,"OVC",2,"KMSP 230824Z 20005KT 2SM -SN BR OVC005 M10/M11 A3000 RMK AO2 TWR VIS 3 P0000 T11001111",2023.01.23-02.55.01
"METAR","KMSP","2023-01-23T09:44:00Z",-10.6,-11.7,6,220,"OVC",3,"KMSP 230944Z 22006KT 3SM -SN BR OVC004 M11/M12 A3000 RMK AO2 SFC VIS 4 SNE23B44 P0000 T11061117",2023.01.23-03.55.01
"METAR","KMSP","2023-01-23T10:51:00Z",-10,-11,5,210,"OVC",2,"KMSP 231051Z 21005KT 2SM BR OVC004 M10/M11 A2999 RMK AO2 SFC VIS 3 SNE18 P0000 I1000",2023.01.23-04.55.01
"METAR","KMSP","2023-01-23T11:21:00Z",-10,-11.1,5,210,"OVC",3,"KMSP 231121Z 21005KT 3SM BR OVC004 M10/M11 A3000 RMK AO2 SFC VIS 5 T11001111",2023.01.23-05.55.01
"METAR","KMSP","2023-01-23T12:29:00Z",-10.6,-12.2,7,190,"OVC",3,"KMSP 231229Z 19007KT 3SM BR OVC005 M11/M12 A2998 RMK AO2 SFC VIS 5 T11061122",2023.01.23-06.55.01
"METAR","KMSP","2023-01-23T13:30:00Z",-11.7,-13.3,3,210,"CLR",6,"KMSP 231330Z 21003KT 6SM BR CLR M12/M13 A2997 RMK AO2 T11171133",2023.01.23-07.55.01
"METAR","KMSP","2023-01-23T13:53:00Z",-11.1,-13.3,5,190,"FEW",6,"KMSP 231353Z 19005KT 6SM BR FEW250 M11/M13 A2995 RMK AO2 SLP161 T11111133",2023.01.23-08.55.01
"METAR","KMSP","2023-01-23T14:53:00Z",-10.6,-12.2,6,210,"FEW",8,"KMSP 231453Z 21006KT 8SM FEW090 FEW250 M11/M12 A2995 RMK AO2 SLP160 T11061122 56008",2023.01.23-09.55.01
"METAR","KMSP","2023-01-23T16:38:00Z",-8.9,-11.1,9,250,"OVC",9,"KMSP 231638Z 25009KT 9SM BKN012 BKN060 OVC100 M09/M11 A2996 RMK AO2 T10891111",2023.01.23-10.55.01
"METAR","KMSP","2023-01-23T17:35:00Z",-7.8,-10,7,270,"OVC",8,"KMSP 231735Z 27007KT 8SM OVC009 M08/M10 A2995 RMK AO2 T10781100",2023.01.23-11.55.01
"METAR","KMSP","2023-01-23T17:53:00Z",-7.2,-10,5,250,"OVC",8,"KMSP 231753Z 25005KT 8SM OVC009 M07/M10 A2995 RMK AO2 SLP157 4/010 933029 T10721100 11072 21117 58002",2023.01.23-12.55.01
"METAR","KMSP","2023-01-23T18:53:00Z",-6.1,-8.3,7,260,"OVC",8,"KMSP 231853Z 26007KT 8SM OVC008 M06/M08 A2994 RMK AO2 SLP153 T10611083",2023.01.23-13.55.01
"METAR","KMSP","2023-01-23T19:53:00Z",-4.4,-6.7,9,270,"OVC",8,"KMSP 231953Z 27009KT 8SM OVC008 M04/M07 A2994 RMK AO2 SLP155 T10441067",2023.01.23-14.55.01
"METAR","KMSP","2023-01-23T21:12:00Z",-2.8,-4.4,6,280,"OVC",8,"KMSP 232112Z 28006KT 8SM OVC010 M03/M04 A2996 RMK AO2 T10281044",2023.01.23-15.55.01
"METAR","KMSP","2023-01-23T22:32:00Z",-1.7,-3.9,5,260,"OVC",9,"KMSP 232232Z 26005KT 9SM SCT012 OVC050 M02/M04 A2998 RMK AO2 T10171039",2023.01.23-16.55.01
"METAR","KMSP","2023-01-23T22:53:00Z",-1.7,-3.9,4,240,"OVC",9,"KMSP 232253Z 24004KT 9SM SCT012 OVC050 M02/M04 A2998 RMK AO2 SLP165 T10171039",2023.01.23-17.55.01
"METAR","KMSP","2023-01-23T23:53:00Z",-1.1,-3.3,4,240,"OVC",10,"KMSP 232353Z 24004KT 10SM FEW012 OVC050 M01/M03 A2999 RMK AO2 SLP168 4/010 T10111033 11011 21072 51011",2023.01.23-18.55.01
"METAR","KMSP","2023-01-24T00:53:00Z",-1.1,-2.8,5,230,"BKN",9,"KMSP 240053Z 23005KT 9SM FEW015 BKN055 M01/M03 A2999 RMK AO2 SLP169 T10111028",2023.01.23-19.55.01
"METAR","KMSP","2023-01-24T01:53:00Z",-0.6,-2.8,9,260,"BKN",10,"KMSP 240153Z 26009KT 10SM FEW015 BKN060 M01/M03 A2998 RMK AO2 SLP168 T10061028",2023.01.23-20.55.01
"METAR","KMSP","2023-01-24T02:53:00Z",-1.1,-3.9,9,270,"BKN",10,"KMSP 240253Z 27009KT 10SM FEW015 BKN060 M01/M04 A2999 RMK AO2 SLP170 T10111039 53001",2023.01.23-21.55.01
"METAR","KMSP","2023-01-24T04:26:00Z",-2.2,-4.4,7,280,"OVC",10,"KMSP 240426Z 28007KT 10SM OVC016 M02/M04 A3001 RMK AO2 T10221044",2023.01.23-22.55.01
"METAR","KMSP","2023-01-24T04:53:00Z",-2.2,-4.4,7,270,"OVC",10,"KMSP 240453Z 27007KT 10SM OVC018 M02/M04 A3002 RMK AO2 SLP180 T10221044",2023.01.23-23.55.01
"METAR","KMSP","2023-01-24T05:53:00Z",-2.8,-5,5,230,"BKN",10,"KMSP 240553Z 23005KT 10SM SCT021 BKN037 M03/M05 A3003 RMK AO2 SLP183 4/010 T10281050 11006 21028 410061117 53013",2023.01.24-00.55.01
"METAR","KMSP","2023-01-24T06:53:00Z",-3.3,-5.6,10,260,"BKN",9,"KMSP 240653Z 26010KT 9SM BKN034 M03/M06 A3004 RMK AO2 SLP184 T10331056",2023.01.24-01.55.02
"METAR","KMSP","2023-01-24T07:53:00Z",-4.4,-6.1,6,260,"FEW",10,"KMSP 240753Z 26006KT 10SM FEW060 M04/M06 A3004 RMK AO2 SLP185 T10441061",2023.01.24-02.55.01
"METAR","KMSP","2023-01-24T08:53:00Z",-5.6,-7.2,6,230,"FEW",8,"KMSP 240853Z 23006KT 8SM FEW240 M06/M07 A3006 RMK AO2 SLP192 T10561072 53009",2023.01.24-03.55.01
"METAR","KMSP","2023-01-24T09:53:00Z",-6.7,-8.3,6,260,"FEW",9,"KMSP 240953Z 26006KT 9SM FEW240 M07/M08 A3007 RMK AO2 SLP197 T10671083",2023.01.24-04.55.01
"METAR","KMSP","2023-01-24T10:53:00Z",-7.8,-8.9,6,270,"FEW",10,"KMSP 241053Z 27006KT 10SM FEW200 M08/M09 A3008 RMK AO2 SLP198 T10781089",2023.01.24-05.55.01
"METAR","KMSP","2023-01-24T11:53:00Z",-8.3,-10,4,230,"FEW",9,"KMSP 241153Z 23004KT 9SM FEW200 M08/M10 A3009 RMK AO2 SLP201 4/010 T10831100 11028 21083 51008",2023.01.24-06.55.01
"METAR","KMSP","2023-01-24T12:53:00Z",-9.4,-10.6,3,230,"FEW",9,"KMSP 241253Z 23003KT 9SM FEW250 M09/M11 A3009 RMK AO2 SLP202 I1000 T10941106",2023.01.24-07.55.01
"METAR","KMSP","2023-01-24T13:53:00Z",-10,-11.1,3,260,"FEW",8,"KMSP 241353Z 26003KT 8SM FEW250 M10/M11 A3009 RMK AO2 SLP202 I1000 T11001111",2023.01.24-08.55.01
"METAR","KMSP","2023-01-24T15:44:00Z",-9.4,-10,5,200,"FEW",8,"KMSP 241544Z 20005KT 8SM FEW002 FEW150 M09/M10 A3010 RMK AO2 T10941100",2023.01.24-09.55.01
"METAR","KMSP","2023-01-24T15:53:00Z",-9.4,-10,5,190,"FEW",8,"KMSP 241553Z 19005KT 8SM FEW002 FEW150 M09/M10 A3010 RMK AO2 SLP207 T10941100",2023.01.24-10.55.01
"METAR","KMSP","2023-01-24T16:53:00Z",-7.8,-7.8,3,0,"SCT",8,"KMSP 241653Z VRB03KT 8SM FEW150 SCT250 M08/M08 A3011 RMK AO2 SLP210 T10781078",2023.01.24-11.55.01
"METAR","KMSP","2023-01-24T17:53:00Z",-5,-7.2,0,0,"BKN",10,"KMSP 241753Z 00000KT 10SM BKN090 M05/M07 A3010 RMK AO2 SLP205 4/009 I6000 T10501072 11050 21100 58001",2023.01.24-12.55.01
"METAR","KMSP","2023-01-24T18:53:00Z",-3.3,-7.2,5,160,"OVC",10,"KMSP 241853Z 16005KT 10SM OVC095 M03/M07 A3006 RMK AO2 SLP193 T10331072",2023.01.24-13.55.02
"METAR","KMSP","2023-01-24T19:53:00Z",-3.9,-7.2,8,160,"OVC",10,"KMSP 241953Z 16008KT 10SM BKN085 OVC250 M04/M07 A3004 RMK AO2 SLP186 T10391072",2023.01.24-14.55.02
"METAR","KMSP","2023-01-24T20:53:00Z",-4.4,-7.2,6,150,"OVC",10,"KMSP 242053Z 15006KT 10SM FEW090 SCT120 OVC250 M04/M07 A3002 RMK AO2 SLP177 T10441072 56026",2023.01.24-15.55.01
"METAR","KMSP","2023-01-24T21:53:00Z",-3.9,-7.2,4,130,"BKN",10,"KMSP 242153Z 13004KT 10SM FEW050 SCT090 BKN120 BKN250 M04/M07 A3001 RMK AO2 SLP176 T10391072",2023.01.24-16.55.01
"METAR","KMSP","2023-01-24T22:53:00Z",-3.9,-6.7,7,140,"OVC",10,"KMSP 242253Z 14007KT 10SM SCT050 BKN070 OVC120 M04/M07 A3001 RMK AO2 SLP176 T10391067",2023.01.24-17.55.01
"METAR","KMSP","2023-01-25T00:48:00Z",-3,-6,7,140,"OVC",10,"KMSP 250048Z 14007KT 10SM -SN BKN019 BKN026 OVC060 M03/M06 A2999 RMK AO2 SNB48 PCPN VRY LGT P0000",2023.01.24-18.55.01
"METAR","KMSP","2023-01-25T01:49:00Z",-3,-5,4,140,"OVC",9,"KMSP 250149Z 14004KT 9SM -SN SCT020 OVC041 M03/M05 A2999 RMK AO2 P0000",2023.01.24-19.55.01
"METAR","KMSP","2023-01-25T02:03:00Z",-2.8,-5,5,140,"OVC",9,"KMSP 250203Z 14005KT 9SM FEW019 OVC041 M03/M05 A2998 RMK AO2 SNE03 P0000 T10281050",2023.01.24-20.55.01
"METAR","KMSP","2023-01-25T03:38:00Z",-2.8,-4.4,5,150,"OVC",9,"KMSP 250338Z 15005KT 9SM OVC014 M03/M04 A2996 RMK AO2 T10281044",2023.01.24-21.55.01
"METAR","KMSP","2023-01-25T03:53:00Z",-2.8,-4.4,3,150,"OVC",9,"KMSP 250353Z 15003KT 9SM OVC014 M03/M04 A2995 RMK AO2 SLP157 T10281044",2023.01.24-22.55.01
"METAR","KMSP","2023-01-25T04:53:00Z",-1.7,-3.9,5,240,"OVC",8,"KMSP 250453Z 24005KT 8SM OVC013 M02/M04 A2993 RMK AO2 SLP149 T10171039",2023.01.24-23.55.01
"METAR","KMSP","2023-01-25T06:06:00Z",-2.2,-4.4,5,230,"OVC",9,"KMSP 250606Z 23005KT 9SM OVC015 M02/M04 A2992 RMK AO2 T10221044",2023.01.25-00.55.01
"METAR","KMSP","2023-01-25T06:06:00Z",-2.2,-4.4,5,230,"OVC",9,"KMSP 250606Z 23005KT 9SM OVC015 M02/M04 A2992 RMK AO2 T10221044",2023.01.25-01.55.01
"METAR","KMSP","2023-01-25T07:53:00Z",-3.3,-5,6,240,"OVC",9,"KMSP 250753Z 24006KT 9SM OVC014 M03/M05 A2991 RMK AO2 SLP140 T10331050",2023.01.25-02.55.01
"METAR","KMSP","2023-01-25T08:53:00Z",-3.3,-5.6,4,230,"OVC",8,"KMSP 250853Z 23004KT 8SM OVC013 M03/M06 A2990 RMK AO2 SLP139 T10331056 56007",2023.01.25-03.55.01
"METAR","KMSP","2023-01-25T10:42:00Z",-3.9,-5.6,0,0,"OVC",8,"KMSP 251042Z 00000KT 8SM OVC018 M04/M06 A2988 RMK AO2 T10391056",2023.01.25-04.55.01
"METAR","KMSP","2023-01-25T11:41:00Z",-4.4,-6.1,5,260,"OVC",7,"KMSP 251141Z 26005KT 7SM SCT008 OVC017 M04/M06 A2986 RMK AO2 T10441061",2023.01.25-05.55.01
"METAR","KMSP","2023-01-25T12:21:00Z",-4.4,-6.1,0,0,"OVC",5,"KMSP 251221Z 00000KT 5SM -SN BR FEW008 SCT018 OVC032 M04/M06 A2986 RMK AO2 SNB18 P0000 T10441061",2023.01.25-06.55.01
"METAR","KMSP","2023-01-25T13:00:00Z",-4.4,-6.1,3,270,"OVC",5,"KMSP 251300Z 27003KT 5SM -SN BR BKN008 BKN022 OVC034 M04/M06 A2986 RMK AO2 P0000 T10441061",2023.01.25-07.55.01
"METAR","KMSP","2023-01-25T13:53:00Z",-4.4,-6.1,4,310,"OVC",5,"KMSP 251353Z 31004KT 5SM -SN BR OVC008 M04/M06 A2985 RMK AO2 SLP120 P0000 T10441061",2023.01.25-08.55.01
"METAR","KMSP","2023-01-25T15:28:00Z",-3.9,-5.6,5,340,"OVC",2.5,"KMSP 251528Z 34005KT 2 1/2SM -SN BR BKN009 OVC014 M04/M06 A2986 RMK AO2 SFC VIS 4 P0000 T10391056",2023.01.25-09.55.01
"METAR","KMSP","2023-01-25T15:53:00Z",-3.9,-5,5,330,"OVC",2.5,"KMSP 251553Z 33005KT 2 1/2SM -SN BR OVC010 M04/M05 A2986 RMK AO2 SFC VIS 3 SLP122 P0000 T10391050",2023.01.25-10.55.01
"METAR","KMSP","2023-01-25T17:00:00Z",-3.3,-5,7,330,"OVC",2.5,"KMSP 251700Z 33007KT 2 1/2SM -SN BR OVC009 M03/M05 A2985 RMK AO2 SFC VIS 3 P0000 T10331050",2023.01.25-11.55.01
"METAR","KMSP","2023-01-25T18:14:00Z",-2.8,-5,11,350,"OVC",4,"KMSP 251814Z 35011KT 4SM -SN BR OVC011 M03/M05 A2984 RMK AO2 P0001 T10281050",2023.01.25-12.55.01
"METAR","KMSP","2023-01-25T19:26:00Z",-3.3,-5.6,9,340,"OVC",2.5,"KMSP 251926Z 34009KT 2 1/2SM R30L/5500VP6000FT -SN BR OVC012 M03/M06 A2983 RMK AO2 SFC VIS 6 P0000 T10331056",2023.01.25-13.55.01
"METAR","KMSP","2023-01-25T20:21:00Z",-3.3,-5.6,9,340,"OVC",8,"KMSP 252021Z 34009KT 8SM -SN OVC015 M03/M06 A2984 RMK AO2 P0000 T10331056",2023.01.25-14.55.01
"METAR","KMSP","2023-01-25T20:53:00Z",-2.8,-6.1,10,340,"OVC",9,"KMSP 252053Z 34010KT 9SM -SN OVC017 M03/M06 A2985 RMK AO2 SLP118 P0000 60002 T10281061 53001",2023.01.25-15.55.01
"METAR","KMSP","2023-01-25T21:53:00Z",-3.3,-6.1,12,330,"OVC",9,"KMSP 252153Z 33012KT 9SM -SN OVC018 M03/M06 A2987 RMK AO2 SLP126 P0000 T10331061",2023.01.25-16.55.01
"METAR","KMSP","2023-01-25T22:53:00Z",-3.9,-6.7,12,340,"OVC",8,"KMSP 252253Z 34012G19KT 8SM -SN OVC022 M04/M07 A2988 RMK AO2 SLP132 P0000 T10391067",2023.01.25-17.55.01
"METAR","KMSP","2023-01-25T23:53:00Z",-4.4,-7.2,14,330,"OVC",7,"KMSP 252353Z 33014KT 7SM -SN BKN017 OVC023 M04/M07 A2990 RMK AO2 SLP137 4/010 P0000 60002 T10441072 11028 21044 51017",2023.01.25-18.55.01
"METAR","KMSP","2023-01-26T01:10:00Z",-5,-7.8,13,330,"OVC",9,"KMSP 260110Z 33013KT 9SM -SN OVC020 M05/M08 A2992 RMK AO2 SNB09 P0000 T10501078",2023.01.25-19.55.01
"METAR","KMSP","2023-01-26T02:40:00Z",-6.7,-10,15,330,"OVC",9,"KMSP 260240Z 33015KT 9SM -SN BKN021 OVC036 M07/M10 A2994 RMK AO2 P0000 T10671100",2023.01.25-20.55.01
"METAR","KMSP","2023-01-26T02:53:00Z",-6.7,-10,13,330,"OVC",9,"KMSP 260253Z 33013KT 9SM -SN BKN021 OVC038 M07/M10 A2994 RMK AO2 SLP152 P0000 60000 T10671100 51015",2023.01.25-21.55.01
"METAR","KMSP","2023-01-26T03:53:00Z",-7.2,-10.6,8,330,"OVC",9,"KMSP 260353Z 33008KT 9SM -SN BKN020 BKN029 OVC120 M07/M11 A2995 RMK AO2 SLP157 P0000 T10721106",2023.01.25-22.55.01
"METAR","KMSP","2023-01-26T05:34:00Z",-8.9,-12.2,10,340,"BKN",10,"KMSP 260534Z 34010KT 10SM SCT021 BKN033 M09/M12 A2997 RMK AO2 T10891122",2023.01.25-23.55.01
"METAR","KMSP","2023-01-26T05:53:00Z",-8.9,-12.8,10,330,"SCT",10,"KMSP 260553Z 33010KT 10SM SCT032 M09/M13 A2997 RMK AO2 SLP163 4/010 60000 T10891128 11044 21089 410221089 51010",2023.01.26-00.55.02
"METAR","KMSP","2023-01-26T06:53:00Z",-9.4,-13.3,10,330,"OVC",10,"KMSP 260653Z 33010KT 10SM OVC065 M09/M13 A2997 RMK AO2 SLP164 T10941133",2023.01.26-01.55.01
"METAR","KMSP","2023-01-26T07:53:00Z",-10,-13.9,8,320,"BKN",10,"KMSP 260753Z 32008KT 10SM BKN065 M10/M14 A2999 RMK AO2 SLP171 T11001139",2023.01.26-02.55.02
"METAR","KMSP","2023-01-26T08:53:00Z",-11.1,-15,12,320,"BKN",10,"KMSP 260853Z 32012KT 10SM BKN065 M11/M15 A3001 RMK AO2 SLP178 T11111150 53013",2023.01.26-03.55.01
"METAR","KMSP","2023-01-26T09:53:00Z",-12.2,-15.6,12,320,"BKN",10,"KMSP 260953Z 32012KT 10SM BKN065 M12/M16 A3003 RMK AO2 SLP183 T11221156",2023.01.26-04.55.01
"METAR","KMSP","2023-01-26T10:53:00Z",-13.3,-16.7,12,320,"BKN",10,"KMSP 261053Z 32012KT 10SM BKN070 M13/M17 A3004 RMK AO2 SLP187 T11331167",2023.01.26-05.55.01
"METAR","KMSP","2023-01-26T11:53:00Z",-15,-17.8,9,330,"FEW",10,"KMSP 261153Z 33009KT 10SM FEW070 M15/M18 A3005 RMK AO2 SLP193 4/010 70003 T11501178 11089 21150 51013",2023.01.26-06.55.01
"METAR","KMSP","2023-01-26T12:53:00Z",-15.6,-18.3,7,320,"FEW",10,"KMSP 261253Z 32007KT 10SM FEW070 M16/M18 A3006 RMK AO2 SLP198 T11561183",2023.01.26-07.55.01
"METAR","KMSP","2023-01-26T13:53:00Z",-16.7,-18.9,8,320,"FEW",10,"KMSP 261353Z 32008KT 10SM FEW070 M17/M19 A3007 RMK AO2 SLP202 T11671189",2023.01.26-08.55.01
"METAR","KMSP","2023-01-26T14:53:00Z",-15.6,-18.9,8,320,"FEW",10,"KMSP 261453Z 32008KT 10SM FEW100 M16/M19 A3009 RMK AO2 SLP207 T11561189 53013",2023.01.26-09.55.01
"METAR","KMSP","2023-01-26T15:53:00Z",-13.9,-17.8,7,310,"SCT",10,"KMSP 261553Z 31007KT 10SM SCT100 M14/M18 A3008 RMK AO2 SLP205 T11391178",2023.01.26-10.55.01
"METAR","KMSP","2023-01-26T16:53:00Z",-12.8,-17.8,7,320,"FEW",10,"KMSP 261653Z 32007KT 10SM FEW100 M13/M18 A3007 RMK AO2 SLP199 T11281178",2023.01.26-11.55.01
"METAR","KMSP","2023-01-26T17:53:00Z",-10.6,-17.2,4,320,"FEW",10,"KMSP 261753Z 32004KT 10SM FEW050 M11/M17 A3004 RMK AO2 SLP188 4/010 T11061172 11106 21167 58018",2023.01.26-12.55.01
"METAR","KMSP","2023-01-26T18:53:00Z",-9.4,-17.2,5,260,"FEW",10,"KMSP 261853Z 26005KT 10SM FEW030 M09/M17 A3000 RMK AO2 SLP176 T10941172",2023.01.26-13.55.01
"METAR","KMSP","2023-01-26T20:31:00Z",-8.9,-16.7,7,280,"BKN",10,"KMSP 262031Z 28007KT 10SM BKN029 M09/M17 A2996 RMK AO2 T10891167",2023.01.26-14.55.01
"METAR","KMSP","2023-01-26T20:53:00Z",-8.9,-16.7,8,260,"BKN",10,"KMSP 262053Z 26008KT 10SM BKN027 M09/M17 A2996 RMK AO2 SLP163 T10891167 56024",2023.01.26-15.55.01
"METAR","KMSP","2023-01-26T22:37:00Z",-10,-17.2,8,240,"SCT",10,"KMSP 262237Z 24008KT 10SM SCT023 SCT150 M10/M17 A2994 RMK AO2 T11001172",2023.01.26-16.55.01
"METAR","KMSP","2023-01-26T22:53:00Z",-10.6,-17.2,6,240,"SCT",10,"KMSP 262253Z 24006KT 10SM SCT023 SCT150 M11/M17 A2994 RMK AO2 SLP155 T11061172",2023.01.26-17.55.01
"METAR","KMSP","2023-01-26T23:53:00Z",-11.1,-17.2,8,200,"BKN",10,"KMSP 262353Z 20008KT 10SM BKN029 BKN150 M11/M17 A2990 RMK AO2 SLP144 4/010 T11111172 11089 21111 58020",2023.01.26-18.55.01
"METAR","KMSP","2023-01-27T00:53:00Z",-11.1,-16.1,6,220,"OVC",10,"KMSP 270053Z 22006KT 10SM OVC027 M11/M16 A2990 RMK AO2 SLP145 T11111161",2023.01.26-19.55.01
"METAR","KMSP","2023-01-27T02:41:00Z",-10.6,-14.4,9,170,"OVC",10,"KMSP 270241Z 17009KT 10SM OVC033 M11/M14 A2980 RMK AO2 SNE33 P0000 T11061144",2023.01.26-20.55.01
"METAR","KMSP","2023-01-27T02:53:00Z",-10.6,-14.4,9,190,"OVC",10,"KMSP 270253Z 19009KT 10SM OVC033 M11/M14 A2980 RMK AO2 SNE33 SLP109 P0000 60000 T11061144 58034",2023.01.26-21.55.01
"METAR","KMSP","2023-01-27T04:46:00Z",-10.6,-13.3,10,140,"OVC",10,"KMSP 270446Z 14010KT 10SM FEW024 OVC042 M11/M13 A2969 RMK AO2 PRESFR T11061133",2023.01.26-22.55.01
"METAR","KMSP","2023-01-27T05:37:00Z",-10.6,-12.8,11,150,"OVC",10,"KMSP 270537Z 15011KT 10SM FEW014 BKN025 OVC100 M11/M13 A2963 RMK AO2 T11061128",2023.01.26-23.55.01
"METAR","KMSP","2023-01-27T06:28:00Z",-8.9,-11.1,9,170,"OVC",1.5,"KMSP 270628Z 17009KT 1 1/2SM -SN BR OVC023 M09/M11 A2958 RMK AO2 PRESFR P0001 T10891111",2023.01.27-00.55.01
"METAR","KMSP","2023-01-27T07:48:00Z",-6,-7,11,180,"OVC",2,"KMSP 270748Z 18011KT 2SM -SN BR OVC014 M06/M07 A2951 RMK AO2 P0004",2023.01.27-01.55.01
"METAR","KMSP","2023-01-27T08:43:00Z",-4.4,-6.1,10,190,"OVC",1.25,"KMSP 270843Z 19010KT 1 1/4SM -SN BR OVC013 M04/M06 A2948 RMK AO2 P0002 T10441061",2023.01.27-02.55.01
"METAR","KMSP","2023-01-27T09:10:00Z",-3.9,-5.6,10,190,"OVC",4,"KMSP 270910Z 19010KT 4SM -SN BR BKN013 OVC018 M04/M06 A2946 RMK AO2 P0001 T10391056",2023.01.27-03.55.01
"METAR","KMSP","2023-01-27T09:53:00Z",-3.3,-5,10,200,"OVC",7,"KMSP 270953Z 20010KT 7SM OVC012 M03/M05 A2943 RMK AO2 SNE32 SLP978 P0001 T10331050",2023.01.27-04.55.01
"METAR","KMSP","2023-01-27T11:42:00Z",-1.7,-2.8,7,220,"OVC",2.5,"KMSP 271142Z 22007KT 2 1/2SM -SN BR OVC009 M02/M03 A2939 RMK AO2 P0002 T10171028",2023.01.27-05.55.01
"METAR","KMSP","2023-01-27T12:38:00Z",0,-1.7,8,240,"OVC",9,"KMSP 271238Z 24008KT 9SM BKN007 OVC012 00/M02 A2940 RMK AO2 SNE19 P0001 T00001017",2023.01.27-06.55.01
"METAR","KMSP","2023-01-27T13:06:00Z",0,-1.1,7,250,"OVC",9,"KMSP 271306Z 25007KT 9SM FEW009 OVC014 00/M01 A2940 RMK AO2 T00001011",2023.01.27-07.55.01
"METAR","KMSP","2023-01-27T14:29:00Z",-2.2,-5,15,290,"OVC",10,"KMSP 271429Z 29015G35KT 10SM BKN019 BKN041 OVC048 M02/M05 A2948 RMK AO2 PK WND 30035/1419 PRESRR T10221050",2023.01.27-08.55.01
"METAR","KMSP","2023-01-27T14:53:00Z",-2.8,-5.6,16,280,"OVC",10,"KMSP 271453Z 28016G31KT 10SM OVC019 M03/M06 A2950 RMK AO2 PK WND 30035/1419 SLP004 60001 T10281056 53036",2023.01.27-09.55.01
"METAR","KMSP","2023-01-27T16:42:00Z",-5,-8.3,21,300,"OVC",10,"KMSP 271642Z 30021G37KT 10SM OVC020 M05/M08 A2960 RMK AO2 PK WND 31037/1636 T10501083",2023.01.27-10.55.01
"METAR","KMSP","2023-01-27T16:53:00Z",-5,-8.9,19,300,"OVC",10,"KMSP 271653Z 30019G33KT 10SM OVC021 M05/M09 A2961 RMK AO2 PK WND 31037/1636 SLP040 T10501089",2023.01.27-11.55.01
"METAR","KMSP","2023-01-27T17:53:00Z",-5.6,-10,18,310,"BKN",10,"KMSP 271753Z 31018G31KT 10SM SCT021 BKN250 M06/M10 A2964 RMK AO2 PK WND 29034/1715 SLP051 4/011 60001 T10561100 10006 21061 51046",2023.01.27-12.55.01
"METAR","KMSP","2023-01-27T18:53:00Z",-6.1,-11.1,17,300,"BKN",10,"KMSP 271853Z 30017G31KT 10SM SCT027 BKN250 M06/M11 A2967 RMK AO2 PK WND 28031/1848 SLP061 T10611111",2023.01.27-13.55.01
"METAR","KMSP","2023-01-27T19:53:00Z",-6.1,-11.7,19,290,"FEW",10,"KMSP 271953Z 29019G30KT 10SM FEW030 FEW250 M06/M12 A2970 RMK AO2 PK WND 30032/1914 SLP070 T10611117",2023.01.27-14.55.01
"METAR","KMSP","2023-01-27T20:53:00Z",-6.7,-12.8,16,300,"FEW",10,"KMSP 272053Z 30016KT 10SM FEW250 M07/M13 A2972 RMK AO2 PK WND 28028/2014 SLP078 T10671128 51027",2023.01.27-15.55.01
"METAR","KMSP","2023-01-27T21:53:00Z",-6.7,-13.9,15,300,"FEW",10,"KMSP 272153Z 30015G23KT 10SM FEW250 M07/M14 A2976 RMK AO2 SLP091 T10671139",2023.01.27-16.55.01
"METAR","KMSP","2023-01-27T23:38:00Z",-8.9,-14.4,12,270,"CLR",10,"KMSP 272338Z 27012G22KT 10SM CLR M09/M14 A2985 RMK AO2 PRESRR T10891144",2023.01.27-17.55.01
"METAR","KMSP","2023-01-27T23:53:00Z",-8.9,-14.4,12,280,"CLR",10,"KMSP 272353Z 28012G24KT 10SM CLR M09/M14 A2986 RMK AO2 PRESRR SLP126 4/011 T10891144 11056 21094 53047",2023.01.27-18.55.01
"METAR","KMSP","2023-01-28T00:53:00Z",-10,-15.6,11,280,"CLR",10,"KMSP 280053Z 28011KT 10SM CLR M10/M16 A2991 RMK AO2 SLP141 T11001156",2023.01.27-19.55.01
"METAR","KMSP","2023-01-28T01:53:00Z",-11.1,-16.1,9,290,"CLR",10,"KMSP 280153Z 29009KT 10SM CLR M11/M16 A2995 RMK AO2 SLP154 T11111161",2023.01.27-20.55.01
"METAR","KMSP","2023-01-28T02:53:00Z",-11.7,-16.7,12,300,"CLR",10,"KMSP 280253Z 30012KT 10SM CLR M12/M17 A2998 RMK AO2 SLP167 T11171167 51038",2023.01.27-21.55.01
"METAR","KMSP","2023-01-28T03:53:00Z",-12.8,-17.2,10,310,"CLR",10,"KMSP 280353Z 31010KT 10SM CLR M13/M17 A3000 RMK AO2 SLP174 T11281172",2023.01.27-22.55.01
"METAR","KMSP","2023-01-28T04:53:00Z",-13.3,-17.8,11,300,"CLR",10,"KMSP 280453Z 30011KT 10SM CLR M13/M18 A3003 RMK AO2 SLP185 T11331178",2023.01.27-23.55.01
"METAR","KMSP","2023-01-28T05:53:00Z",-13.9,-18.3,11,310,"CLR",10,"KMSP 280553Z 31011KT 10SM CLR M14/M18 A3006 RMK AO2 SLP198 4/011 T11391183 11089 21139 400061139 53028",2023.01.28-00.55.01
"METAR","KMSP","2023-01-28T06:53:00Z",-14.4,-18.9,10,320,"CLR",10,"KMSP 280653Z 32010KT 10SM CLR M14/M19 A3007 RMK AO2 SLP200 T11441189",2023.01.28-01.55.01
"METAR","KMSP","2023-01-28T07:53:00Z",-14.4,-18.9,9,320,"CLR",10,"KMSP 280753Z 32009KT 10SM CLR M14/M19 A3010 RMK AO2 SLP209 T11441189",2023.01.28-02.55.01
"METAR","KMSP","2023-01-28T08:53:00Z",-14.4,-18.3,11,330,"CLR",10,"KMSP 280853Z 33011KT 10SM CLR M14/M18 A3013 RMK AO2 SLP222 T11441183 53023",2023.01.28-03.55.01
"METAR","KMSP","2023-01-28T09:53:00Z",-14.4,-18.9,9,340,"BKN",10,"KMSP 280953Z 34009KT 10SM SCT100 BKN110 M14/M19 A3016 RMK AO2 SLP231 T11441189",2023.01.28-04.55.01
"METAR","KMSP","2023-01-28T10:53:00Z",-15,-20,8,350,"BKN",10,"KMSP 281053Z 35008KT 10SM BKN100 BKN110 M15/M20 A3016 RMK AO2 SLP233 T11501200",2023.01.28-05.55.01
"METAR","KMSP","2023-01-28T11:53:00Z",-15.6,-20.6,8,10,"BKN",10,"KMSP 281153Z 01008KT 10SM BKN130 M16/M21 A3016 RMK AO2 SLP234 4/011 70001 T11561206 11139 21156 51010",2023.01.28-06.55.01
"METAR","KMSP","2023-01-28T12:53:00Z",-16.1,-21.1,7,20,"OVC",10,"KMSP 281253Z 02007KT 10SM OVC130 M16/M21 A3018 RMK AO2 SLP241 T11611211",2023.01.28-07.55.01
"METAR","KMSP","2023-01-28T13:53:00Z",-16.7,-21.1,9,20,"OVC",10,"KMSP 281353Z 02009KT 10SM OVC250 M17/M21 A3022 RMK AO2 SLP254 T11671211",2023.01.28-08.55.01
"METAR","KMSP","2023-01-28T14:53:00Z",-16.7,-21.1,9,20,"BKN",10,"KMSP 281453Z 02009KT 10SM BKN110 M17/M21 A3025 RMK AO2 SLP266 T11671211 53030",2023.01.28-09.55.01
"METAR","KMSP","2023-01-28T15:53:00Z",-16.7,-21.1,9,10,"OVC",10,"KMSP 281553Z 01009KT 10SM OVC150 M17/M21 A3028 RMK AO2 SLP276 T11671211",2023.01.28-10.55.01
"METAR","KMSP","2023-01-28T16:53:00Z",-16.1,-21.7,7,50,"BKN",10,"KMSP 281653Z 05007KT 10SM BKN200 M16/M22 A3031 RMK AO2 SLP286 T11611217",2023.01.28-11.55.01
"METAR","KMSP","2023-01-28T17:53:00Z",-15.6,-21.1,7,10,"BKN",10,"KMSP 281753Z 01007KT 10SM BKN250 M16/M21 A3031 RMK AO2 SLP285 4/011 T11561211 11156 21167 50018",2023.01.28-12.55.01
"METAR","KMSP","2023-01-28T18:53:00Z",-15,-21.1,8,360,"BKN",10,"KMSP 281853Z 36008KT 10SM BKN250 M15/M21 A3028 RMK AO2 SLP276 T11501211",2023.01.28-13.55.01
"METAR","KMSP","2023-01-28T19:53:00Z",-14.4,-20.6,7,360,"OVC",10,"KMSP 281953Z 36007KT 10SM OVC250 M14/M21 A3027 RMK AO2 SLP271 T11441206",2023.01.28-14.55.01
"METAR","KMSP","2023-01-28T20:53:00Z",-14.4,-20.6,9,20,"BKN",10,"KMSP 282053Z 02009KT 10SM BKN250 M14/M21 A3026 RMK AO2 SLP269 T11441206 56016",2023.01.28-15.55.01
"METAR","KMSP","2023-01-28T21:53:00Z",-14.4,-21.1,10,350,"BKN",10,"KMSP 282153Z 35010G18KT 10SM BKN250 M14/M21 A3028 RMK AO2 SLP274 T11441211",2023.01.28-16.55.01
"METAR","KMSP","2023-01-28T22:53:00Z",-14.4,-21.7,11,360,"BKN",10,"KMSP 282253Z 36011KT 10SM SCT120 BKN250 M14/M22 A3027 RMK AO2 SLP270 T11441217",2023.01.28-17.55.01
"METAR","KMSP","2023-01-28T23:53:00Z",-14.4,-21.7,8,350,"BKN",10,"KMSP 282353Z 35008KT 10SM SCT130 BKN250 M14/M22 A3029 RMK AO2 SLP280 4/011 T11441217 11139 21156 53010",2023.01.28-18.55.01
"METAR","KMSP","2023-01-29T00:53:00Z",-14.4,-21.7,8,360,"BKN",10,"KMSP 290053Z 36008KT 10SM SCT130 BKN250 M14/M22 A3032 RMK AO2 SLP289 T11441217",2023.01.28-19.55.01
"METAR","KMSP","2023-01-29T01:53:00Z",-14.4,-21.1,7,350,"OVC",10,"KMSP 290153Z 35007KT 10SM SCT120 OVC250 M14/M21 A3034 RMK AO2 SLP296 T11441211",2023.01.28-20.55.01
"METAR","KMSP","2023-01-29T02:53:00Z",-16.1,-21.7,6,330,"BKN",10,"KMSP 290253Z 33006KT 10SM FEW120 BKN250 M16/M22 A3035 RMK AO2 SLP302 T11611217 51020",2023.01.28-21.55.01
"METAR","KMSP","2023-01-29T03:53:00Z",-15.6,-21.7,7,350,"OVC",10,"KMSP 290353Z 35007KT 10SM BKN120 OVC250 M16/M22 A3036 RMK AO2 SLP305 T11561217",2023.01.28-22.55.01
"METAR","KMSP","2023-01-29T04:53:00Z",-15.6,-22.2,9,350,"OVC",10,"KMSP 290453Z 35009KT 10SM FEW090 SCT110 BKN150 OVC250 M16/M22 A3036 RMK AO2 SLP303 T11561222",2023.01.28-23.55.01
"METAR","KMSP","2023-01-29T05:53:00Z",-16.1,-22.8,10,350,"OVC",10,"KMSP 290553Z 35010KT 10SM BKN110 OVC250 M16/M23 A3036 RMK AO2 SLP303 4/011 T11611228 11144 21161 411391167 51002",2023.01.29-00.55.01
"METAR","KMSP","2023-01-29T06:53:00Z",-16.7,-23.3,10,340,"BKN",10,"KMSP 290653Z 34010KT 10SM BKN110 BKN170 M17/M23 A3035 RMK AO2 SLP301 T11671233",2023.01.29-01.55.01
"METAR","KMSP","2023-01-29T07:53:00Z",-16.7,-23.3,11,360,"OVC",10,"KMSP 290753Z 36011KT 10SM OVC090 M17/M23 A3037 RMK AO2 SLP306 T11671233",2023.01.29-02.55.01
"METAR","KMSP","2023-01-29T08:53:00Z",-17.2,-23.3,9,320,"BKN",10,"KMSP 290853Z 32009KT 10SM FEW060 SCT075 BKN090 M17/M23 A3039 RMK AO2 SLP315 T11721233 53011",2023.01.29-03.55.01
"METAR","KMSP","2023-01-29T09:53:00Z",-17.8,-23.9,10,330,"OVC",10,"KMSP 290953Z 33010KT 10SM OVC080 M18/M24 A3040 RMK AO2 SLP317 T11781239",2023.01.29-04.55.01
"METAR","KMSP","2023-01-29T10:53:00Z",-17.8,-23.3,8,340,"OVC",10,"KMSP 291053Z 34008KT 10SM OVC090 M18/M23 A3039 RMK AO2 SLP314 T11781233",2023.01.29-05.55.01
"METAR","KMSP","2023-01-29T11:53:00Z",-18.3,-23.9,9,330,"BKN",10,"KMSP 291153Z 33009KT 10SM FEW080 BKN180 M18/M24 A3039 RMK AO2 SLP314 4/011 T11831239 11161 21183 50000",2023.01.29-06.55.01
"METAR","KMSP","2023-01-29T12:53:00Z",-19.4,-25,6,330,"BKN",10,"KMSP 291253Z 33006KT 10SM BKN180 M19/M25 A3038 RMK AO2 SLP312 T11941250",2023.01.29-07.55.02
"METAR","KMSP","2023-01-29T13:53:00Z",-20.6,-25.6,6,300,"FEW",10,"KMSP 291353Z 30006KT 10SM FEW180 M21/M26 A3042 RMK AO2 SLP326 T12061256",2023.01.29-08.55.01
"METAR","KMSP","2023-01-29T14:53:00Z",-19.4,-24.4,6,310,"BKN",10,"KMSP 291453Z 31006KT 10SM BKN180 M19/M24 A3044 RMK AO2 SLP332 T11941244 53017",2023.01.29-09.55.01
"METAR","KMSP","2023-01-29T15:53:00Z",-18.3,-23.9,9,330,"BKN",10,"KMSP 291553Z 33009KT 10SM BKN180 M18/M24 A3047 RMK AO2 SLP342 T11831239",2023.01.29-10.55.01
"METAR","KMSP","2023-01-29T16:53:00Z",-17.2,-23.3,6,290,"BKN",10,"KMSP 291653Z 29006KT 10SM BKN180 M17/M23 A3047 RMK AO2 SLP341 T11721233",2023.01.29-11.55.01
"METAR","KMSP","2023-01-29T17:53:00Z",-15.6,-22.8,6,290,"BKN",10,"KMSP 291753Z 29006KT 10SM BKN180 M16/M23 A3043 RMK AO2 SLP328 4/011 T11561228 11156 21206 58004",2023.01.29-12.55.01
"METAR","KMSP","2023-01-29T18:53:00Z",-15,-22.2,8,300,"BKN",10,"KMSP 291853Z 30008KT 10SM BKN180 M15/M22 A3040 RMK AO2 SLP319 T11501222",2023.01.29-13.55.01
"METAR","KMSP","2023-01-29T19:53:00Z",-14.4,-22.2,8,310,"BKN",10,"KMSP 291953Z 31008G18KT 10SM BKN180 M14/M22 A3039 RMK AO2 SLP314 T11441222",2023.01.29-14.55.01
"METAR","KMSP","2023-01-29T20:53:00Z",-14.4,-22.2,10,280,"SCT",10,"KMSP 292053Z 28010KT 10SM SCT180 M14/M22 A3039 RMK AO2 SLP313 T11441222 56014",2023.01.29-15.55.01
"METAR","KMSP","2023-01-29T21:53:00Z",-15,-22.8,8,300,"CLR",10,"KMSP 292153Z 30008KT 10SM CLR M15/M23 A3039 RMK AO2 SLP313 T11501228",2023.01.29-16.55.01
"METAR","KMSP","2023-01-29T22:53:00Z",-15.6,-22.8,10,280,"SCT",10,"KMSP 292253Z 28010KT 10SM SCT250 M16/M23 A3039 RMK AO2 SLP315 T11561228",2023.01.29-17.55.01
"METAR","KMSP","2023-01-29T23:53:00Z",-16.1,-22.8,8,290,"SCT",10,"KMSP 292353Z 29008KT 10SM SCT250 M16/M23 A3040 RMK AO2 SLP317 4/011 T11611228 11144 21161 53003",2023.01.29-18.55.01
"METAR","KMSP","2023-01-30T00:53:00Z",-16.7,-22.8,9,270,"SCT",10,"KMSP 300053Z 27009KT 10SM SCT250 M17/M23 A3040 RMK AO2 SLP319 T11671228",2023.01.29-19.55.01
"METAR","KMSP","2023-01-30T01:53:00Z",-17.2,-22.8,6,260,"SCT",10,"KMSP 300153Z 26006KT 10SM SCT250 M17/M23 A3041 RMK AO2 SLP323 T11721228",2023.01.29-20.55.01
"METAR","KMSP","2023-01-30T02:53:00Z",-17.2,-22.8,9,280,"SCT",10,"KMSP 300253Z 28009KT 10SM SCT250 M17/M23 A3041 RMK AO2 SLP324 T11721228 51005",2023.01.29-21.55.01
"METAR","KMSP","2023-01-30T03:53:00Z",-17.8,-22.8,5,250,"SCT",10,"KMSP 300353Z 25005KT 10SM FEW120 SCT250 M18/M23 A3042 RMK AO2 SLP327 T11781228",2023.01.29-22.55.01
"METAR","KMSP","2023-01-30T04:53:00Z",-17.8,-22.2,5,260,"BKN",10,"KMSP 300453Z 26005KT 10SM SCT150 BKN250 M18/M22 A3042 RMK AO2 SLP325 T11781222",2023.01.29-23.55.01
"METAR","KMSP","2023-01-30T05:53:00Z",-17.8,-22.2,8,290,"BKN",10,"KMSP 300553Z 29008KT 10SM BKN110 M18/M22 A3043 RMK AO2 SLP327 4/011 T11781222 11161 21178 411441206 51005",2023.01.30-00.55.01
"METAR","KMSP","2023-01-30T06:53:00Z",-18.3,-22.8,9,290,"SCT",10,"KMSP 300653Z 29009KT 10SM SCT200 M18/M23 A3043 RMK AO2 SLP327 T11831228",2023.01.30-01.55.01
"METAR","KMSP","2023-01-30T07:53:00Z",-18.9,-23.3,9,290,"SCT",10,"KMSP 300753Z 29009KT 10SM SCT200 M19/M23 A3043 RMK AO2 SLP328 T11891233",2023.01.30-02.55.01
"METAR","KMSP","2023-01-30T08:53:00Z",-19.4,-23.9,8,280,"SCT",10,"KMSP 300853Z 28008KT 10SM SCT250 M19/M24 A3044 RMK AO2 SLP333 T11941239 53005",2023.01.30-03.55.01
"METAR","KMSP","2023-01-30T09:53:00Z",-20,-24.4,7,290,"SCT",10,"KMSP 300953Z COR 29007KT 10SM SCT250 M20/M24 A3043 RMK AO2 SLP329 T12001244",2023.01.30-04.55.01
"METAR","KMSP","2023-01-30T10:53:00Z",-20,-23.9,6,280,"SCT",10,"KMSP 301053Z 28006KT 10SM SCT250 M20/M24 A3043 RMK AO2 SLP330 T12001239",2023.01.30-05.55.01
"METAR","KMSP","2023-01-30T11:53:00Z",-20.6,-24.4,6,280,"FEW",10,"KMSP 301153Z 28006KT 10SM FEW250 M21/M24 A3043 RMK AO2 SLP331 4/011 T12061244 11178 21206 56003",2023.01.30-06.55.01
"METAR","KMSP","2023-01-30T12:53:00Z",-21.7,-25,4,280,"CLR",10,"KMSP 301253Z 28004KT 10SM CLR M22/M25 A3043 RMK AO2 SLP331 T12171250",2023.01.30-07.55.01
"METAR","KMSP","2023-01-30T13:53:00Z",-21.1,-24.4,6,280,"CLR",10,"KMSP 301353Z 28006KT 10SM CLR M21/M24 A3045 RMK AO2 SLP336 T12111244",2023.01.30-08.55.01
"METAR","KMSP","2023-01-30T14:53:00Z",-20.6,-24.4,6,280,"CLR",10,"KMSP 301453Z 28006KT 10SM CLR M21/M24 A3047 RMK AO2 SLP342 T12061244 53010",2023.01.30-09.55.01
"METAR","KMSP","2023-01-30T15:53:00Z",-18.9,-23.9,8,310,"CLR",10,"KMSP 301553Z 31008KT 10SM CLR M19/M24 A3048 RMK AO2 SLP347 T11891239",2023.01.30-10.55.01
"METAR","KMSP","2023-01-30T16:53:00Z",-17.2,-23.9,10,310,"CLR",10,"KMSP 301653Z 31010KT 10SM CLR M17/M24 A3049 RMK AO2 SLP348 T11721239",2023.01.30-11.55.02
"METAR","KMSP","2023-01-30T17:53:00Z",-16.7,-24.4,11,310,"CLR",10,"KMSP 301753Z 31011KT 10SM CLR M17/M24 A3048 RMK AO2 SLP344 4/010 933017 T11671244 11167 21222 50003",2023.01.30-12.55.01
"METAR","KMSP","2023-01-30T18:53:00Z",-16.7,-25,12,290,"CLR",10,"KMSP 301853Z 29012KT 10SM CLR M17/M25 A3046 RMK AO2 SLP339 T11671250",2023.01.30-13.55.01
"METAR","KMSP","2023-01-30T19:53:00Z",-16.7,-25.6,11,290,"CLR",10,"KMSP 301953Z 29011KT 10SM CLR M17/M26 A3044 RMK AO2 SLP333 T11671256",2023.01.30-14.55.01
"METAR","KMSP","2023-01-30T20:53:00Z",-17.2,-26.1,10,270,"CLR",10,"KMSP 302053Z 27010KT 10SM CLR M17/M26 A3044 RMK AO2 SLP334 T11721261 56011",2023.01.30-15.55.01
"METAR","KMSP","2023-01-30T21:53:00Z",-17.2,-25,10,260,"CLR",10,"KMSP 302153Z 26010KT 10SM CLR M17/M25 A3044 RMK AO2 SLP334 T11721250",2023.01.30-16.55.01
"METAR","KMSP","2023-01-30T22:53:00Z",-17.8,-26.1,10,270,"CLR",10,"KMSP 302253Z 27010KT 10SM CLR M18/M26 A3044 RMK AO2 SLP333 T11781261",2023.01.30-17.55.01
"METAR","KMSP","2023-01-30T23:53:00Z",-18.9,-26.1,9,270,"CLR",10,"KMSP 302353Z 27009KT 10SM CLR M19/M26 A3045 RMK AO2 SLP337 4/010 T11891261 11167 21189 53002",2023.01.30-18.55.01
"METAR","KMSP","2023-01-31T00:53:00Z",-19.4,-25.6,5,250,"CLR",10,"KMSP 310053Z 25005KT 10SM CLR M19/M26 A3045 RMK AO2 SLP338 T11941256",2023.01.30-19.55.01
"METAR","KMSP","2023-01-31T01:53:00Z",-20,-25.6,4,260,"CLR",10,"KMSP 310153Z 26004KT 10SM CLR M20/M26 A3044 RMK AO2 SLP334 T12001256",2023.01.30-20.55.01
"METAR","KMSP","2023-01-31T02:53:00Z",-20.6,-25.6,4,250,"CLR",10,"KMSP 310253Z 25004KT 10SM CLR M21/M26 A3042 RMK AO2 SLP330 T12061256 58008",2023.01.30-21.55.01
"METAR","KMSP","2023-01-31T03:53:00Z",-20.6,-25.6,5,240,"CLR",10,"KMSP 310353Z 24005KT 10SM CLR M21/M26 A3043 RMK AO2 SLP331 T12061256",2023.01.30-22.55.01
"METAR","KMSP","2023-01-31T04:53:00Z",-21.1,-25.6,4,220,"CLR",10,"KMSP 310453Z 22004KT 10SM CLR M21/M26 A3042 RMK AO2 SLP326 T12111256",2023.01.30-23.55.01
"METAR","KMSP","2023-01-31T05:53:00Z",-21.7,-25.6,4,210,"CLR",10,"KMSP 310553Z 21004KT 10SM CLR M22/M26 A3041 RMK AO2 SLP323 4/010 T12171256 11189 21217 411671222 58004",2023.01.31-00.55.01
"METAR","KMSP","2023-01-31T06:53:00Z",-21.7,-26.1,6,220,"CLR",10,"KMSP 310653Z 22006KT 10SM CLR M22/M26 A3040 RMK AO2 SLP319 T12171261",2023.01.31-01.55.01
"METAR","KMSP","2023-01-31T07:53:00Z",-22.2,-25.6,3,210,"CLR",10,"KMSP 310753Z 21003KT 10SM CLR M22/M26 A3038 RMK AO2 SLP314 T12221256",2023.01.31-02.55.01
"METAR","KMSP","2023-01-31T08:53:00Z",-22.2,-26.1,3,210,"CLR",10,"KMSP 310853Z 21003KT 10SM CLR M22/M26 A3037 RMK AO2 SLP311 T12221261 56013",2023.01.31-03.55.01
"METAR","KMSP","2023-01-31T09:53:00Z",-22.2,-26.1,4,200,"CLR",10,"KMSP 310953Z 20004KT 10SM CLR M22/M26 A3035 RMK AO2 SLP304 T12221261",2023.01.31-04.55.01
"METAR","KMSP","2023-01-31T10:53:00Z",-21.7,-26.1,4,210,"CLR",10,"KMSP 311053Z 21004KT 10SM CLR M22/M26 A3032 RMK AO2 SLP292 T12171261",2023.01.31-05.55.01
"METAR","KMSP","2023-01-31T11:53:00Z",-21.7,-26.1,7,190,"CLR",10,"KMSP 311153Z 19007KT 10SM CLR M22/M26 A3030 RMK AO2 SLP286 4/010 T12171261 11211 21222 57024",2023.01.31-06.55.01
"METAR","KMSP","2023-01-31T12:53:00Z",-21.1,-26.1,7,210,"CLR",10,"KMSP 311253Z 21007KT 10SM CLR M21/M26 A3028 RMK AO2 SLP281 T12111261",2023.01.31-07.55.01
"METAR","KMSP","2023-01-31T13:53:00Z",-21.1,-25.6,5,220,"FEW",10,"KMSP 311353Z 22005KT 10SM FEW150 M21/M26 A3028 RMK AO2 SLP281 T12111256",2023.01.31-08.55.01
"METAR","KMSP","2023-01-31T14:53:00Z",-20,-24.4,8,220,"FEW",10,"KMSP 311453Z 22008KT 10SM FEW150 M20/M24 A3028 RMK AO2 SLP281 T12001244 55005",2023.01.31-09.55.01
"METAR","KMSP","2023-01-31T15:53:00Z",-18.3,-23.9,12,220,"FEW",10,"KMSP 311553Z 22012KT 10SM FEW150 M18/M24 A3028 RMK AO2 SLP279 T11831239",2023.01.31-10.55.01
"METAR","KMSP","2023-01-31T16:53:00Z",-16.7,-22.8,7,220,"BKN",10,"KMSP 311653Z 22007KT 10SM BKN049 M17/M23 A3029 RMK AO2 SLP280 T11671228",2023.01.31-11.55.01
"METAR","KMSP","2023-01-31T17:53:00Z",-15.6,-22.2,10,240,"BKN",10,"KMSP 311753Z 24010KT 10SM BKN046 M16/M22 A3027 RMK AO2 SLP276 4/010 T11561222 11150 21217 58003",2023.01.31-12.55.01
"METAR","KMSP","2023-01-31T18:53:00Z",-15,-22.2,9,220,"BKN",10,"KMSP 311853Z 22009KT 10SM BKN046 M15/M22 A3024 RMK AO2 SLP266 T11501222",2023.01.31-13.55.01
"METAR","KMSP","2023-01-31T19:53:00Z",-14.4,-21.7,9,230,"SCT",10,"KMSP 311953Z 23009KT 10SM SCT047 M14/M22 A3021 RMK AO2 SLP254 T11441217",2023.01.31-14.55.01
"METAR","KMSP","2023-01-31T20:53:00Z",-13.3,-21.1,9,230,"FEW",10,"KMSP 312053Z 23009KT 10SM FEW047 M13/M21 A3020 RMK AO2 SLP250 T11331211 56024",2023.01.31-15.55.01
"METAR","KMSP","2023-01-31T21:53:00Z",-12.8,-21.1,10,230,"FEW",10,"KMSP 312153Z 23010KT 10SM FEW047 M13/M21 A3019 RMK AO2 SLP248 T11281211",2023.01.31-16.55.01
"METAR","KMSP","2023-01-31T22:53:00Z",-12.2,-20.6,6,230,"FEW",10,"KMSP 312253Z 23006KT 10SM FEW045 FEW200 M12/M21 A3019 RMK AO2 SLP246 T11221206",2023.01.31-17.55.01
"METAR","KMSP","2023-01-31T23:53:00Z",-12.8,-20,5,200,"FEW",10,"KMSP 312353Z 20005KT 10SM FEW045 FEW200 M13/M20 A3018 RMK AO2 SLP243 4/010 T11281200 11122 21156 58006",2023.01.31-18.55.01
"METAR","KMSP","2023-02-01T00:53:00Z",-13.3,-20,4,210,"FEW",10,"KMSP 010053Z 21004KT 10SM FEW045 FEW250 M13/M20 A3019 RMK AO2 SLP246 T11331200",2023.01.31-19.55.01
"METAR","KMSP","2023-02-01T01:53:00Z",-13.3,-20,5,210,"SCT",10,"KMSP 010153Z 21005KT 10SM SCT120 M13/M20 A3019 RMK AO2 SLP246 T11331200",2023.01.31-20.55.01
"METAR","KMSP","2023-02-01T02:53:00Z",-13.3,-19.4,8,230,"OVC",10,"KMSP 010253Z 23008KT 10SM OVC110 M13/M19 A3018 RMK AO2 SLP242 T11331194 58001",2023.01.31-21.55.01
"METAR","KMSP","2023-02-01T03:53:00Z",-12.8,-20,12,220,"OVC",10,"KMSP 010353Z 22012G18KT 10SM OVC110 M13/M20 A3017 RMK AO2 SLP238 T11281200",2023.01.31-22.55.01
"METAR","KMSP","2023-02-01T04:53:00Z",-12.8,-19.4,7,240,"BKN",10,"KMSP 010453Z 24007KT 10SM BKN100 M13/M19 A3017 RMK AO2 SLP237 T11281194",2023.01.31-23.55.01
"METAR","KMSP","2023-02-01T05:53:00Z",-12.8,-18.9,6,230,"BKN",10,"KMSP 010553Z 23006KT 10SM BKN100 M13/M19 A3017 RMK AO2 SLP236 4/010 T11281189 11122 21133 411221222 56003",2023.02.01-00.55.01
"METAR","KMSP","2023-02-01T06:53:00Z",-13.9,-19.4,5,240,"CLR",10,"KMSP 010653Z 24005KT 10SM CLR M14/M19 A3016 RMK AO2 SLP235 T11391194",2023.02.01-01.55.01
"METAR","KMSP","2023-02-01T07:53:00Z",-15,-20,4,230,"CLR",10,"KMSP 010753Z 23004KT 10SM CLR M15/M20 A3016 RMK AO2 SLP234 T11501200",2023.02.01-02.55.01
"METAR","KMSP","2023-02-01T08:53:00Z",-15,-20,4,220,"CLR",10,"KMSP 010853Z 22004KT 10SM CLR M15/M20 A3017 RMK AO2 SLP235 T11501200 55001",2023.02.01-03.55.01
"METAR","KMSP","2023-02-01T09:53:00Z",-16.1,-20.6,3,240,"CLR",10,"KMSP 010953Z 24003KT 10SM CLR M16/M21 A3017 RMK AO2 SLP237 T11611206",2023.02.01-04.55.01
"METAR","KMSP","2023-02-01T10:53:00Z",-16.1,-20.6,3,220,"CLR",10,"KMSP 011053Z 22003KT 10SM CLR M16/M21 A3017 RMK AO2 SLP238 T11611206",2023.02.01-05.55.01
"METAR","KMSP","2023-02-01T11:53:00Z",-16.7,-20.6,0,0,"CLR",10,"KMSP 011153Z 00000KT 10SM CLR M17/M21 A3018 RMK AO2 SLP242 4/010 T11671206 11128 21167 53005",2023.02.01-06.55.01
"METAR","KMSP","2023-02-01T12:53:00Z",-16.7,-21.1,4,250,"CLR",10,"KMSP 011253Z 25004KT 10SM CLR M17/M21 A3019 RMK AO2 SLP244 T11671211",2023.02.01-07.55.01
"METAR","KMSP","2023-02-01T13:53:00Z",-16.7,-20.6,5,220,"CLR",10,"KMSP 011353Z 22005KT 10SM CLR M17/M21 A3019 RMK AO2 SLP244 T11671206",2023.02.01-08.55.01
"METAR","KMSP","2023-02-01T14:53:00Z",-16.1,-19.4,0,0,"CLR",10,"KMSP 011453Z 00000KT 10SM CLR M16/M19 A3018 RMK AO2 SLP242 T11611194 50000",2023.02.01-09.55.01
"METAR","KMSP","2023-02-01T15:53:00Z",-14.4,-18.9,3,160,"FEW",10,"KMSP 011553Z 16003KT 10SM FEW250 M14/M19 A3019 RMK AO2 SLP244 T11441189",2023.02.01-10.55.01
"METAR","KMSP","2023-02-01T16:53:00Z",-12.2,-17.8,3,190,"SCT",10,"KMSP 011653Z 19003KT 10SM FEW100 SCT250 M12/M18 A3020 RMK AO2 SLP246 T11221178",2023.02.01-11.55.01
"METAR","KMSP","2023-02-01T17:53:00Z",-10,-17.2,3,170,"BKN",10,"KMSP 011753Z 17003KT 10SM BKN110 BKN140 M10/M17 A3017 RMK AO2 SLP235 4/010 T11001172 11100 21172 58003",2023.02.01-12.55.01
"METAR","KMSP","2023-02-01T18:53:00Z",-8.3,-16.7,4,200,"BKN",10,"KMSP 011853Z 20004KT 10SM FEW065 BKN095 BKN140 M08/M17 A3014 RMK AO2 PRESFR SLP223 T10831167",2023.02.01-13.55.01
"METAR","KMSP","2023-02-01T19:53:00Z",-6.7,-16.1,5,250,"BKN",10,"KMSP 011953Z 25005KT 10SM FEW065 BKN090 BKN140 M07/M16 A3011 RMK AO2 SLP216 T10671161",2023.02.01-14.55.01
"METAR","KMSP","2023-02-01T20:53:00Z",-6.7,-16.1,7,210,"FEW",10,"KMSP 012053Z 21007KT 10SM FEW075 M07/M16 A3010 RMK AO2 SLP212 T10671161 56022",2023.02.01-15.55.01
"METAR","KMSP","2023-02-01T21:53:00Z",-7.2,-15,7,160,"SCT",10,"KMSP 012153Z 16007KT 10SM FEW075 SCT150 M07/M15 A3008 RMK AO2 SLP205 T10721150",2023.02.01-16.55.01
"METAR","KMSP","2023-02-01T22:53:00Z",-7.2,-14.4,8,160,"SCT",10,"KMSP 012253Z 16008KT 10SM FEW060 SCT095 SCT150 M07/M14 A3008 RMK AO2 SLP203 T10721144",2023.02.01-17.55.01
"METAR","KMSP","2023-02-01T23:53:00Z",-7.8,-15,5,190,"FEW",10,"KMSP 012353Z 19005KT 10SM FEW060 FEW150 M08/M15 A3009 RMK AO2 SLP208 4/010 T10781150 11061 21100 55005",2023.02.01-18.55.01
"METAR","KMSP","2023-02-02T00:53:00Z",-8.3,-15,8,220,"FEW",10,"KMSP 020053Z 22008KT 10SM FEW250 M08/M15 A3009 RMK AO2 SLP209 T10831150",2023.02.01-19.55.01
"METAR","KMSP","2023-02-02T01:53:00Z",-8.9,-15,4,230,"FEW",10,"KMSP 020153Z 23004KT 10SM FEW100 M09/M15 A3009 RMK AO2 SLP207 T10891150",2023.02.01-20.55.01
"METAR","KMSP","2023-02-02T02:53:00Z",-9.4,-14.4,8,230,"CLR",10,"KMSP 020253Z 23008KT 10SM CLR M09/M14 A3007 RMK AO2 SLP203 T10941144 58005",2023.02.01-21.55.01
"METAR","KMSP","2023-02-02T03:53:00Z",-9.4,-14.4,7,240,"CLR",10,"KMSP 020353Z 24007KT 10SM CLR M09/M14 A3006 RMK AO2 SLP198 T10941144",2023.02.01-22.55.01
"METAR","KMSP","2023-02-02T04:53:00Z",-10,-14.4,6,230,"CLR",10,"KMSP 020453Z 23006KT 10SM CLR M10/M14 A3005 RMK AO2 SLP194 T11001144",2023.02.01-23.55.01
"METAR","KMSP","2023-02-02T05:53:00Z",-10.6,-15,5,240,"CLR",10,"KMSP 020553Z 24005KT 10SM CLR M11/M15 A3005 RMK AO2 SLP192 4/010 T11061150 11078 21111 410611172 56008",2023.02.02-00.55.01
"METAR","KMSP","2023-02-02T06:53:00Z",-11.1,-15,6,230,"CLR",10,"KMSP 020653Z 23006KT 10SM CLR M11/M15 A3003 RMK AO2 SLP188 T11111150",2023.02.02-01.55.01
"METAR","KMSP","2023-02-02T07:53:00Z",-11.7,-15.6,0,0,"SCT",10,"KMSP 020753Z 00000KT 10SM SCT100 M12/M16 A3002 RMK AO2 SLP183 T11171156",2023.02.02-02.55.01
"METAR","KMSP","2023-02-02T08:53:00Z",-11.7,-16.1,6,250,"SCT",10,"KMSP 020853Z 25006KT 10SM SCT140 M12/M16 A3001 RMK AO2 SLP179 T11171161 56012",2023.02.02-03.55.01
"METAR","KMSP","2023-02-02T09:53:00Z",-12.2,-16.1,5,230,"SCT",10,"KMSP 020953Z 23005KT 10SM SCT180 M12/M16 A3000 RMK AO2 SLP175 T11221161",2023.02.02-04.55.01
"METAR","KMSP","2023-02-02T10:53:00Z",-12.8,-16.7,4,260,"FEW",10,"KMSP 021053Z 26004KT 10SM FEW180 M13/M17 A3002 RMK AO2 SLP184 T11281167",2023.02.02-05.55.01
"METAR","KMSP","2023-02-02T11:53:00Z",-12.2,-16.1,5,270,"BKN",10,"KMSP 021153Z 27005KT 10SM FEW050 BKN130 M12/M16 A3005 RMK AO2 SLP194 4/010 T11221161 11106 21133 53013",2023.02.02-06.55.01
"METAR","KMSP","2023-02-02T12:53:00Z",-11.1,-15,4,310,"BKN",10,"KMSP 021253Z 31004KT 10SM BKN048 BKN060 BKN130 M11/M15 A3009 RMK AO2 SLP207 T11111150",2023.02.02-07.55.01
"METAR","KMSP","2023-02-02T13:53:00Z",-9.4,-13.3,13,330,"OVC",10,"KMSP 021353Z 33013KT 10SM FEW022 OVC110 M09/M13 A3014 RMK AO2 SLP223 T10941133",2023.02.02-08.55.01
"METAR","KMSP","2023-02-02T14:53:00Z",-10,-15.6,19,330,"BKN",10,"KMSP 021453Z 33019G26KT 10SM SCT027 BKN120 M10/M16 A3020 RMK AO2 PK WND 33026/1426 SLP244 T11001156 53049",2023.02.02-09.55.01
"METAR","KMSP","2023-02-02T15:53:00Z",-11.1,-18.3,16,330,"FEW",10,"KMSP 021553Z 33016G27KT 10SM FEW028 M11/M18 A3026 RMK AO2 PK WND 33028/1510 SLP263 T11111183",2023.02.02-10.55.01
"METAR","KMSP","2023-02-02T16:53:00Z",-11.1,-19.4,16,340,"CLR",10,"KMSP 021653Z 34016KT 10SM CLR M11/M19 A3030 RMK AO2 PK WND 33026/1602 SLP280 T11111194",2023.02.02-11.55.01
"METAR","KMSP","2023-02-02T17:53:00Z",-11.1,-20,16,330,"CLR",10,"KMSP 021753Z 33016G22KT 10SM CLR M11/M20 A3033 RMK AO2 SLP289 4/010 T11111200 11094 21122 51043",2023.02.02-12.55.01
"METAR","KMSP","2023-02-02T18:53:00Z",-12.2,-22.2,14,310,"CLR",10,"KMSP 021853Z 31014G23KT 10SM CLR M12/M22 A3035 RMK AO2 SLP297 T11221222",2023.02.02-13.55.01
"METAR","KMSP","2023-02-02T19:53:00Z",-12.2,-23.3,21,320,"CLR",10,"KMSP 021953Z 32021KT 10SM CLR M12/M23 A3037 RMK AO2 SLP303 T11221233",2023.02.02-14.55.01
"METAR","KMSP","2023-02-02T20:53:00Z",-13.3,-22.8,19,300,"CLR",10,"KMSP 022053Z 30019G30KT 10SM CLR M13/M23 A3039 RMK AO2 PK WND 30030/2051 SLP311 T11331228 51020",2023.02.02-15.55.01
"METAR","KMSP","2023-02-02T21:53:00Z",-14.4,-24.4,16,320,"CLR",10,"KMSP 022153Z 32016G25KT 10SM CLR M14/M24 A3042 RMK AO2 PK WND 31026/2055 SLP324 T11441244",2023.02.02-16.55.01
"METAR","KMSP","2023-02-02T22:53:00Z",-15.6,-25,14,330,"CLR",10,"KMSP 022253Z 33014G22KT 10SM CLR M16/M25 A3046 RMK AO2 SLP335 T11561250 $",2023.02.02-17.55.01
"METAR","KMSP","2023-02-02T23:53:00Z",-16.7,-25.6,15,310,"CLR",10,"KMSP 022353Z 31015KT 10SM CLR M17/M26 A3049 RMK AO2 SLP346 4/010 T11671256 11111 21167 51032 $",2023.02.02-18.55.01
"METAR","KMSP","2023-02-03T00:53:00Z",-17.8,-25.6,13,310,"CLR",10,"KMSP 030053Z 31013KT 10SM CLR M18/M26 A3051 RMK AO2 SLP354 T11781256 $",2023.02.02-19.55.01
"METAR","KMSP","2023-02-03T01:53:00Z",-18.3,-26.1,13,310,"CLR",10,"KMSP 030153Z 31013KT 10SM CLR M18/M26 A3053 RMK AO2 SLP361 T11831261 $",2023.02.02-20.55.01
"METAR","KMSP","2023-02-03T02:53:00Z",-20,-26.7,12,310,"CLR",10,"KMSP 030253Z 31012KT 10SM CLR M20/M27 A3056 RMK AO2 SLP371 T12001267 53024 $",2023.02.02-21.55.01
"METAR","KMSP","2023-02-03T03:53:00Z",-21.1,-27.2,13,320,"CLR",10,"KMSP 030353Z 32013KT 10SM CLR M21/M27 A3059 RMK AO2 SLP382 T12111272 $",2023.02.02-22.55.01
"METAR","KMSP","2023-02-03T04:53:00Z",-22.2,-28.3,12,320,"CLR",10,"KMSP 030453Z 32012KT 10SM CLR M22/M28 A3061 RMK AO2 SLP389 T12221283 $",2023.02.02-23.55.01
"METAR","KMSP","2023-02-03T05:53:00Z",-22.8,-28.9,11,320,"CLR",10,"KMSP 030553Z 32011KT 10SM CLR M23/M29 A3061 RMK AO2 SLP390 4/010 T12281289 11167 21228 410941228 51016 $",2023.02.03-00.55.01
"METAR","KMSP","2023-02-03T06:53:00Z",-23.3,-28.9,7,330,"CLR",10,"KMSP 030653Z 33007KT 10SM CLR M23/M29 A3061 RMK AO2 SLP391 T12331289 $",2023.02.03-01.55.01
"METAR","KMSP","2023-02-03T07:53:00Z",-23.3,-29.4,9,330,"CLR",10,"KMSP 030753Z 33009KT 10SM CLR M23/M29 A3062 RMK AO2 SLP394 T12331294 $",2023.02.03-02.55.01
"METAR","KMSP","2023-02-03T08:53:00Z",-23.9,-29.4,4,340,"CLR",10,"KMSP 030853Z 34004KT 10SM CLR M24/M29 A3061 RMK AO2 SLP392 T12391294 50001 $",2023.02.03-03.55.01
"METAR","KMSP","2023-02-03T09:53:00Z",-24.4,-30,5,330,"CLR",10,"KMSP 030953Z 33005KT 10SM CLR M24/M30 A3062 RMK AO2 SLP395 T12441300 $",2023.02.03-04.55.01
"METAR","KMSP","2023-02-03T10:53:00Z",-24.4,-29.4,7,320,"BKN",10,"KMSP 031053Z 32007KT 10SM SCT120 BKN140 M24/M29 A3064 RMK AO2 SLP401 T12441294 $",2023.02.03-05.55.01
"METAR","KMSP","2023-02-03T11:53:00Z",-23.9,-29.4,5,310,"SCT",10,"KMSP 031153Z 31005KT 10SM SCT120 M24/M29 A3064 RMK AO2 SLP403 4/010 T12391294 11228 21250 51009 $",2023.02.03-06.55.01
"METAR","KMSP","2023-02-03T12:53:00Z",-24.4,-30,3,0,"BKN",10,"KMSP 031253Z VRB03KT 10SM FEW120 BKN170 M24/M30 A3064 RMK AO2 SLP403 T12441300",2023.02.03-07.55.01
"METAR","KMSP","2023-02-03T13:53:00Z",-23.9,-29.4,3,40,"OVC",10,"KMSP 031353Z 04003KT 10SM FEW095 BKN120 OVC130 M24/M29 A3064 RMK AO2 SLP402 T12391294",2023.02.03-08.55.01
"METAR","KMSP","2023-02-03T14:53:00Z",-23.3,-28.9,4,90,"OVC",10,"KMSP 031453Z 09004KT 10SM OVC090 M23/M29 A3064 RMK AO2 SLP403 T12331289 57002",2023.02.03-09.55.01
"METAR","KMSP","2023-02-03T15:53:00Z",-22.8,-28.3,4,120,"OVC",10,"KMSP 031553Z 12004KT 10SM FEW095 BKN160 OVC250 M23/M28 A3064 RMK AO2 SLP405 T12281283",2023.02.03-10.55.01
"METAR","KMSP","2023-02-03T16:53:00Z",-21.7,-27.8,5,140,"OVC",10,"KMSP 031653Z 14005KT 10SM OVC080 M22/M28 A3063 RMK AO2 SLP400 T12171278",2023.02.03-11.55.01
"METAR","KMSP","2023-02-03T17:53:00Z",-20.6,-27.2,6,170,"OVC",10,"KMSP 031753Z 17006KT 10SM OVC070 M21/M27 A3061 RMK AO2 SLP393 4/010 T12061272 11206 21244 58009",2023.02.03-12.55.01
"METAR","KMSP","2023-02-03T18:53:00Z",-20,-27.8,5,140,"OVC",10,"KMSP 031853Z 14005KT 10SM OVC065 M20/M28 A3057 RMK AO2 SLP379 T12001278 $",2023.02.03-13.55.01
"METAR","KMSP","2023-02-03T19:53:00Z",-18.9,-27.2,9,170,"OVC",10,"KMSP 031953Z 17009KT 10SM OVC060 M19/M27 A3052 RMK AO2 PRESFR SLP362 T11891272 $",2023.02.03-14.55.01
"METAR","KMSP","2023-02-03T20:53:00Z",-18.3,-26.7,10,150,"OVC",10,"KMSP 032053Z 15010KT 10SM OVC050 M18/M27 A3048 RMK AO2 SLP348 T11831267 58042 $",2023.02.03-15.55.01
"METAR","KMSP","2023-02-03T21:53:00Z",-17.8,-25.6,10,160,"OVC",10,"KMSP 032153Z 16010KT 10SM OVC047 M18/M26 A3044 RMK AO2 PRESFR SLP334 T11781256 $",2023.02.03-16.55.01
"METAR","KMSP","2023-02-03T22:53:00Z",-17.2,-25,12,150,"OVC",10,"KMSP 032253Z 15012KT 10SM OVC043 M17/M25 A3040 RMK AO2 SLP322 T11721250 $",2023.02.03-17.55.01
"METAR","KMSP","2023-02-03T23:53:00Z",-16.7,-24.4,9,150,"OVC",10,"KMSP 032353Z 15009KT 10SM OVC040 M17/M24 A3037 RMK AO2 SLP309 4/010 T11671244 11167 21206 56037 $",2023.02.03-18.55.01
"METAR","KMSP","2023-02-04T00:53:00Z",-16.1,-23.3,11,170,"OVC",10,"KMSP 040053Z 17011KT 10SM OVC037 M16/M23 A3034 RMK AO2 SLP299 T11611233 $",2023.02.03-19.55.01
"METAR","KMSP","2023-02-04T01:53:00Z",-16.1,-23.3,9,170,"SCT",10,"KMSP 040153Z COR 17009KT 10SM FEW036 SCT044 SCT250 M16/M23 A3030 RMK AO2 SLP288 T11611233 $",2023.02.03-20.55.01
"METAR","KMSP","2023-02-04T02:53:00Z",-16.1,-23.3,10,170,"SCT",10,"KMSP 040253Z 17010KT 10SM FEW035 SCT040 SCT250 M16/M23 A3026 RMK AO2 SLP274 T11611233 58035 $",2023.02.03-21.55.01
"METAR","KMSP","2023-02-04T03:53:00Z",-16.1,-23.3,10,170,"SCT",10,"KMSP 040353Z 17010KT 10SM SCT039 SCT250 M16/M23 A3022 RMK AO2 SLP258 T11611233 $",2023.02.03-22.55.01
"METAR","KMSP","2023-02-04T04:53:00Z",-16.7,-22.8,8,150,"FEW",10,"KMSP 040453Z 15008KT 10SM FEW250 M17/M23 A3018 RMK AO2 SLP245 T11671228 $",2023.02.03-23.55.01
"METAR","KMSP","2023-02-04T05:53:00Z",-16.7,-21.7,8,150,"FEW",10,"KMSP 040553Z 15008KT 10SM FEW250 M17/M22 A3014 RMK AO2 SLP231 4/010 T11671217 11156 21167 411561250 56040 $",2023.02.04-00.55.01
"METAR","KMSP","2023-02-04T06:53:00Z",-15.6,-21.1,8,160,"FEW",10,"KMSP 040653Z 16008KT 10SM FEW250 M16/M21 A3009 RMK AO2 SLP212 T11561211 $",2023.02.04-01.55.01
"METAR","KMSP","2023-02-04T07:53:00Z",-15,-20,8,160,"CLR",10,"KMSP 040753Z 16008KT 10SM CLR M15/M20 A3005 RMK AO2 SLP198 T11501200 $",2023.02.04-02.55.02
"METAR","KMSP","2023-02-04T08:53:00Z",-15.6,-20,6,150,"CLR",10,"KMSP 040853Z 15006KT 10SM CLR M16/M20 A3001 RMK AO2 SLP184 T11561200 56044 $",2023.02.04-03.55.01
"METAR","KMSP","2023-02-04T09:53:00Z",-15,-20,6,130,"CLR",10,"KMSP 040953Z 13006KT 10SM CLR M15/M20 A2996 RMK AO2 SLP168 T11501200 $",2023.02.04-04.55.01
"METAR","KMSP","2023-02-04T10:53:00Z",-15.6,-20,5,140,"CLR",10,"KMSP 041053Z 14005KT 10SM CLR M16/M20 A2994 RMK AO2 SLP162 T11561200 $",2023.02.04-05.55.01
"METAR","KMSP","2023-02-04T11:53:00Z",-14.4,-18.9,6,150,"CLR",10,"KMSP 041153Z 15006KT 10SM CLR M14/M19 A2992 RMK AO2 SLP154 4/010 T11441189 11144 21167 56028 $",2023.02.04-06.55.01
"METAR","KMSP","2023-02-04T12:53:00Z",-13.3,-18.3,5,120,"FEW",10,"KMSP 041253Z 12005KT 10SM FEW200 M13/M18 A2990 RMK AO2 SLP147 T11331183 $",2023.02.04-07.55.01
"METAR","KMSP","2023-02-04T13:53:00Z",-13.3,-17.8,4,170,"BKN",10,"KMSP 041353Z 17004KT 10SM BKN250 M13/M18 A2989 RMK AO2 SLP142 T11331178 $",2023.02.04-08.55.01
"METAR","KMSP","2023-02-04T14:53:00Z",-12.2,-16.7,4,150,"BKN",10,"KMSP 041453Z 15004KT 10SM BKN250 M12/M17 A2988 RMK AO2 SLP138 T11221167 56013 $",2023.02.04-09.55.01
"METAR","KMSP","2023-02-04T15:53:00Z",-10,-15.6,5,160,"BKN",10,"KMSP 041553Z 16005KT 10SM BKN250 M10/M16 A2987 RMK AO2 SLP133 T11001156 $",2023.02.04-10.55.01
"METAR","KMSP","2023-02-04T16:53:00Z",-7.8,-13.9,4,150,"OVC",10,"KMSP 041653Z 15004KT 10SM OVC150 M08/M14 A2987 RMK AO2 SLP132 T10781139 $",2023.02.04-11.55.01
"METAR","KMSP","2023-02-04T17:53:00Z",-7.2,-13.3,3,130,"OVC",10,"KMSP 041753Z 13003KT 10SM OVC140 M07/M13 A2985 RMK AO2 SLP125 4/010 T10721133 11067 21144 58011 $",2023.02.04-12.55.01
"METAR","KMSP","2023-02-04T18:53:00Z",-5.6,-12.2,4,160,"BKN",10,"KMSP 041853Z 16004KT 10SM FEW140 BKN250 M06/M12 A2982 RMK AO2 SLP116 T10561122 $",2023.02.04-13.55.01
"METAR","KMSP","2023-02-04T19:53:00Z",-4.4,-11.1,6,120,"BKN",10,"KMSP 041953Z 12006KT 10SM FEW150 BKN250 M04/M11 A2979 RMK AO2 SLP105 T10441111 $",2023.02.04-14.55.01
"METAR","KMSP","2023-02-04T20:53:00Z",-2.8,-10,8,160,"BKN",10,"KMSP 042053Z 16008KT 10SM BKN140 BKN250 M03/M10 A2979 RMK AO2 SLP105 T10281100 56018 $",2023.02.04-15.55.01
"METAR","KMSP","2023-02-04T21:53:00Z",-2.8,-9.4,7,180,"OVC",10,"KMSP 042153Z 18007KT 10SM BKN140 OVC250 M03/M09 A2980 RMK AO2 SLP105 T10281094 $",2023.02.04-16.55.01
"METAR","KMSP","2023-02-04T22:53:00Z",-2.8,-8.3,3,140,"BKN",10,"KMSP 042253Z 14003KT 10SM BKN110 BKN250 M03/M08 A2978 RMK AO2 SLP101 T10281083 $",2023.02.04-17.55.01
"METAR","KMSP","2023-02-04T23:53:00Z",-3.3,-8.3,0,0,"BKN",10,"KMSP 042353Z 00000KT 10SM BKN120 BKN250 M03/M08 A2980 RMK AO2 SLP107 4/010 T10331083 11022 21072 53002 $",2023.02.04-18.55.01
"METAR","KMSP","2023-02-05T00:53:00Z",-3.3,-8.3,3,180,"BKN",10,"KMSP 050053Z 18003KT 10SM SCT150 BKN250 M03/M08 A2978 RMK AO2 SLP100 T10331083 $",2023.02.04-19.55.01
"METAR","KMSP","2023-02-05T01:53:00Z",-5,-8.9,0,0,"SCT",10,"KMSP 050153Z 00000KT 10SM SCT250 M05/M09 A2978 RMK AO2 SLP101 T10501089 $",2023.02.04-20.55.01
"METAR","KMSP","2023-02-05T02:53:00Z",-4.4,-7.8,4,240,"FEW",10,"KMSP 050253Z 24004KT 10SM FEW250 M04/M08 A2978 RMK AO2 SLP100 T10441078 56007 $",2023.02.04-21.55.01
"METAR","KMSP","2023-02-05T03:53:00Z",-4.4,-7.8,5,230,"FEW",10,"KMSP 050353Z 23005KT 10SM FEW250 M04/M08 A2978 RMK AO2 SLP099 T10441078 $",2023.02.04-22.55.01
"METAR","KMSP","2023-02-05T04:53:00Z",-4.4,-7.8,3,230,"CLR",9,"KMSP 050453Z 23003KT 9SM CLR M04/M08 A2978 RMK AO2 SLP098 T10441078 $",2023.02.04-23.55.01
"METAR","KMSP","2023-02-05T05:53:00Z",-6.7,-8.9,3,250,"CLR",7,"KMSP 050553Z 25003KT 7SM CLR M07/M09 A2978 RMK AO2 SLP099 4/010 T10671089 11028 21067 410221167 50000 $",2023.02.05-00.55.01
"METAR","KMSP","2023-02-05T06:53:00Z",-5.6,-7.8,4,270,"CLR",7,"KMSP 050653Z 27004KT 7SM CLR M06/M08 A2978 RMK AO2 SLP098 I1000 T10561078 $",2023.02.05-01.55.01
"METAR","KMSP","2023-02-05T07:53:00Z",-7.2,-8.9,0,0,"CLR",7,"KMSP 050753Z 00000KT 7SM CLR M07/M09 A2979 RMK AO2 SLP103 I1000 T10721089 $",2023.02.05-02.55.01
"METAR","KMSP","2023-02-05T08:53:00Z",-7.8,-9.4,3,250,"CLR",7,"KMSP 050853Z 25003KT 7SM CLR M08/M09 A2981 RMK AO2 SLP106 I1001 I3001 T10781094 53008 $",2023.02.05-03.55.01
"METAR","KMSP","2023-02-05T09:53:00Z",-7.2,-8.9,4,290,"CLR",7,"KMSP 050953Z 29004KT 7SM CLR M07/M09 A2983 RMK AO2 SLP112 T10721089 $",2023.02.05-04.55.01
"METAR","KMSP","2023-02-05T10:53:00Z",-7.8,-9.4,6,320,"CLR",7,"KMSP 051053Z 32006KT 7SM CLR M08/M09 A2985 RMK AO2 SLP122 T10781094 $",2023.02.05-05.55.01
"METAR","KMSP","2023-02-05T11:53:00Z",-6.1,-8.3,6,330,"OVC",10,"KMSP 051153Z 33006KT 10SM BKN080 OVC100 M06/M08 A2988 RMK AO2 SLP131 4/010 I6001 T10611083 11056 21100 53025 $",2023.02.05-06.55.01
"METAR","KMSP","2023-02-05T12:53:00Z",-5.6,-8.3,6,0,"OVC",10,"KMSP 051253Z VRB06KT 10SM OVC065 M06/M08 A2990 RMK AO2 SLP139 T10561083 $",2023.02.05-07.55.01
"METAR","KMSP","2023-02-05T13:53:00Z",-6.1,-9.4,7,330,"BKN",10,"KMSP 051353Z 33007G17KT 10SM SCT080 BKN120 M06/M09 A2994 RMK AO2 SLP154 T10611094 $",2023.02.05-08.55.01
"METAR","KMSP","2023-02-05T14:53:00Z",-5.6,-9.4,7,330,"SCT",10,"KMSP 051453Z 33007KT 10SM FEW070 SCT120 M06/M09 A2997 RMK AO2 SLP162 T10561094 53030 $",2023.02.05-09.55.01
"METAR","KMSP","2023-02-05T15:53:00Z",-4.4,-8.9,10,330,"SCT",10,"KMSP 051553Z 33010KT 10SM FEW070 SCT140 M04/M09 A3000 RMK AO2 SLP171 T10441089 $",2023.02.05-10.55.01
"METAR","KMSP","2023-02-05T16:53:00Z",-3.3,-8.9,6,360,"BKN",10,"KMSP 051653Z 36006G16KT 10SM FEW070 BKN140 M03/M09 A3002 RMK AO2 SLP180 T10331089 $",2023.02.05-11.55.01
"METAR","KMSP","2023-02-05T17:53:00Z",-2.2,-8.3,6,360,"SCT",10,"KMSP 051753Z 36006KT 10SM SCT130 M02/M08 A3003 RMK AO2 SLP182 4/010 T10221083 11022 21067 51019 $",2023.02.05-12.55.01
"METAR","KMSP","2023-02-05T18:53:00Z",-1.7,-8.3,5,350,"FEW",10,"KMSP 051853Z 35005KT 10SM FEW130 M02/M08 A3003 RMK AO2 SLP181 T10171083 $",2023.02.05-13.55.01
"METAR","KMSP","2023-02-05T19:53:00Z",-1.1,-8.3,5,320,"CLR",10,"KMSP 051953Z 32005KT 10SM CLR M01/M08 A3003 RMK AO2 SLP181 T10111083 $",2023.02.05-14.55.01
"METAR","KMSP","2023-02-05T20:53:00Z",-0.6,-8.3,5,0,"CLR",10,"KMSP 052053Z VRB05KT 10SM CLR M01/M08 A3004 RMK AO2 SLP184 T10061083 53002 $",2023.02.05-15.55.01
"METAR","KMSP","2023-02-05T21:53:00Z",-1.1,-8.3,5,320,"CLR",10,"KMSP 052153Z 32005KT 10SM CLR M01/M08 A3005 RMK AO2 SLP188 T10111083 $",2023.02.05-16.55.01
"METAR","KMSP","2023-02-05T22:53:00Z",-1.1,-8.9,0,0,"CLR",10,"KMSP 052253Z 00000KT 10SM CLR M01/M09 A3006 RMK AO2 SLP192 T10111089 $",2023.02.05-17.55.01
"METAR","KMSP","2023-02-05T23:53:00Z",-2.8,-8.9,6,250,"CLR",10,"KMSP 052353Z 25006KT 10SM CLR M03/M09 A3008 RMK AO2 SLP200 4/009 T10281089 11006 21028 53015 $",2023.02.05-18.55.01
"METAR","KMSP","2023-02-06T00:53:00Z",-3.9,-9.4,4,270,"CLR",10,"KMSP 060053Z 27004KT 10SM CLR M04/M09 A3010 RMK AO2 SLP205 T10391094 $",2023.02.05-19.55.01
"METAR","KMSP","2023-02-06T01:53:00Z",-4.4,-9.4,4,0,"CLR",10,"KMSP 060153Z VRB04KT 10SM CLR M04/M09 A3009 RMK AO2 SLP202 T10441094 $",2023.02.05-20.55.01
"METAR","KMSP","2023-02-06T02:53:00Z",-5.6,-10,5,240,"CLR",10,"KMSP 060253Z 24005KT 10SM CLR M06/M10 A3010 RMK AO2 SLP208 T10561100 51007 $",2023.02.05-21.55.01
"METAR","KMSP","2023-02-06T03:53:00Z",-6.7,-10,0,0,"CLR",9,"KMSP 060353Z 00000KT 9SM CLR M07/M10 A3011 RMK AO2 SLP212 T10671100 $",2023.02.05-22.55.01
"METAR","KMSP","2023-02-06T04:53:00Z",-6.7,-10,0,0,"CLR",8,"KMSP 060453Z 00000KT 8SM CLR M07/M10 A3012 RMK AO2 SLP214 T10671100 $",2023.02.05-23.55.01
"METAR","KMSP","2023-02-06T05:53:00Z",-8.3,-11.1,4,110,"CLR",7,"KMSP 060553Z 11004KT 7SM CLR M08/M11 A3012 RMK AO2 SLP211 4/009 T10831111 11028 21089 410061100 50004 $",2023.02.06-00.55.01
"METAR","KMSP","2023-02-06T06:53:00Z",-8.3,-11.1,5,120,"CLR",7,"KMSP 060653Z 12005KT 7SM CLR M08/M11 A3010 RMK AO2 SLP205 T10831111 $",2023.02.06-01.55.01
"METAR","KMSP","2023-02-06T07:53:00Z",-8.9,-10.6,4,150,"SCT",7,"KMSP 060753Z 15004KT 7SM SCT250 M09/M11 A3009 RMK AO2 SLP204 T10891106 $",2023.02.06-02.55.01
"METAR","KMSP","2023-02-06T08:53:00Z",-9.4,-11.1,0,0,"CLR",7,"KMSP 060853Z 00000KT 7SM CLR M09/M11 A3008 RMK AO2 SLP198 T10941111 56013 $",2023.02.06-03.55.01
"METAR","KMSP","2023-02-06T09:53:00Z",-9.4,-11.7,7,120,"FEW",7,"KMSP 060953Z 12007KT 7SM FEW250 M09/M12 A3004 RMK AO2 SLP187 T10941117 $",2023.02.06-04.55.01
"METAR","KMSP","2023-02-06T10:53:00Z",-7.8,-11.1,10,140,"SCT",8,"KMSP 061053Z 14010KT 8SM SCT250 M08/M11 A3002 RMK AO2 SLP179 T10781111 $",2023.02.06-05.55.01
"METAR","KMSP","2023-02-06T11:53:00Z",-8.3,-11.1,8,140,"SCT",8,"KMSP 061153Z 14008KT 8SM SCT250 M08/M11 A3000 RMK AO2 SLP175 4/009 T10831111 11078 21100 56024 $",2023.02.06-06.55.01
"METAR","KMSP","2023-02-06T12:53:00Z",-8.9,-11.7,9,130,"SCT",8,"KMSP 061253Z 13009KT 8SM SCT250 M09/M12 A2998 RMK AO2 SLP168 T10891117",2023.02.06-07.55.01
"METAR","KMSP","2023-02-06T13:53:00Z",-7.8,-10.6,7,120,"BKN",8,"KMSP 061353Z 12007KT 8SM SCT220 BKN250 M08/M11 A2997 RMK AO2 SLP162 T10781106",2023.02.06-08.55.01
"METAR","KMSP","2023-02-06T14:53:00Z",-6.1,-9.4,8,140,"BKN",8,"KMSP 061453Z 14008KT 8SM FEW220 BKN250 M06/M09 A2995 RMK AO2 SLP155 T10611094 58019",2023.02.06-09.55.01
"METAR","KMSP","2023-02-06T15:53:00Z",-3.9,-7.8,10,140,"BKN",10,"KMSP 061553Z 14010KT 10SM FEW180 BKN250 M04/M08 A2991 RMK AO2 SLP142 T10391078",2023.02.06-10.55.01
"METAR","KMSP","2023-02-06T16:53:00Z",-1.7,-6.1,13,150,"BKN",10,"KMSP 061653Z 15013G27KT 10SM SCT170 BKN250 M02/M06 A2989 RMK AO2 PK WND 15027/1644 SLP133 T10171061",2023.02.06-11.55.01
"METAR","KMSP","2023-02-06T18:36:00Z",1.7,-3.9,13,130,"SCT",10,"KMSP 061836Z 13013G26KT 10SM FEW170 SCT250 02/M04 A2979 RMK AO2 PK WND 14026/1832 PRESFR T00171039",2023.02.06-12.55.01
"METAR","KMSP","2023-02-06T18:53:00Z",1.1,-3.9,11,130,"BKN",10,"KMSP 061853Z 13011KT 10SM FEW170 BKN250 01/M04 A2977 RMK AO2 PK WND 14026/1832 PRESFR SLP093 T00111039",2023.02.06-13.55.01
"METAR","KMSP","2023-02-06T20:28:00Z",1.7,-3.3,14,110,"OVC",10,"KMSP 062028Z 11014KT 10SM OVC100 02/M03 A2969 RMK AO2 PRESFR T00171033",2023.02.06-14.55.01
"METAR","KMSP","2023-02-06T20:53:00Z",1.7,-3.3,13,110,"OVC",9,"KMSP 062053Z 11013KT 9SM -SN BKN070 OVC095 02/M03 A2966 RMK AO2 SLP057 SNB47 P0000 60000 T00171033 56061",2023.02.06-15.55.01
"METAR","KMSP","2023-02-06T22:16:00Z",1.7,-2.2,10,140,"OVC",9,"KMSP 062216Z 14010KT 9SM -SN OVC040 02/M02 A2964 RMK AO2 P0001 T00171022",2023.02.06-16.55.01
"METAR","KMSP","2023-02-06T23:46:00Z",1.7,-1.1,7,140,"OVC",5,"KMSP 062346Z 14007KT 5SM -RA BKN014 OVC020 02/M01 A2963 RMK AO2 RAB31 P0000 T00171011",2023.02.06-17.55.01
"METAR","KMSP","2023-02-07T00:32:00Z",1.1,-0.6,6,130,"OVC",2.5,"KMSP 070032Z 13006KT 2 1/2SM -SN BR BKN008 OVC013 01/M01 A2963 RMK AO2 TWR VIS 3 RAE2359UPB2359E02SNB03 P0001 T00111006",2023.02.06-18.55.01
"METAR","KMSP","2023-02-07T01:33:00Z",1.1,0,5,140,"OVC",3,"KMSP 070133Z 14005KT 3SM -SN BKN007 OVC014 01/00 A2961 RMK AO2 RAB13E28 P0003 T00110000",2023.02.06-19.55.01
"METAR","KMSP","2023-02-07T01:57:00Z",1.1,0,6,150,"OVC",4,"KMSP 070157Z 15006KT 4SM BR FEW007 OVC014 01/00 A2960 RMK AO2 SNE56 P0000 T00110000",2023.02.06-20.55.01
"METAR","KMSP","2023-02-07T03:44:00Z",1.7,0,6,250,"OVC",6,"KMSP 070344Z 25006KT 6SM -RA BR OVC007 02/00 A2959 RMK AO2 RAB0254UPB09E11SNE0254 P0001 T00170000",2023.02.06-21.55.01
"METAR","KMSP","2023-02-07T03:53:00Z",1.7,0,5,250,"OVC",6,"KMSP 070353Z 25005KT 6SM -RA BR OVC007 02/00 A2959 RMK AO2 RAB0254UPB09E11SNE0254 SLP031 P0001 T00170000",2023.02.06-22.55.01
"METAR","KMSP","2023-02-07T04:53:00Z",1.1,-0.6,10,280,"OVC",6,"KMSP 070453Z 28010KT 6SM BR OVC007 01/M01 A2960 RMK AO2 RAE19 SLP032 P0000 T00111006",2023.02.06-23.55.01
"METAR","KMSP","2023-02-07T06:20:00Z",1.1,-0.6,10,290,"OVC",7,"KMSP 070620Z 29010KT 7SM SCT010 OVC020 01/M01 A2962 RMK AO2 T00111006",2023.02.07-00.55.01
"METAR","KMSP","2023-02-07T07:40:00Z",1.1,-1.1,10,290,"OVC",10,"KMSP 070740Z 29010KT 10SM OVC014 01/M01 A2966 RMK AO2 T00111011",2023.02.07-01.55.01
"METAR","KMSP","2023-02-07T07:53:00Z",1.1,-1.1,10,290,"OVC",10,"KMSP 070753Z 29010KT 10SM OVC013 01/M01 A2967 RMK AO2 SLP055 T00111011",2023.02.07-02.55.01
"METAR","KMSP","2023-02-07T08:53:00Z",1.1,-1.1,14,300,"OVC",9,"KMSP 070853Z 30014G20KT 9SM OVC012 01/M01 A2971 RMK AO2 SLP068 T00111011 53030",2023.02.07-03.55.01
"METAR","KMSP","2023-02-07T09:53:00Z",1.1,-1.7,14,320,"OVC",10,"KMSP 070953Z 32014G21KT 10SM OVC015 01/M02 A2975 RMK AO2 SLP083 T00111017",2023.02.07-04.55.01
"METAR","KMSP","2023-02-07T10:53:00Z",1.1,-1.7,10,290,"OVC",10,"KMSP 071053Z 29010KT 10SM SCT016 OVC032 01/M02 A2978 RMK AO2 SLP093 T00111017",2023.02.07-05.55.01
"METAR","KMSP","2023-02-07T12:22:00Z",0.6,-2.2,14,280,"BKN",10,"KMSP 071222Z 28014KT 10SM BKN015 01/M02 A2983 RMK AO2 PK WND 27027/1212 T00061022",2023.02.07-06.55.01
"METAR","KMSP","2023-02-07T12:53:00Z",0,-3.3,11,300,"BKN",10,"KMSP 071253Z 30011KT 10SM BKN015 00/M03 A2985 RMK AO2 PK WND 27027/1212 SLP115 T00001033",2023.02.07-07.55.01
"METAR","KMSP","2023-02-07T14:51:00Z",-2,-5,11,280,"SCT",10,"KMSP 071451Z 28011KT 10SM SCT015 M02/M05 A2994 RMK AO2",2023.02.07-08.55.01
"METAR","KMSP","2023-02-07T15:00:00Z",-1.7,-5,13,280,"SCT",10,"KMSP 071500Z 28013KT 10SM SCT015 M02/M05 A2995 RMK AO2 T10171050",2023.02.07-09.55.01
"METAR","KMSP","2023-02-07T15:53:00Z",-1.7,-6.1,11,290,"FEW",10,"KMSP 071553Z 29011KT 10SM FEW010 FEW015 M02/M06 A2998 RMK AO2 SLP163 FU FEW010 FU PLUME NW-N T10171061",2023.02.07-10.55.01
"METAR","KMSP","2023-02-07T16:53:00Z",-0.6,-6.1,11,270,"CLR",10,"KMSP 071653Z 27011KT 10SM CLR M01/M06 A3001 RMK AO2 SLP172 T10061061",2023.02.07-11.55.01
"METAR","KMSP","2023-02-07T17:53:00Z",0.6,-6.1,11,290,"CLR",10,"KMSP 071753Z 29011KT 10SM CLR 01/M06 A3003 RMK AO2 SLP179 4/009 T00061061 10011 21022 51030",2023.02.07-12.55.01
"METAR","KMSP","2023-02-07T18:53:00Z",1.1,-6.1,9,280,"CLR",10,"KMSP 071853Z 28009KT 10SM CLR 01/M06 A3004 RMK AO2 SLP181 T00111061",2023.02.07-13.55.01
"METAR","KMSP","2023-02-07T19:53:00Z",1.7,-6.1,9,260,"FEW",10,"KMSP 071953Z 26009KT 10SM FEW250 02/M06 A3005 RMK AO2 SLP185 T00171061",2023.02.07-14.55.01
"METAR","KMSP","2023-02-07T20:53:00Z",1.7,-6.7,11,280,"FEW",10,"KMSP 072053Z 28011KT 10SM FEW250 02/M07 A3007 RMK AO2 SLP191 T00171067 53011",2023.02.07-15.55.01
"METAR","KMSP","2023-02-07T21:53:00Z",1.7,-6.1,7,260,"FEW",10,"KMSP 072153Z 26007KT 10SM FEW250 02/M06 A3010 RMK AO2 SLP202 T00171061",2023.02.07-16.55.01
"METAR","KMSP","2023-02-07T22:53:00Z",0.6,-6.1,8,230,"FEW",10,"KMSP 072253Z 23008KT 10SM FEW250 01/M06 A3011 RMK AO2 SLP204 T00061061",2023.02.07-17.55.01
"METAR","KMSP","2023-02-07T23:53:00Z",0,-5.6,5,230,"FEW",10,"KMSP 072353Z 23005KT 10SM FEW250 00/M06 A3011 RMK AO2 SLP205 4/009 T00001056 10017 20000 51014",2023.02.07-18.55.01
"METAR","KMSP","2023-02-08T00:53:00Z",-0.6,-5.6,3,250,"FEW",10,"KMSP 080053Z 25003KT 10SM FEW250 M01/M06 A3013 RMK AO2 SLP212 T10061056",2023.02.07-19.55.01
"METAR","KMSP","2023-02-08T01:53:00Z",-1.1,-6.1,0,0,"FEW",10,"KMSP 080153Z 00000KT 10SM FEW250 M01/M06 A3013 RMK AO2 SLP214 T10111061",2023.02.07-20.55.01
"METAR","KMSP","2023-02-08T02:53:00Z",-1.1,-5.6,5,200,"CLR",10,"KMSP 080253Z 20005KT 10SM CLR M01/M06 A3012 RMK AO2 SLP211 T10111056 50004",2023.02.07-21.55.01
"METAR","KMSP","2023-02-08T03:53:00Z",-1.1,-5.6,5,210,"FEW",10,"KMSP 080353Z 21005KT 10SM FEW060 M01/M06 A3013 RMK AO2 SLP214 T10111056",2023.02.07-22.55.01
"METAR","KMSP","2023-02-08T04:53:00Z",-2.2,-6.1,3,180,"FEW",10,"KMSP 080453Z 18003KT 10SM FEW060 M02/M06 A3013 RMK AO2 SLP215 T10221061",2023.02.07-23.55.01
"METAR","KMSP","2023-02-08T05:53:00Z",-1.7,-5.6,4,220,"CLR",10,"KMSP 080553Z 22004KT 10SM CLR M02/M06 A3014 RMK AO2 SLP217 4/009 T10171056 10000 21028 400171028 51006",2023.02.08-00.55.01
"METAR","KMSP","2023-02-08T06:53:00Z",-1.7,-5.6,0,0,"CLR",10,"KMSP 080653Z 00000KT 10SM CLR M02/M06 A3014 RMK AO2 SLP217 T10171056",2023.02.08-01.55.01
"METAR","KMSP","2023-02-08T07:53:00Z",-2.8,-6.1,4,190,"CLR",10,"KMSP 080753Z 19004KT 10SM CLR M03/M06 A3014 RMK AO2 SLP216 T10281061",2023.02.08-02.55.01
"METAR","KMSP","2023-02-08T08:53:00Z",-2.8,-6.1,4,190,"CLR",10,"KMSP 080853Z 19004KT 10SM CLR M03/M06 A3012 RMK AO2 SLP212 T10281061 58005",2023.02.08-03.55.01
"METAR","KMSP","2023-02-08T09:53:00Z",-2.8,-6.1,6,190,"CLR",10,"KMSP 080953Z 19006KT 10SM CLR M03/M06 A3012 RMK AO2 SLP210 T10281061",2023.02.08-04.55.01
"METAR","KMSP","2023-02-08T10:53:00Z",-2.8,-6.1,5,190,"CLR",10,"KMSP 081053Z 19005KT 10SM CLR M03/M06 A3012 RMK AO2 SLP211 4/009 T10281061",2023.02.08-05.55.01
"METAR","KMSP","2023-02-08T11:53:00Z",-4.4,-7.2,3,130,"CLR",10,"KMSP 081153Z 13003KT 10SM CLR M04/M07 A3011 RMK AO2 SLP208 4/009 T10441072 11017 21044 58004",2023.02.08-06.55.01
"METAR","KMSP","2023-02-08T12:53:00Z",-5.6,-7.8,4,140,"CLR",10,"KMSP 081253Z 14004KT 10SM CLR M06/M08 A3011 RMK AO2 SLP208 T10561078",2023.02.08-07.55.01
"METAR","KMSP","2023-02-08T13:53:00Z",-5.6,-6.7,4,130,"CLR",10,"KMSP 081353Z 13004KT 10SM CLR M06/M07 A3011 RMK AO2 SLP208 T10561067",2023.02.08-08.55.01
"METAR","KMSP","2023-02-08T14:53:00Z",-3.9,-6.1,5,140,"CLR",10,"KMSP 081453Z 14005KT 10SM CLR M04/M06 A3011 RMK AO2 SLP207 T10391061 56001",2023.02.08-09.55.01
"METAR","KMSP","2023-02-08T15:53:00Z",0,-3.3,0,0,"CLR",10,"KMSP 081553Z 00000KT 10SM CLR 00/M03 A3009 RMK AO2 SLP201 T00001033",2023.02.08-10.55.01
"METAR","KMSP","2023-02-08T16:53:00Z",1.7,-3.3,4,140,"CLR",10,"KMSP 081653Z 14004KT 10SM CLR 02/M03 A3008 RMK AO2 SLP197 T00171033",2023.02.08-11.55.01
"METAR","KMSP","2023-02-08T17:53:00Z",3.9,-2.8,4,0,"CLR",10,"KMSP 081753Z VRB04KT 10SM CLR 04/M03 A3006 RMK AO2 SLP188 4/008 T00391028 10039 21061 58016",2023.02.08-12.55.01
"METAR","KMSP","2023-02-08T18:53:00Z",4.4,-2.2,6,160,"CLR",10,"KMSP 081853Z 16006KT 10SM CLR 04/M02 A3004 RMK AO2 SLP181 T00441022",2023.02.08-13.55.01
"METAR","KMSP","2023-02-08T19:53:00Z",6.1,-2.2,7,180,"CLR",10,"KMSP 081953Z 18007G22KT 10SM CLR 06/M02 A3004 RMK AO2 SLP182 T00611022",2023.02.08-14.55.01
"METAR","KMSP","2023-02-08T20:53:00Z",7.2,-2.8,8,200,"FEW",10,"KMSP 082053Z 20008KT 10SM FEW250 07/M03 A3002 RMK AO2 SLP173 T00721028 58014",2023.02.08-15.55.01
"METAR","KMSP","2023-02-08T21:53:00Z",6.7,-2.2,7,200,"FEW",10,"KMSP 082153Z 20007KT 10SM FEW250 07/M02 A3001 RMK AO2 SLP170 T00671022",2023.02.08-16.55.01
"METAR","KMSP","2023-02-08T22:53:00Z",6.1,-2.8,10,180,"FEW",10,"KMSP 082253Z 18010KT 10SM FEW250 06/M03 A3000 RMK AO2 SLP168 T00611028",2023.02.08-17.55.01
"METAR","KMSP","2023-02-08T23:53:00Z",3.3,-2.2,10,170,"FEW",10,"KMSP 082353Z 17010KT 10SM FEW250 03/M02 A2998 RMK AO2 SLP163 4/008 T00331022 10072 20033 58012",2023.02.08-18.55.01
"METAR","KMSP","2023-02-09T00:53:00Z",2.8,-2.2,3,120,"FEW",10,"KMSP 090053Z 12003KT 10SM FEW250 03/M02 A2998 RMK AO2 SLP164 T00281022",2023.02.08-19.55.01
"METAR","KMSP","2023-02-09T01:53:00Z",1.1,-2.8,8,150,"FEW",10,"KMSP 090153Z 15008KT 10SM FEW250 01/M03 A2996 RMK AO2 SLP156 T00111028",2023.02.08-20.55.01
"METAR","KMSP","2023-02-09T02:53:00Z",0,-3.3,8,150,"CLR",10,"KMSP 090253Z 15008KT 10SM CLR 00/M03 A2994 RMK AO2 SLP151 T00001033 58012",2023.02.08-21.55.01
"METAR","KMSP","2023-02-09T03:53:00Z",-0.6,-3.9,4,140,"FEW",10,"KMSP 090353Z 14004KT 10SM FEW250 M01/M04 A2993 RMK AO2 SLP145 T10061039",2023.02.08-22.55.01
"METAR","KMSP","2023-02-09T04:53:00Z",-0.6,-3.9,5,150,"FEW",10,"KMSP 090453Z 15005KT 10SM FEW250 M01/M04 A2992 RMK AO2 SLP142 T10061039",2023.02.08-23.55.01
"METAR","KMSP","2023-02-09T05:53:00Z",-1.1,-4.4,8,130,"FEW",10,"KMSP 090553Z 13008KT 10SM FEW250 M01/M04 A2992 RMK AO2 SLP139 4/008 T10111044 10039 21017 400721061 56009",2023.02.09-00.55.01
"METAR","KMSP","2023-02-09T06:53:00Z",-1.7,-4.4,5,150,"FEW",10,"KMSP 090653Z 15005KT 10SM FEW100 FEW200 M02/M04 A2992 RMK AO2 SLP141 T10171044",2023.02.09-01.55.01
"METAR","KMSP","2023-02-09T07:53:00Z",-1.7,-4.4,0,0,"SCT",10,"KMSP 090753Z 00000KT 10SM SCT160 SCT200 M02/M04 A2992 RMK AO2 SLP138 T10171044",2023.02.09-02.55.01
"METAR","KMSP","2023-02-09T08:53:00Z",-2.8,-5,0,0,"BKN",10,"KMSP 090853Z 00000KT 10SM FEW160 BKN230 M03/M05 A2989 RMK AO2 SLP128 T10281050 58010",2023.02.09-03.55.01
"METAR","KMSP","2023-02-09T09:53:00Z",-2.8,-4.4,3,70,"BKN",10,"KMSP 090953Z 07003KT 10SM BKN180 M03/M04 A2987 RMK AO2 SLP123 T10281044",2023.02.09-04.55.01
"METAR","KMSP","2023-02-09T10:53:00Z",-2.8,-5,3,0,"BKN",10,"KMSP 091053Z VRB03KT 10SM BKN180 M03/M05 A2984 RMK AO2 SLP113 T10281050",2023.02.09-05.55.01
"METAR","KMSP","2023-02-09T11:53:00Z",-1.7,-3.9,0,0,"OVC",10,"KMSP 091153Z 00000KT 10SM OVC170 M02/M04 A2986 RMK AO2 SLP120 4/008 T10171039 11011 21039 55009",2023.02.09-06.55.01
"METAR","KMSP","2023-02-09T12:53:00Z",-1.7,-3.9,6,330,"OVC",10,"KMSP 091253Z 33006KT 10SM OVC170 M02/M04 A2984 RMK AO2 SLP113 T10171039",2023.02.09-07.55.01
"METAR","KMSP","2023-02-09T13:53:00Z",-1.1,-3.9,5,360,"BKN",7,"KMSP 091353Z 36005KT 7SM BKN170 BKN250 M01/M04 A2984 RMK AO2 SLP114 T10111039",2023.02.09-08.55.01
"METAR","KMSP","2023-02-09T15:37:00Z",-2.2,-3.9,9,350,"OVC",5,"KMSP 091537Z 35009KT 5SM BR OVC007 M02/M04 A2985 RMK AO2 T10221039",2023.02.09-09.55.01
"METAR","KMSP","2023-02-09T15:53:00Z",-2.2,-3.9,13,360,"OVC",4,"KMSP 091553Z 36013KT 4SM BR OVC006 M02/M04 A2986 RMK AO2 SLP123 T10221039",2023.02.09-10.55.01
"METAR","KMSP","2023-02-09T17:50:00Z",-1,-3,9,330,"OVC",6,"KMSP 091750Z 33009G19KT 6SM BR OVC011 M01/M03 A2990 RMK AO2",2023.02.09-11.55.01
"METAR","KMSP","2023-02-09T18:20:00Z",0.6,-2.8,10,340,"OVC",8,"KMSP 091820Z 34010KT 8SM SCT012 SCT150 OVC250 01/M03 A2990 RMK AO2 T00061028",2023.02.09-12.55.01
"METAR","KMSP","2023-02-09T18:53:00Z",2.2,-1.7,8,330,"OVC",10,"KMSP 091853Z 33008KT 10SM FEW018 FEW150 OVC250 02/M02 A2991 RMK AO2 SLP137 T00221017",2023.02.09-13.55.01
"METAR","KMSP","2023-02-09T20:02:00Z",2.8,-2.2,17,340,"OVC",10,"KMSP 092002Z 34017G29KT 10SM BKN027 BKN060 BKN085 OVC250 03/M02 A2992 RMK AO2 PK WND 32029/1956 T00281022",2023.02.09-14.55.01
"METAR","KMSP","2023-02-09T21:49:00Z",3,-3,17,340,"OVC",10,"KMSP 092149Z 34017G26KT 10SM SCT031 OVC200 03/M03 A3000 RMK AO2 PK WND 36026/2143",2023.02.09-15.55.01
"METAR","KMSP","2023-02-09T21:53:00Z",2.8,-3.3,19,340,"OVC",10,"KMSP 092153Z 34019G25KT 10SM FEW031 OVC200 03/M03 A3000 RMK AO2 PK WND 36026/2143 SLP169 T00281033",2023.02.09-16.55.01
"METAR","KMSP","2023-02-09T22:53:00Z",2.2,-4.4,15,340,"OVC",10,"KMSP 092253Z 34015G23KT 10SM FEW031 OVC200 02/M04 A3004 RMK AO2 PK WND 32028/2220 SLP183 T00221044",2023.02.09-17.55.01
"METAR","KMSP","2023-02-09T23:53:00Z",1.7,-5,11,330,"BKN",10,"KMSP 092353Z 33011KT 10SM BKN200 02/M05 A3009 RMK AO2 PK WND 33027/2307 SLP198 4/008 T00171050 10033 21006 53029",2023.02.09-18.55.01
"METAR","KMSP","2023-02-10T00:53:00Z",0.6,-8.3,17,330,"BKN",10,"KMSP 100053Z 33017G27KT 10SM BKN200 01/M08 A3012 RMK AO2 PK WND 31031/0027 SLP210 T00061083",2023.02.09-19.55.01
"METAR","KMSP","2023-02-10T01:53:00Z",-1.7,-12.8,14,330,"BKN",10,"KMSP 100153Z 33014G28KT 10SM BKN200 M02/M13 A3016 RMK AO2 PK WND 36028/0146 SLP225 T10171128",2023.02.09-20.55.02
"METAR","KMSP","2023-02-10T02:53:00Z",-2.8,-13.3,17,330,"BKN",10,"KMSP 100253Z 33017G26KT 10SM BKN200 M03/M13 A3020 RMK AO2 PK WND 32031/0155 SLP239 T10281133 53039",2023.02.09-21.55.01
"METAR","KMSP","2023-02-10T03:53:00Z",-4.4,-14.4,14,330,"BKN",10,"KMSP 100353Z 33014G23KT 10SM BKN200 M04/M14 A3023 RMK AO2 SLP251 T10441144",2023.02.09-22.55.01
"METAR","KMSP","2023-02-10T04:53:00Z",-6.1,-15,12,330,"SCT",10,"KMSP 100453Z 33012KT 10SM SCT200 M06/M15 A3026 RMK AO2 PK WND 32027/0427 SLP260 T10611150",2023.02.09-23.55.01
"METAR","KMSP","2023-02-10T05:53:00Z",-7.2,-15.6,15,330,"SCT",10,"KMSP 100553Z 33015KT 10SM SCT200 M07/M16 A3028 RMK AO2 SLP267 4/008 T10721156 10017 21072 400331072 51025",2023.02.10-00.55.01
"METAR","KMSP","2023-02-10T06:53:00Z",-8.3,-16.1,14,330,"FEW",10,"KMSP 100653Z 33014G21KT 10SM FEW200 M08/M16 A3030 RMK AO2 SLP272 T10831161",2023.02.10-01.55.01
"METAR","KMSP","2023-02-10T07:53:00Z",-9.4,-16.1,11,320,"CLR",10,"KMSP 100753Z 32011KT 10SM CLR M09/M16 A3032 RMK AO2 SLP279 T10941161",2023.02.10-02.55.01
"METAR","KMSP","2023-02-10T08:53:00Z",-10,-16.7,9,320,"CLR",10,"KMSP 100853Z 32009KT 10SM CLR M10/M17 A3033 RMK AO2 SLP283 T11001167 51016",2023.02.10-03.55.01
"METAR","KMSP","2023-02-10T09:53:00Z",-11.1,-17.2,9,320,"CLR",10,"KMSP 100953Z 32009KT 10SM CLR M11/M17 A3033 RMK AO2 SLP284 T11111172",2023.02.10-04.55.01
"METAR","KMSP","2023-02-10T10:53:00Z",-12.2,-17.8,8,310,"CLR",10,"KMSP 101053Z 31008KT 10SM CLR M12/M18 A3034 RMK AO2 SLP287 T11221178",2023.02.10-05.55.01
"METAR","KMSP","2023-02-10T11:53:00Z",-12.2,-17.8,9,320,"FEW",10,"KMSP 101153Z 32009KT 10SM FEW200 M12/M18 A3036 RMK AO2 SLP296 4/008 T11221178 11072 21128 53013",2023.02.10-06.55.01
"METAR","KMSP","2023-02-10T12:53:00Z",-12.8,-18.3,9,310,"CLR",10,"KMSP 101253Z 31009KT 10SM CLR M13/M18 A3038 RMK AO2 SLP303 T11281183",2023.02.10-07.55.01
"METAR","KMSP","2023-02-10T13:53:00Z",-12.8,-17.8,5,300,"FEW",10,"KMSP 101353Z 30005KT 10SM FEW180 M13/M18 A3039 RMK AO2 SLP308 T11281178",2023.02.10-08.55.01
"METAR","KMSP","2023-02-10T14:53:00Z",-10.6,-17.8,0,0,"FEW",10,"KMSP 101453Z 00000KT 10SM FEW200 M11/M18 A3040 RMK AO2 SLP309 T11061178 51010",2023.02.10-09.55.01
"METAR","KMSP","2023-02-10T15:53:00Z",-8.9,-16.1,0,0,"CLR",10,"KMSP 101553Z 00000KT 10SM CLR M09/M16 A3040 RMK AO2 SLP309 T10891161",2023.02.10-10.55.01
"METAR","KMSP","2023-02-10T16:53:00Z",-7.8,-16.1,3,180,"CLR",10,"KMSP 101653Z 18003KT 10SM CLR M08/M16 A3040 RMK AO2 SLP310 T10781161",2023.02.10-11.55.01
"METAR","KMSP","2023-02-10T17:53:00Z",-6.7,-15.6,4,190,"CLR",10,"KMSP 101753Z 19004KT 10SM CLR M07/M16 A3038 RMK AO2 SLP302 4/008 T10671156 11061 21133 58006",2023.02.10-12.55.01
"METAR","KMSP","2023-02-10T18:53:00Z",-4.4,-13.3,6,250,"CLR",10,"KMSP 101853Z 25006KT 10SM CLR M04/M13 A3036 RMK AO2 SLP296 T10441133",2023.02.10-13.55.01
"METAR","KMSP","2023-02-10T19:53:00Z",-3.3,-12.2,6,220,"CLR",10,"KMSP 101953Z 22006KT 10SM CLR M03/M12 A3034 RMK AO2 SLP289 T10331122",2023.02.10-14.55.01
"METAR","KMSP","2023-02-10T20:53:00Z",-2.2,-10,9,230,"CLR",10,"KMSP 102053Z 23009KT 10SM CLR M02/M10 A3032 RMK AO2 SLP284 T10221100 58017",2023.02.10-15.55.01
"METAR","KMSP","2023-02-10T21:53:00Z",-1.7,-9.4,8,250,"CLR",10,"KMSP 102153Z 25008KT 10SM CLR M02/M09 A3032 RMK AO2 SLP281 T10171094",2023.02.10-16.55.01
"METAR","KMSP","2023-02-10T22:53:00Z",-2.2,-10,8,220,"FEW",10,"KMSP 102253Z 22008KT 10SM FEW250 M02/M10 A3032 RMK AO2 SLP283 T10221100",2023.02.10-17.55.01
"METAR","KMSP","2023-02-10T23:53:00Z",-2.8,-10,6,190,"FEW",10,"KMSP 102353Z 19006KT 10SM FEW250 M03/M10 A3031 RMK AO2 SLP281 4/008 T10281100 11017 21067 58003",2023.02.10-18.55.01
"METAR","KMSP","2023-02-11T00:53:00Z",-3.3,-9.4,6,180,"CLR",10,"KMSP 110053Z 18006KT 10SM CLR M03/M09 A3030 RMK AO2 SLP277 T10331094",2023.02.10-19.55.01
"METAR","KMSP","2023-02-11T01:53:00Z",-4.4,-9.4,6,170,"CLR",10,"KMSP 110153Z 17006KT 10SM CLR M04/M09 A3027 RMK AO2 SLP267 T10441094",2023.02.10-20.55.01
"METAR","KMSP","2023-02-11T02:53:00Z",-5.6,-10,4,160,"CLR",10,"KMSP 110253Z 16004KT 10SM CLR M06/M10 A3025 RMK AO2 SLP258 T10561100 58023",2023.02.10-21.55.01
"METAR","KMSP","2023-02-11T03:53:00Z",-3.3,-9.4,7,200,"CLR",10,"KMSP 110353Z 20007KT 10SM CLR M03/M09 A3023 RMK AO2 SLP251 T10331094",2023.02.10-22.55.01
"METAR","KMSP","2023-02-11T04:53:00Z",-3.3,-8.9,8,200,"CLR",10,"KMSP 110453Z 20008KT 10SM CLR M03/M09 A3021 RMK AO2 SLP243 T10331089",2023.02.10-23.55.01
"METAR","KMSP","2023-02-11T05:53:00Z",-2.2,-8.3,8,200,"CLR",10,"KMSP 110553Z 20008KT 10SM CLR M02/M08 A3018 RMK AO2 SLP234 4/008 T10221083 11022 21061 410171133 58021",2023.02.11-00.55.01
"METAR","KMSP","2023-02-11T06:53:00Z",-1.7,-8.3,7,220,"CLR",10,"KMSP 110653Z 22007KT 10SM CLR M02/M08 A3018 RMK AO2 SLP231 T10171083",2023.02.11-01.55.01
"METAR","KMSP","2023-02-11T07:53:00Z",-1.1,-8.3,12,220,"CLR",10,"KMSP 110753Z 22012G19KT 10SM CLR M01/M08 A3016 RMK AO2 SLP224 T10111083",2023.02.11-02.55.01
"METAR","KMSP","2023-02-11T08:53:00Z",-1.1,-8.3,12,220,"CLR",10,"KMSP 110853Z 22012KT 10SM CLR M01/M08 A3015 RMK AO2 SLP220 T10111083 58012",2023.02.11-03.55.02
"METAR","KMSP","2023-02-11T09:53:00Z",-1.7,-8.3,10,220,"CLR",10,"KMSP 110953Z 22010G17KT 10SM CLR M02/M08 A3013 RMK AO2 SLP216 T10171083",2023.02.11-04.55.01
"METAR","KMSP","2023-02-11T10:53:00Z",-1.7,-8.3,10,220,"CLR",10,"KMSP 111053Z 22010KT 10SM CLR M02/M08 A3013 RMK AO2 SLP214 T10171083",2023.02.11-05.55.01
"METAR","KMSP","2023-02-11T11:53:00Z",-2.2,-8.3,10,220,"CLR",10,"KMSP 111153Z 22010KT 10SM CLR M02/M08 A3012 RMK AO2 SLP211 4/008 T10221083 11011 21022 56009",2023.02.11-06.55.01
"METAR","KMSP","2023-02-11T12:53:00Z",-2.2,-8.3,9,220,"CLR",10,"KMSP 111253Z 22009KT 10SM CLR M02/M08 A3012 RMK AO2 SLP211 T10221083",2023.02.11-07.55.01
"METAR","KMSP","2023-02-11T13:53:00Z",-1.7,-8.3,11,230,"FEW",10,"KMSP 111353Z 23011G17KT 10SM FEW250 M02/M08 A3012 RMK AO2 SLP211 T10171083",2023.02.11-08.55.01
"METAR","KMSP","2023-02-11T14:53:00Z",-1.1,-7.8,11,230,"FEW",10,"KMSP 111453Z 23011G23KT 10SM FEW250 M01/M08 A3011 RMK AO2 PK WND 22026/1424 SLP207 T10111078 58004",2023.02.11-09.55.01
"METAR","KMSP","2023-02-11T15:53:00Z",0,-7.8,11,240,"FEW",10,"KMSP 111553Z 24011G25KT 10SM FEW250 00/M08 A3011 RMK AO2 PK WND 25029/1515 SLP208 T00001078",2023.02.11-10.55.01
"METAR","KMSP","2023-02-11T16:53:00Z",0.6,-7.2,11,230,"FEW",10,"KMSP 111653Z 23011G19KT 10SM FEW250 01/M07 A3012 RMK AO2 PK WND 25030/1556 SLP210 T00061072",2023.02.11-11.55.01
"METAR","KMSP","2023-02-11T17:53:00Z",1.7,-6.7,8,240,"FEW",10,"KMSP 111753Z 24008KT 10SM FEW250 02/M07 A3011 RMK AO2 SLP208 4/008 T00171067 10022 21022 50002",2023.02.11-12.55.01
"METAR","KMSP","2023-02-11T18:53:00Z",2.8,-5.6,8,210,"FEW",10,"KMSP 111853Z 21008KT 10SM FEW250 03/M06 A3009 RMK AO2 SLP197 T00281056",2023.02.11-13.55.01
"METAR","KMSP","2023-02-11T19:53:00Z",3.3,-5.6,9,210,"FEW",10,"KMSP 111953Z 21009KT 10SM FEW250 03/M06 A3006 RMK AO2 SLP190 T00331056",2023.02.11-14.55.02
"METAR","KMSP","2023-02-11T20:53:00Z",3.3,-5.6,7,210,"FEW",10,"KMSP 112053Z 21007KT 10SM FEW250 03/M06 A3006 RMK AO2 SLP189 T00331056 56017",2023.02.11-15.55.01
"METAR","KMSP","2023-02-11T21:53:00Z",3.9,-5,8,210,"FEW",10,"KMSP 112153Z 21008KT 10SM FEW250 04/M05 A3005 RMK AO2 SLP186 T00391050",2023.02.11-16.55.01
"METAR","KMSP","2023-02-11T22:53:00Z",3.3,-4.4,6,240,"FEW",10,"KMSP 112253Z 24006KT 10SM FEW250 03/M04 A3006 RMK AO2 SLP189 T00331044",2023.02.11-17.55.01
"METAR","KMSP","2023-02-11T23:53:00Z",2.8,-4.4,5,220,"SCT",10,"KMSP 112353Z 22005KT 10SM SCT250 03/M04 A3006 RMK AO2 SLP189 4/007 T00281044 10039 20017 53001",2023.02.11-18.55.01
"METAR","KMSP","2023-02-12T00:53:00Z",1.7,-4.4,6,190,"FEW",10,"KMSP 120053Z 19006KT 10SM FEW250 02/M04 A3006 RMK AO2 SLP188 T00171044",2023.02.11-19.55.01
"METAR","KMSP","2023-02-12T01:53:00Z",0.6,-4.4,4,190,"FEW",10,"KMSP 120153Z 19004KT 10SM FEW250 01/M04 A3005 RMK AO2 SLP186 T00061044",2023.02.11-20.55.01
"METAR","KMSP","2023-02-12T02:53:00Z",0.6,-5,3,200,"CLR",10,"KMSP 120253Z 20003KT 10SM CLR 01/M05 A3004 RMK AO2 SLP182 T00061050 58008",2023.02.11-21.55.01
"METAR","KMSP","2023-02-12T03:53:00Z",0,-5,0,0,"CLR",10,"KMSP 120353Z 00000KT 10SM CLR 00/M05 A3003 RMK AO2 SLP178 T00001050",2023.02.11-22.55.01
"METAR","KMSP","2023-02-12T04:53:00Z",-0.6,-5,4,200,"CLR",10,"KMSP 120453Z 20004KT 10SM CLR M01/M05 A3001 RMK AO2 SLP172 T10061050",2023.02.11-23.55.01
"METAR","KMSP","2023-02-12T05:53:00Z",-0.6,-5,5,190,"CLR",10,"KMSP 120553Z 19005KT 10SM CLR M01/M05 A2999 RMK AO2 SLP165 4/007 T10061050 10028 21006 400391022 58016",2023.02.12-00.55.01
"METAR","KMSP","2023-02-12T06:53:00Z",-2.8,-5.6,5,140,"CLR",10,"KMSP 120653Z 14005KT 10SM CLR M03/M06 A2997 RMK AO2 SLP159 T10281056",2023.02.12-01.55.01
"METAR","KMSP","2023-02-12T07:53:00Z",-2.8,-6.1,0,0,"CLR",10,"KMSP 120753Z 00000KT 10SM CLR M03/M06 A2997 RMK AO2 SLP158 T10281061",2023.02.12-02.55.01
"METAR","KMSP","2023-02-12T08:53:00Z",-3.3,-6.1,3,130,"CLR",10,"KMSP 120853Z 13003KT 10SM CLR M03/M06 A2995 RMK AO2 SLP151 T10331061 58014",2023.02.12-03.55.01
"METAR","KMSP","2023-02-12T09:53:00Z",-5.6,-7.8,0,0,"CLR",10,"KMSP 120953Z 00000KT 10SM CLR M06/M08 A2995 RMK AO2 SLP151 T10561078",2023.02.12-04.55.01
"METAR","KMSP","2023-02-12T10:53:00Z",-4.4,-6.1,0,0,"CLR",10,"KMSP 121053Z 00000KT 10SM CLR M04/M06 A2995 RMK AO2 SLP152 T10441061",2023.02.12-05.55.01
"METAR","KMSP","2023-02-12T11:53:00Z",-5.6,-7.2,3,170,"CLR",9,"KMSP 121153Z 17003KT 9SM CLR M06/M07 A2994 RMK AO2 SLP149 4/007 T10561072 11006 21067 58003",2023.02.12-06.55.01
"METAR","KMSP","2023-02-12T12:53:00Z",-6.1,-7.8,0,0,"CLR",9,"KMSP 121253Z 00000KT 9SM CLR M06/M08 A2994 RMK AO2 SLP149 T10611078",2023.02.12-07.55.01
"METAR","KMSP","2023-02-12T13:53:00Z",-5,-6.1,0,0,"CLR",7,"KMSP 121353Z 00000KT 7SM CLR M05/M06 A2993 RMK AO2 SLP146 I1000 T10501061",2023.02.12-08.55.01
"METAR","KMSP","2023-02-12T14:53:00Z",-3.9,-6.7,5,340,"FEW",9,"KMSP 121453Z 34005KT 9SM FEW200 M04/M07 A2993 RMK AO2 SLP147 I3000 T10391067 55002",2023.02.12-09.55.01
"METAR","KMSP","2023-02-12T15:53:00Z",-1.7,-3.9,0,0,"FEW",10,"KMSP 121553Z 00000KT 10SM FEW200 M02/M04 A2993 RMK AO2 SLP145 T10171039",2023.02.12-10.55.01
"METAR","KMSP","2023-02-12T16:53:00Z",1.7,-3.9,3,0,"BKN",10,"KMSP 121653Z VRB03KT 10SM BKN200 02/M04 A2993 RMK AO2 SLP145 T00171039",2023.02.12-11.55.01
"METAR","KMSP","2023-02-12T17:53:00Z",2.2,-3.9,0,0,"BKN",10,"KMSP 121753Z 00000KT 10SM BKN200 02/M04 A2990 RMK AO2 SLP135 4/007 I6000 T00221039 10022 21067 58010",2023.02.12-12.55.01
"METAR","KMSP","2023-02-12T18:53:00Z",2.8,-3.9,0,0,"BKN",10,"KMSP 121853Z 00000KT 10SM BKN200 03/M04 A2988 RMK AO2 SLP129 T00281039",2023.02.12-13.55.01
"METAR","KMSP","2023-02-12T19:53:00Z",4.4,-3.3,5,180,"BKN",10,"KMSP 121953Z 18005KT 10SM BKN200 04/M03 A2986 RMK AO2 SLP119 T00441033",2023.02.12-14.55.01
"METAR","KMSP","2023-02-12T20:53:00Z",5.6,-3.3,5,250,"BKN",10,"KMSP 122053Z 25005KT 10SM BKN200 06/M03 A2985 RMK AO2 SLP117 T00561033 56017",2023.02.12-15.55.01
"METAR","KMSP","2023-02-12T21:53:00Z",6.1,-3.3,6,240,"SCT",10,"KMSP 122153Z 24006KT 10SM SCT200 06/M03 A2984 RMK AO2 SLP115 T00611033",2023.02.12-16.55.01
"METAR","KMSP","2023-02-12T22:53:00Z",4.4,-3.3,7,220,"FEW",10,"KMSP 122253Z 22007KT 10SM FEW200 04/M03 A2982 RMK AO2 SLP108 T00441033",2023.02.12-17.55.01
"METAR","KMSP","2023-02-12T23:53:00Z",2.8,-3.9,9,250,"CLR",10,"KMSP 122353Z 25009KT 10SM CLR 03/M04 A2982 RMK AO2 SLP110 4/007 T00281039 10061 20017 55009",2023.02.12-18.55.01
"METAR","KMSP","2023-02-13T00:53:00Z",1.1,-3.3,7,230,"CLR",10,"KMSP 130053Z 23007KT 10SM CLR 01/M03 A2982 RMK AO2 SLP108 T00111033",2023.02.12-19.55.01
"METAR","KMSP","2023-02-13T01:53:00Z",0,-3.3,6,230,"CLR",10,"KMSP 130153Z 23006KT 10SM CLR 00/M03 A2981 RMK AO2 SLP104 T00001033",2023.02.12-20.55.01
"METAR","KMSP","2023-02-13T02:53:00Z",-0.6,-3.9,7,250,"CLR",10,"KMSP 130253Z 25007KT 10SM CLR M01/M04 A2980 RMK AO2 SLP102 T10061039 57007",2023.02.12-21.55.01
"METAR","KMSP","2023-02-13T03:53:00Z",-1.1,-3.9,7,250,"CLR",10,"KMSP 130353Z 25007KT 10SM CLR M01/M04 A2979 RMK AO2 SLP099 T10111039",2023.02.12-22.55.01
"METAR","KMSP","2023-02-13T04:53:00Z",-1.1,-4.4,6,260,"CLR",10,"KMSP 130453Z 26006KT 10SM CLR M01/M04 A2978 RMK AO2 SLP092 T10111044",2023.02.12-23.55.01
"METAR","KMSP","2023-02-13T05:53:00Z",-1.7,-5,5,250,"CLR",10,"KMSP 130553Z 25005KT 10SM CLR M02/M05 A2977 RMK AO2 SLP091 4/007 T10171050 10028 21017 400611067 56009",2023.02.13-00.55.01
"METAR","KMSP","2023-02-13T06:53:00Z",-0.6,-4.4,9,280,"CLR",10,"KMSP 130653Z 28009KT 10SM CLR M01/M04 A2978 RMK AO2 SLP093 T10061044",2023.02.13-01.55.01
"METAR","KMSP","2023-02-13T07:53:00Z",-1.1,-5,8,290,"CLR",10,"KMSP 130753Z 29008KT 10SM CLR M01/M05 A2978 RMK AO2 SLP094 T10111050",2023.02.13-02.55.01
"METAR","KMSP","2023-02-13T08:53:00Z",-1.7,-5,6,270,"CLR",10,"KMSP 130853Z 27006KT 10SM CLR M02/M05 A2979 RMK AO2 SLP095 T10171050 53004",2023.02.13-03.55.01
"METAR","KMSP","2023-02-13T09:53:00Z",-2.2,-5.6,6,270,"CLR",10,"KMSP 130953Z 27006KT 10SM CLR M02/M06 A2980 RMK AO2 SLP099 T10221056",2023.02.13-04.55.01
"METAR","KMSP","2023-02-13T10:53:00Z",-3.3,-6.7,3,280,"CLR",10,"KMSP 131053Z 28003KT 10SM CLR M03/M07 A2981 RMK AO2 SLP104 T10331067",2023.02.13-05.55.01
"METAR","KMSP","2023-02-13T11:53:00Z",-3.3,-6.1,4,230,"CLR",10,"KMSP 131153Z 23004KT 10SM CLR M03/M06 A2982 RMK AO2 SLP107 4/007 T10331061 11006 21033 51010",2023.02.13-06.55.01
"METAR","KMSP","2023-02-13T12:53:00Z",-4.4,-6.7,6,220,"FEW",10,"KMSP 131253Z 22006KT 10SM FEW250 M04/M07 A2982 RMK AO2 SLP110 T10441067",2023.02.13-07.55.01
"METAR","KMSP","2023-02-13T13:53:00Z",-4.4,-6.7,6,230,"FEW",10,"KMSP 131353Z 23006KT 10SM FEW250 M04/M07 A2984 RMK AO2 SLP116 T10441067",2023.02.13-08.55.01
"METAR","KMSP","2023-02-13T14:53:00Z",-3.3,-5.6,0,0,"FEW",10,"KMSP 131453Z 00000KT 10SM FEW250 M03/M06 A2985 RMK AO2 SLP118 T10331056 51009",2023.02.13-09.55.01
"METAR","KMSP","2023-02-13T15:53:00Z",-1.7,-5,5,180,"CLR",10,"KMSP 131553Z 18005KT 10SM CLR M02/M05 A2984 RMK AO2 SLP117 T10171050",2023.02.13-10.55.01
"METAR","KMSP","2023-02-13T16:53:00Z",0,-5,6,210,"CLR",10,"KMSP 131653Z 21006KT 10SM CLR 00/M05 A2984 RMK AO2 SLP113 T00001050",2023.02.13-11.55.01
"METAR","KMSP","2023-02-13T17:53:00Z",2.2,-5,7,220,"CLR",10,"KMSP 131753Z 22007KT 10SM CLR 02/M05 A2982 RMK AO2 SLP108 4/007 933022 T00221050 10022 21044 58007",2023.02.13-12.55.01
"METAR","KMSP","2023-02-13T18:53:00Z",3.3,-5.6,7,200,"FEW",10,"KMSP 131853Z 20007KT 10SM FEW250 03/M06 A2979 RMK AO2 SLP096 T00331056",2023.02.13-13.55.01
"METAR","KMSP","2023-02-13T19:53:00Z",5,-6.1,6,190,"FEW",10,"KMSP 131953Z 19006KT 10SM FEW250 05/M06 A2975 RMK AO2 SLP083 T00501061",2023.02.13-14.55.01
"METAR","KMSP","2023-02-13T20:53:00Z",5,-4.4,8,160,"FEW",10,"KMSP 132053Z 16008KT 10SM FEW250 05/M04 A2975 RMK AO2 SLP082 T00501044 56025",2023.02.13-15.55.01
"METAR","KMSP","2023-02-13T21:53:00Z",4.4,-3.9,10,170,"FEW",10,"KMSP 132153Z 17010KT 10SM FEW250 04/M04 A2973 RMK AO2 SLP076 T00441039",2023.02.13-16.55.02
"METAR","KMSP","2023-02-13T22:53:00Z",3.9,-3.3,8,150,"FEW",10,"KMSP 132253Z 15008KT 10SM FEW250 04/M03 A2971 RMK AO2 SLP069 T00391033",2023.02.13-17.55.01
"METAR","KMSP","2023-02-13T23:53:00Z",2.8,-2.8,8,150,"FEW",10,"KMSP 132353Z 15008KT 10SM FEW250 03/M03 A2968 RMK AO2 SLP061 4/006 T00281028 10061 20022 58021",2023.02.13-18.55.01
"METAR","KMSP","2023-02-14T00:53:00Z",3.3,-2.8,9,170,"CLR",10,"KMSP 140053Z 17009KT 10SM CLR 03/M03 A2966 RMK AO2 SLP054 T00331028",2023.02.13-19.55.01
"METAR","KMSP","2023-02-14T01:53:00Z",2.8,-2.8,9,160,"CLR",10,"KMSP 140153Z 16009KT 10SM CLR 03/M03 A2964 RMK AO2 SLP047 T00281028",2023.02.13-20.55.01
"METAR","KMSP","2023-02-14T02:53:00Z",2.2,-2.2,6,160,"CLR",10,"KMSP 140253Z 16006KT 10SM CLR 02/M02 A2962 RMK AO2 SLP040 T00221022 56020",2023.02.13-21.55.01
"METAR","KMSP","2023-02-14T03:53:00Z",1.1,-2.2,7,150,"CLR",10,"KMSP 140353Z 15007KT 10SM CLR 01/M02 A2961 RMK AO2 SLP035 T00111022",2023.02.13-22.55.01
"METAR","KMSP","2023-02-14T04:53:00Z",1.1,-2.2,8,150,"CLR",10,"KMSP 140453Z 15008KT 10SM CLR 01/M02 A2959 RMK AO2 SLP029 T00111022",2023.02.13-23.55.01
"METAR","KMSP","2023-02-14T05:53:00Z",5.6,-1.7,10,200,"CLR",10,"KMSP 140553Z 20010KT 10SM CLR 06/M02 A2958 RMK AO2 SLP022 4/006 T00561017 10056 20011 400611044 57016",2023.02.14-00.55.01
"METAR","KMSP","2023-02-14T06:53:00Z",5.6,-2.2,7,190,"CLR",10,"KMSP 140653Z 19007KT 10SM CLR 06/M02 A2956 RMK AO2 SLP017 T00561022",2023.02.14-01.55.01
"METAR","KMSP","2023-02-14T07:53:00Z",4.4,-2.2,8,180,"CLR",10,"KMSP 140753Z 18008KT 10SM CLR 04/M02 A2955 RMK AO2 SLP012 T00441022",2023.02.14-02.55.01
"METAR","KMSP","2023-02-14T08:53:00Z",2.2,-2.8,9,160,"CLR",10,"KMSP 140853Z 16009KT 10SM CLR 02/M03 A2955 RMK AO2 SLP012 T00221028 56010",2023.02.14-03.55.01
"METAR","KMSP","2023-02-14T09:53:00Z",2.8,-2.8,8,130,"FEW",10,"KMSP 140953Z 13008KT 10SM FEW180 03/M03 A2951 RMK AO2 SLP000 T00281028",2023.02.14-04.55.02
"METAR","KMSP","2023-02-14T10:53:00Z",3.9,-2.2,11,170,"BKN",10,"KMSP 141053Z 17011KT 10SM BKN100 BKN160 04/M02 A2950 RMK AO2 SLP997 T00391022",2023.02.14-05.55.01
"METAR","KMSP","2023-02-14T11:53:00Z",5,-2.2,7,170,"OVC",10,"KMSP 141153Z 17007KT 10SM OVC100 05/M02 A2949 RMK AO2 SLP993 4/006 T00501022 10061 20017 56018",2023.02.14-06.55.01
"METAR","KMSP","2023-02-14T12:53:00Z",4.4,-1.7,6,150,"OVC",10,"KMSP 141253Z 15006KT 10SM -RA SCT070 OVC090 04/M02 A2950 RMK AO2 RAB52 SLP995 P0000 T00441017",2023.02.14-07.55.01
"METAR","KMSP","2023-02-14T13:53:00Z",3.3,-1.1,7,120,"OVC",10,"KMSP 141353Z 12007KT 10SM FEW055 FEW070 OVC100 03/M01 A2948 RMK AO2 RAE12 SLP988 VIRGA P0000 T00331011",2023.02.14-08.55.01
"METAR","KMSP","2023-02-14T14:53:00Z",3.3,-1.1,7,150,"OVC",10,"KMSP 141453Z 15007KT 10SM OVC080 03/M01 A2950 RMK AO2 RAB12E42 SLP996 P0000 60000 T00331011 53001",2023.02.14-09.55.01
"METAR","KMSP","2023-02-14T15:53:00Z",3.9,-1.1,9,150,"OVC",10,"KMSP 141553Z 15009KT 10SM SCT070 OVC085 04/M01 A2946 RMK AO2 RAB1459E16 SLP985 P0000 T00391011",2023.02.14-10.55.01
"METAR","KMSP","2023-02-14T17:46:00Z",3.3,0.6,12,140,"OVC",8,"KMSP 141746Z 14012KT 8SM -RA SCT026 BKN042 OVC049 03/01 A2945 RMK AO2 P0007 T00330006",2023.02.14-11.55.01
"METAR","KMSP","2023-02-14T18:40:00Z",2.8,1.7,13,130,"OVC",6,"KMSP 141840Z 13013KT 6SM -RA BR FEW008 BKN043 OVC050 03/02 A2941 RMK AO2 P0006 T00280017 $",2023.02.14-12.55.01
"METAR","KMSP","2023-02-14T19:03:00Z",2.8,1.7,12,130,"OVC",5,"KMSP 141903Z 13012KT 5SM -RA BR BKN006 OVC043 03/02 A2939 RMK AO2 P0002 T00280017 $",2023.02.14-13.55.01
"METAR","KMSP","2023-02-14T20:27:00Z",2.8,1.7,14,130,"OVC",4,"KMSP 142027Z 13014KT 4SM RA BR BKN007 BKN019 OVC047 03/02 A2931 RMK AO2 PK WND 14026/2000 P0003 T00280017 $",2023.02.14-14.55.01
"METAR","KMSP","2023-02-14T20:53:00Z",2.8,1.7,16,110,"OVC",5,"KMSP 142053Z 11016KT 5SM -RA BR BKN006 OVC024 03/02 A2929 RMK AO2 PK WND 14026/2000 PRESFR SLP924 P0009 60022 T00280017 58051 $",2023.02.14-15.55.01
"METAR","KMSP","2023-02-14T21:53:00Z",3.3,1.7,12,110,"OVC",4,"KMSP 142153Z 11012KT 4SM -RA BR BKN006 OVC019 03/02 A2924 RMK AO2 SLP908 P0009 T00330017 $",2023.02.14-16.55.01
"METAR","KMSP","2023-02-14T23:21:00Z",3.3,2.2,12,120,"OVC",4,"KMSP 142321Z 12012KT 4SM -RA BR BKN007 BKN014 OVC030 03/02 A2918 RMK AO2 P0003 T00330022 $",2023.02.14-17.55.01
"METAR","KMSP","2023-02-15T00:31:00Z",3.3,2.2,10,110,"OVC",7,"KMSP 150031Z 11010KT 7SM -RA FEW007 BKN011 OVC014 03/02 A2914 RMK AO2 P0002 T00330022 $",2023.02.14-18.55.01
"METAR","KMSP","2023-02-15T01:10:00Z",3.9,2.8,10,110,"OVC",6,"KMSP 150110Z 11010KT 6SM -RA BR BKN006 OVC011 04/03 A2911 RMK AO2 P0000 T00390028 $",2023.02.14-19.55.01
"METAR","KMSP","2023-02-15T01:53:00Z",3.9,2.8,9,120,"OVC",6,"KMSP 150153Z 12009G18KT 6SM -RA BR OVC006 04/03 A2909 RMK AO2 SLP857 P0002 T00390028 $",2023.02.14-20.55.01
"METAR","KMSP","2023-02-15T03:29:00Z",3.9,2.8,5,150,"OVC",4,"KMSP 150329Z 15005KT 4SM -RA BR OVC004 04/03 A2906 RMK AO2 P0001 T00390028 $",2023.02.14-21.55.01
"METAR","KMSP","2023-02-15T03:53:00Z",3.9,3.3,6,170,"OVC",3,"KMSP 150353Z 17006KT 3SM -RA BR OVC004 04/03 A2906 RMK AO2 SLP844 P0002 T00390033 $",2023.02.14-22.55.01
"METAR","KMSP","2023-02-15T05:11:00Z",3.9,2.8,6,230,"OVC",3,"KMSP 150511Z 23006KT 3SM -RA BR OVC004 04/03 A2905 RMK AO2 SFC VIS 4 P0000 T00390028 $",2023.02.14-23.55.02
"METAR","KMSP","2023-02-15T05:53:00Z",3.3,2.2,7,240,"OVC",3,"KMSP 150553Z 24007KT 3SM -RA BR OVC004 03/02 A2907 RMK AO2 SFC VIS 5 SLP849 4/005 P0004 60017 T00330022 10039 20033 400610017 55001 $",2023.02.15-00.55.01
"METAR","KMSP","2023-02-15T07:49:00Z",2,2,9,270,"OVC",3,"KMSP 150749Z 27009KT 3SM -RA BR SCT004 BKN008 OVC013 02/02 A2913 RMK AO2 SFC VIS 5 P0006 $",2023.02.15-01.55.01
"METAR","KMSP","2023-02-15T07:53:00Z",2.2,1.1,9,270,"OVC",3,"KMSP 150753Z 27009KT 3SM -RA BR BKN008 OVC013 02/01 A2913 RMK AO2 SFC VIS 6 SLP871 P0007 T00220011 $",2023.02.15-02.55.01
"METAR","KMSP","2023-02-15T08:53:00Z",2.2,0.6,10,280,"OVC",9,"KMSP 150853Z 28010KT 9SM -RA OVC008 02/01 A2918 RMK AO2 SLP888 P0003 60014 T00220006 53028 $",2023.02.15-03.55.01
"METAR","KMSP","2023-02-15T10:34:00Z",1.1,0,18,310,"OVC",10,"KMSP 151034Z 31018G26KT 10SM -RASN OVC011 01/00 A2929 RMK AO2 PK WND 31026/1031 SNB33 P0000 T00110000 $",2023.02.15-04.55.01
"METAR","KMSP","2023-02-15T11:23:00Z",1.7,-0.6,19,310,"OVC",10,"KMSP 151123Z 31019G28KT 10SM BKN014 OVC020 02/M01 A2935 RMK AO2 PK WND 32029/1104 RAE23SNE23 PRESRR 4/005 P0000 T00171006 $",2023.02.15-05.55.01
"METAR","KMSP","2023-02-15T12:18:00Z",1.1,-0.6,15,310,"OVC",10,"KMSP 151218Z 31015G26KT 10SM -SN OVC016 01/M01 A2944 RMK AO2 PK WND 32029/1154 SNB16 PRESRR P0000 T00111006",2023.02.15-06.55.01
"METAR","KMSP","2023-02-15T13:44:00Z",0.6,-2.2,18,310,"OVC",10,"KMSP 151344Z 31018G27KT 10SM OVC018 01/M02 A2954 RMK AO2 PK WND 32029/1333 SNE23 PRESRR P0000 T00061022",2023.02.15-07.55.01
"METAR","KMSP","2023-02-15T14:44:00Z",-1.1,-5,22,300,"OVC",10,"KMSP 151444Z 30022G37KT 10SM OVC019 M01/M05 A2965 RMK AO2 PK WND 29037/1443 T10111050",2023.02.15-08.55.01
"METAR","KMSP","2023-02-15T15:38:00Z",-2.8,-6.7,15,290,"OVC",10,"KMSP 151538Z 29015G30KT 10SM OVC019 M03/M07 A2973 RMK AO2 PK WND 31034/1522 PRESRR T10281067",2023.02.15-09.55.01
"METAR","KMSP","2023-02-15T15:53:00Z",-3.3,-6.7,17,310,"OVC",10,"KMSP 151553Z 31017G29KT 10SM OVC019 M03/M07 A2975 RMK AO2 PK WND 31034/1522 PRESRR SLP082 T10331067",2023.02.15-10.55.01
"METAR","KMSP","2023-02-15T16:53:00Z",-3.3,-7.8,18,310,"BKN",10,"KMSP 151653Z 31018G28KT 10SM BKN020 BKN100 M03/M08 A2979 RMK AO2 PK WND 32031/1628 SLP098 T10331078",2023.02.15-11.55.01
"METAR","KMSP","2023-02-15T17:53:00Z",-4.4,-8.9,16,320,"BKN",10,"KMSP 151753Z 32016KT 10SM BKN020 M04/M09 A2984 RMK AO2 PK WND 30031/1713 SLP116 4/004 60000 T10441089 10017 21044 51058",2023.02.15-12.55.01
"METAR","KMSP","2023-02-15T18:53:00Z",-4.4,-9.4,18,310,"SCT",10,"KMSP 151853Z 31018G24KT 10SM SCT022 SCT250 M04/M09 A2988 RMK AO2 PK WND 30026/1801 SLP128 T10441094",2023.02.15-13.55.01
"METAR","KMSP","2023-02-15T19:53:00Z",-4.4,-10,14,320,"FEW",10,"KMSP 151953Z 32014KT 10SM FEW250 M04/M10 A2992 RMK AO2 SLP142 T10441100",2023.02.15-14.55.01
"METAR","KMSP","2023-02-15T20:53:00Z",-4.4,-10,15,310,"SCT",10,"KMSP 152053Z 31015G25KT 10SM SCT250 M04/M10 A2996 RMK AO2 SLP156 T10441100 53038",2023.02.15-15.55.01
"METAR","KMSP","2023-02-15T21:53:00Z",-4.4,-10,11,320,"SCT",10,"KMSP 152153Z 32011G19KT 10SM SCT250 M04/M10 A3000 RMK AO2 SLP170 T10441100",2023.02.15-16.55.01
"METAR","KMSP","2023-02-15T22:53:00Z",-4.4,-10,12,300,"FEW",10,"KMSP 152253Z 30012KT 10SM FEW250 M04/M10 A3002 RMK AO2 SLP178 T10441100",2023.02.15-17.55.01
"METAR","KMSP","2023-02-15T23:53:00Z",-5.6,-10.6,11,310,"SCT",10,"KMSP 152353Z 31011KT 10SM FEW040 SCT200 SCT250 M06/M11 A3007 RMK AO2 SLP195 4/004 T10561106 11039 21056 53038",2023.02.15-18.55.01
"METAR","KMSP","2023-02-16T00:53:00Z",-5.6,-10,10,330,"SCT",10,"KMSP 160053Z 33010KT 10SM SCT200 SCT250 M06/M10 A3010 RMK AO2 SLP203 T10561100",2023.02.15-19.55.01
"METAR","KMSP","2023-02-16T01:53:00Z",-6.1,-10,9,320,"FEW",10,"KMSP 160153Z 32009KT 10SM FEW250 M06/M10 A3012 RMK AO2 SLP214 T10611100",2023.02.15-20.55.01
"METAR","KMSP","2023-02-16T02:53:00Z",-7.2,-11.1,9,300,"FEW",10,"KMSP 160253Z 30009KT 10SM FEW250 M07/M11 A3016 RMK AO2 SLP227 T10721111 53030",2023.02.15-21.55.01
"METAR","KMSP","2023-02-16T03:53:00Z",-7.8,-12.2,10,320,"FEW",10,"KMSP 160353Z 32010KT 10SM FEW250 M08/M12 A3019 RMK AO2 SLP237 T10781122",2023.02.15-22.55.01
"METAR","KMSP","2023-02-16T04:53:00Z",-8.3,-12.8,8,330,"SCT",10,"KMSP 160453Z 33008KT 10SM SCT250 M08/M13 A3020 RMK AO2 SLP240 T10831128",2023.02.15-23.55.01
"METAR","KMSP","2023-02-16T05:53:00Z",-8.9,-13.3,6,340,"CLR",10,"KMSP 160553Z 34006KT 10SM CLR M09/M13 A3020 RMK AO2 SLP241 4/004 T10891133 11056 21089 400331089 51012",2023.02.16-00.55.01
"METAR","KMSP","2023-02-16T06:53:00Z",-8.9,-13.3,7,340,"BKN",10,"KMSP 160653Z 34007KT 10SM BKN150 M09/M13 A3019 RMK AO2 SLP238 T10891133",2023.02.16-01.55.01
"METAR","KMSP","2023-02-16T07:53:00Z",-9.4,-13.9,8,360,"SCT",10,"KMSP 160753Z 36008KT 10SM SCT150 M09/M14 A3018 RMK AO2 SLP237 T10941139",2023.02.16-02.55.01
"METAR","KMSP","2023-02-16T08:53:00Z",-9.4,-14.4,7,350,"SCT",10,"KMSP 160853Z 35007KT 10SM SCT150 M09/M14 A3019 RMK AO2 SLP240 T10941144 55001",2023.02.16-03.55.01
"METAR","KMSP","2023-02-16T09:53:00Z",-10,-14.4,6,10,"BKN",10,"KMSP 160953Z 01006KT 10SM BKN160 M10/M14 A3018 RMK AO2 SLP235 T11001144",2023.02.16-04.55.01
"METAR","KMSP","2023-02-16T10:53:00Z",-10,-15.6,9,360,"BKN",10,"KMSP 161053Z 36009KT 10SM BKN160 M10/M16 A3017 RMK AO2 SLP232 T11001156",2023.02.16-05.55.01
"METAR","KMSP","2023-02-16T11:53:00Z",-10.6,-16.1,9,360,"BKN",10,"KMSP 161153Z 36009KT 10SM BKN160 M11/M16 A3019 RMK AO2 SLP238 4/004 T11061161 11089 21106 55002",2023.02.16-06.55.01
"METAR","KMSP","2023-02-16T12:53:00Z",-10.6,-16.7,10,10,"BKN",10,"KMSP 161253Z 01010G23KT 10SM BKN200 M11/M17 A3018 RMK AO2 SLP235 T11061167",2023.02.16-07.55.01
"METAR","KMSP","2023-02-16T13:53:00Z",-10.6,-17.8,9,10,"BKN",10,"KMSP 161353Z 01009G20KT 10SM BKN150 M11/M18 A3021 RMK AO2 SLP246 T11061178",2023.02.16-08.55.01
"METAR","KMSP","2023-02-16T14:53:00Z",-10,-17.8,7,30,"BKN",10,"KMSP 161453Z 03007G17KT 10SM BKN180 M10/M18 A3022 RMK AO2 SLP248 T11001178 53009",2023.02.16-09.55.01
"METAR","KMSP","2023-02-16T15:53:00Z",-10,-17.2,9,10,"BKN",10,"KMSP 161553Z 01009KT 10SM BKN180 M10/M17 A3023 RMK AO2 SLP255 T11001172",2023.02.16-10.55.01
"METAR","KMSP","2023-02-16T16:53:00Z",-9.4,-16.7,13,350,"BKN",10,"KMSP 161653Z 35013KT 10SM BKN200 M09/M17 A3023 RMK AO2 SLP253 T10941167",2023.02.16-11.55.01
"METAR","KMSP","2023-02-16T17:53:00Z",-8.3,-15.6,13,350,"BKN",10,"KMSP 161753Z 35013KT 10SM BKN150 M08/M16 A3022 RMK AO2 SLP251 4/004 T10831156 11083 21106 50003",2023.02.16-12.55.01
"METAR","KMSP","2023-02-16T18:53:00Z",-8.3,-15.6,11,20,"BKN",10,"KMSP 161853Z 02011KT 10SM BKN160 M08/M16 A3020 RMK AO2 SLP244 T10831156",2023.02.16-13.55.01
"METAR","KMSP","2023-02-16T19:53:00Z",-7.8,-15.6,9,10,"BKN",10,"KMSP 161953Z 01009KT 10SM BKN160 M08/M16 A3018 RMK AO2 SLP237 T10781156",2023.02.16-14.55.01
"METAR","KMSP","2023-02-16T20:53:00Z",-7.2,-15.6,14,350,"SCT",10,"KMSP 162053Z 35014KT 10SM SCT160 M07/M16 A3018 RMK AO2 SLP235 T10721156 56016",2023.02.16-15.55.01
"METAR","KMSP","2023-02-16T21:53:00Z",-7.2,-15.6,12,340,"SCT",10,"KMSP 162153Z 34012G18KT 10SM SCT160 M07/M16 A3018 RMK AO2 SLP236 T10721156",2023.02.16-16.55.01
"METAR","KMSP","2023-02-16T22:53:00Z",-7.2,-15.6,10,340,"FEW",10,"KMSP 162253Z 34010KT 10SM FEW160 M07/M16 A3020 RMK AO2 SLP242 T10721156",2023.02.16-17.55.01
"METAR","KMSP","2023-02-16T23:53:00Z",-8.3,-16.1,10,330,"FEW",10,"KMSP 162353Z 33010KT 10SM FEW160 FEW250 M08/M16 A3023 RMK AO2 SLP255 4/004 T10831161 11067 21083 53018",2023.02.16-18.55.01
"METAR","KMSP","2023-02-17T00:53:00Z",-8.9,-16.7,11,330,"FEW",10,"KMSP 170053Z 33011KT 10SM FEW250 M09/M17 A3026 RMK AO2 SLP263 T10891167",2023.02.16-19.55.01
"METAR","KMSP","2023-02-17T01:53:00Z",-9.4,-16.7,8,350,"FEW",10,"KMSP 170153Z 35008KT 10SM FEW250 M09/M17 A3027 RMK AO2 SLP267 T10941167",2023.02.16-20.55.01
"METAR","KMSP","2023-02-17T02:53:00Z",-10,-17.2,8,350,"CLR",10,"KMSP 170253Z 35008KT 10SM CLR M10/M17 A3028 RMK AO2 SLP270 T11001172 51015",2023.02.16-21.55.01
"METAR","KMSP","2023-02-17T03:53:00Z",-10.6,-17.2,5,350,"CLR",10,"KMSP 170353Z 35005KT 10SM CLR M11/M17 A3028 RMK AO2 SLP271 T11061172",2023.02.16-22.55.01
"METAR","KMSP","2023-02-17T04:53:00Z",-10.6,-17.8,4,10,"CLR",10,"KMSP 170453Z 01004KT 10SM CLR M11/M18 A3028 RMK AO2 SLP270 T11061178",2023.02.16-23.55.01
"METAR","KMSP","2023-02-17T05:53:00Z",-11.1,-17.8,4,360,"CLR",10,"KMSP 170553Z 36004KT 10SM CLR M11/M18 A3028 RMK AO2 SLP271 4/004 T11111178 11083 21111 410671111 53001",2023.02.17-00.55.01
"METAR","KMSP","2023-02-17T06:53:00Z",-12.2,-17.8,5,320,"CLR",10,"KMSP 170653Z 32005KT 10SM CLR M12/M18 A3028 RMK AO2 SLP271 T11221178",2023.02.17-01.55.01
"METAR","KMSP","2023-02-17T07:53:00Z",-13.3,-17.8,5,310,"CLR",10,"KMSP 170753Z 31005KT 10SM CLR M13/M18 A3028 RMK AO2 SLP273 T11331178",2023.02.17-02.55.01
"METAR","KMSP","2023-02-17T08:53:00Z",-12.8,-17.8,0,0,"CLR",10,"KMSP 170853Z 00000KT 10SM CLR M13/M18 A3028 RMK AO2 SLP271 T11281178 50000",2023.02.17-03.55.01
"METAR","KMSP","2023-02-17T09:53:00Z",-13.3,-17.8,3,260,"CLR",9,"KMSP 170953Z 26003KT 9SM CLR M13/M18 A3027 RMK AO2 SLP269 T11331178",2023.02.17-04.55.01
"METAR","KMSP","2023-02-17T10:53:00Z",-13.3,-17.8,3,280,"CLR",10,"KMSP 171053Z 28003KT 10SM CLR M13/M18 A3028 RMK AO2 SLP272 T11331178",2023.02.17-05.55.01
"METAR","KMSP","2023-02-17T11:53:00Z",-13.3,-17.2,3,200,"CLR",10,"KMSP 171153Z 20003KT 10SM CLR M13/M17 A3027 RMK AO2 SLP268 4/004 T11331172 11111 21144 58003",2023.02.17-06.55.01
"METAR","KMSP","2023-02-17T12:53:00Z",-13.9,-17.8,3,230,"CLR",10,"KMSP 171253Z 23003KT 10SM CLR M14/M18 A3028 RMK AO2 SLP273 T11391178",2023.02.17-07.55.01
"METAR","KMSP","2023-02-17T13:53:00Z",-14.4,-17.8,5,210,"CLR",10,"KMSP 171353Z 21005KT 10SM CLR M14/M18 A3027 RMK AO2 SLP270 T11441178",2023.02.17-08.55.02
"METAR","KMSP","2023-02-17T14:53:00Z",-13.3,-17.2,5,200,"CLR",10,"KMSP 171453Z 20005KT 10SM CLR M13/M17 A3026 RMK AO2 SLP266 T11331172 58002",2023.02.17-09.55.02
"METAR","KMSP","2023-02-17T15:53:00Z",-10.6,-17.2,8,210,"FEW",10,"KMSP 171553Z 21008KT 10SM FEW250 M11/M17 A3025 RMK AO2 SLP261 T11061172",2023.02.17-10.55.01
"METAR","KMSP","2023-02-17T16:53:00Z",-8.3,-17.2,11,220,"FEW",10,"KMSP 171653Z 22011G17KT 10SM FEW250 M08/M17 A3023 RMK AO2 SLP255 T10831172",2023.02.17-11.55.01
"METAR","KMSP","2023-02-17T17:53:00Z",-7.2,-16.7,10,190,"FEW",10,"KMSP 171753Z 19010KT 10SM FEW250 M07/M17 A3022 RMK AO2 SLP249 4/004 T10721167 11072 21144 58015",2023.02.17-12.55.01
"METAR","KMSP","2023-02-17T18:53:00Z",-5.6,-16.7,9,200,"FEW",10,"KMSP 171853Z 20009KT 10SM FEW250 M06/M17 A3018 RMK AO2 SLP236 T10561167",2023.02.17-13.55.01
"METAR","KMSP","2023-02-17T19:53:00Z",-3.9,-16.1,10,210,"FEW",10,"KMSP 171953Z 21010G23KT 10SM FEW250 M04/M16 A3013 RMK AO2 SLP220 T10391161",2023.02.17-14.55.01
"METAR","KMSP","2023-02-17T20:53:00Z",-2.8,-13.9,9,210,"FEW",10,"KMSP 172053Z 21009G23KT 10SM FEW250 M03/M14 A3011 RMK AO2 SLP210 T10281139 56037",2023.02.17-15.55.01
"METAR","KMSP","2023-02-17T21:53:00Z",-2.2,-11.1,10,180,"SCT",10,"KMSP 172153Z 18010KT 10SM SCT250 M02/M11 A3007 RMK AO2 SLP198 T10221111",2023.02.17-16.55.01
"METAR","KMSP","2023-02-17T22:53:00Z",-2.2,-10,11,170,"SCT",10,"KMSP 172253Z 17011KT 10SM SCT250 M02/M10 A3003 RMK AO2 SLP184 T10221100",2023.02.17-17.55.01
"METAR","KMSP","2023-02-17T23:53:00Z",-2.2,-8.9,8,190,"FEW",10,"KMSP 172353Z 19008KT 10SM FEW200 FEW250 M02/M09 A3002 RMK AO2 SLP180 4/004 T10221089 11017 21072 56029",2023.02.17-18.55.01
"METAR","KMSP","2023-02-18T00:53:00Z",-2.2,-8.3,11,210,"FEW",10,"KMSP 180053Z 21011G23KT 10SM FEW200 FEW250 M02/M08 A2999 RMK AO2 SLP172 T10221083",2023.02.17-19.55.01
"METAR","KMSP","2023-02-18T01:53:00Z",-2.2,-7.8,7,220,"SCT",10,"KMSP 180153Z 22007KT 10SM FEW200 SCT250 M02/M08 A3000 RMK AO2 SLP174 T10221078",2023.02.17-20.55.01
"METAR","KMSP","2023-02-18T02:53:00Z",-2.2,-7.2,8,240,"SCT",10,"KMSP 180253Z 24008G19KT 10SM SCT250 M02/M07 A2999 RMK AO2 SLP170 T10221072 56010",2023.02.17-21.55.01
"METAR","KMSP","2023-02-18T03:53:00Z",-2.2,-6.7,10,230,"SCT",10,"KMSP 180353Z 23010G17KT 10SM SCT250 M02/M07 A2998 RMK AO2 SLP168 T10221067",2023.02.17-22.55.01
"METAR","KMSP","2023-02-18T04:53:00Z",-2.8,-6.7,8,240,"CLR",10,"KMSP 180453Z 24008KT 10SM CLR M03/M07 A2999 RMK AO2 SLP169 T10281067",2023.02.17-23.55.01
"METAR","KMSP","2023-02-18T05:53:00Z",-2.8,-6.7,8,250,"CLR",10,"KMSP 180553Z 25008KT 10SM CLR M03/M07 A3000 RMK AO2 SLP172 4/004 T10281067 11017 21028 410171144 53004",2023.02.18-00.55.01
"METAR","KMSP","2023-02-18T06:53:00Z",-3.3,-7.2,6,260,"CLR",10,"KMSP 180653Z 26006KT 10SM CLR M03/M07 A3001 RMK AO2 SLP175 T10331072",2023.02.18-01.55.01
"METAR","KMSP","2023-02-18T07:53:00Z",-3.3,-7.8,6,250,"CLR",10,"KMSP 180753Z 25006KT 10SM CLR M03/M08 A3003 RMK AO2 SLP181 T10331078",2023.02.18-02.55.01
"METAR","KMSP","2023-02-18T08:53:00Z",-4.4,-7.8,0,0,"CLR",10,"KMSP 180853Z 00000KT 10SM CLR M04/M08 A3003 RMK AO2 SLP180 T10441078 50009",2023.02.18-03.55.01
"METAR","KMSP","2023-02-18T09:53:00Z",-5,-8.3,0,0,"CLR",10,"KMSP 180953Z 00000KT 10SM CLR M05/M08 A3004 RMK AO2 SLP186 T10501083",2023.02.18-04.55.01
"METAR","KMSP","2023-02-18T10:53:00Z",-5,-8.3,4,210,"CLR",10,"KMSP 181053Z 21004KT 10SM CLR M05/M08 A3006 RMK AO2 SLP191 T10501083",2023.02.18-05.55.01
"METAR","KMSP","2023-02-18T11:53:00Z",-5.6,-8.3,5,220,"CLR",10,"KMSP 181153Z 22005KT 10SM CLR M06/M08 A3007 RMK AO2 SLP196 4/004 T10561083 11028 21056 51014",2023.02.18-06.55.01
"METAR","KMSP","2023-02-18T12:53:00Z",-5.6,-7.8,3,230,"CLR",10,"KMSP 181253Z 23003KT 10SM CLR M06/M08 A3007 RMK AO2 SLP197 T10561078",2023.02.18-07.55.01
"METAR","KMSP","2023-02-18T13:53:00Z",-5.6,-7.2,0,0,"CLR",9,"KMSP 181353Z 00000KT 9SM CLR M06/M07 A3007 RMK AO2 SLP197 T10561072",2023.02.18-08.55.02
"METAR","KMSP","2023-02-18T14:53:00Z",-4.4,-6.7,4,200,"CLR",10,"KMSP 181453Z 20004KT 10SM CLR M04/M07 A3008 RMK AO2 SLP197 T10441067 51002",2023.02.18-09.55.02
"METAR","KMSP","2023-02-18T15:53:00Z",-2.2,-5,0,0,"FEW",10,"KMSP 181553Z 00000KT 10SM FEW300 M02/M05 A3008 RMK AO2 SLP198 T10221050",2023.02.18-10.55.01
"METAR","KMSP","2023-02-18T16:53:00Z",0,-4.4,5,170,"SCT",10,"KMSP 181653Z 17005KT 10SM FEW250 SCT300 00/M04 A3007 RMK AO2 SLP193 T00001044",2023.02.18-11.55.01
"METAR","KMSP","2023-02-18T17:53:00Z",1.7,-3.3,8,150,"SCT",10,"KMSP 181753Z 15008KT 10SM SCT250 02/M03 A3004 RMK AO2 SLP184 4/004 T00171033 10017 21056 58011",2023.02.18-12.55.01
"METAR","KMSP","2023-02-18T18:53:00Z",1.7,-3.3,7,150,"BKN",10,"KMSP 181853Z 15007KT 10SM BKN250 02/M03 A3002 RMK AO2 SLP174 T00171033",2023.02.18-13.55.01
"METAR","KMSP","2023-02-18T19:53:00Z",1.7,-3.3,7,160,"BKN",10,"KMSP 181953Z 16007KT 10SM BKN250 02/M03 A2998 RMK AO2 SLP163 T00171033",2023.02.18-14.55.01
"METAR","KMSP","2023-02-18T20:53:00Z",2.2,-2.8,6,120,"BKN",10,"KMSP 182053Z 12006KT 10SM BKN250 02/M03 A2994 RMK AO2 SLP150 T00221028 58034",2023.02.18-15.55.01
"METAR","KMSP","2023-02-18T21:53:00Z",2.2,-2.8,9,120,"BKN",10,"KMSP 182153Z 12009KT 10SM BKN250 02/M03 A2991 RMK AO2 SLP138 T00221028",2023.02.18-16.55.01
"METAR","KMSP","2023-02-18T22:53:00Z",2.2,-2.8,9,130,"BKN",10,"KMSP 182253Z 13009KT 10SM FEW210 BKN250 02/M03 A2989 RMK AO2 SLP133 T00221028",2023.02.18-17.55.01
"METAR","KMSP","2023-02-18T23:53:00Z",1.7,-2.8,7,130,"BKN",10,"KMSP 182353Z 13007KT 10SM FEW190 BKN250 02/M03 A2988 RMK AO2 SLP128 4/004 T00171028 10022 20011 56021",2023.02.18-18.55.01
"METAR","KMSP","2023-02-19T01:33:00Z",1.1,-2.8,6,140,"BKN",10,"KMSP 190133Z 14006KT 10SM BKN029 BKN190 BKN250 01/M03 A2984 RMK AO2 T00111028",2023.02.18-19.55.01
"METAR","KMSP","2023-02-19T01:53:00Z",1.1,-2.8,7,140,"BKN",10,"KMSP 190153Z 14007KT 10SM FEW029 BKN190 BKN250 01/M03 A2983 RMK AO2 SLP112 T00111028",2023.02.18-20.55.01
"METAR","KMSP","2023-02-19T02:53:00Z",0.6,-3.3,8,140,"FEW",10,"KMSP 190253Z 14008KT 10SM FEW250 01/M03 A2980 RMK AO2 SLP101 T00061033 58026",2023.02.18-21.55.01
"METAR","KMSP","2023-02-19T03:53:00Z",0,-3.3,9,140,"FEW",10,"KMSP 190353Z 14009KT 10SM FEW250 00/M03 A2975 RMK AO2 SLP084 T00001033",2023.02.18-22.55.01
"METAR","KMSP","2023-02-19T04:53:00Z",-0.6,-3.9,7,160,"FEW",10,"KMSP 190453Z 16007KT 10SM FEW250 M01/M04 A2973 RMK AO2 SLP077 T10061039",2023.02.18-23.55.01
"METAR","KMSP","2023-02-19T05:53:00Z",-1.7,-4.4,5,150,"FEW",10,"KMSP 190553Z 15005KT 10SM FEW250 M02/M04 A2970 RMK AO2 SLP067 4/004 T10171044 10017 21017 400221056 56032",2023.02.19-00.55.01
"METAR","KMSP","2023-02-19T06:53:00Z",-2.8,-5,0,0,"CLR",10,"KMSP 190653Z 00000KT 10SM CLR M03/M05 A2970 RMK AO2 SLP068 T10281050",2023.02.19-01.55.01
"METAR","KMSP","2023-02-19T07:53:00Z",-3.3,-5,3,220,"FEW",9,"KMSP 190753Z 22003KT 9SM FEW250 M03/M05 A2969 RMK AO2 SLP064 T10331050",2023.02.19-02.55.01
"METAR","KMSP","2023-02-19T08:53:00Z",-2.8,-5,5,230,"FEW",7,"KMSP 190853Z 23005KT 7SM FEW250 M03/M05 A2968 RMK AO2 SLP059 T10281050 58008",2023.02.19-03.55.01
"METAR","KMSP","2023-02-19T09:53:00Z",-2.8,-4.4,8,260,"FEW",9,"KMSP 190953Z 26008KT 9SM FEW250 M03/M04 A2968 RMK AO2 SLP058 T10281044",2023.02.19-04.55.02
"METAR","KMSP","2023-02-19T10:53:00Z",-3.3,-4.4,5,250,"FEW",8,"KMSP 191053Z 25005KT 8SM FEW250 M03/M04 A2968 RMK AO2 SLP061 T10331044",2023.02.19-05.55.01
"METAR","KMSP","2023-02-19T11:53:00Z",-3.9,-5,5,250,"FEW",8,"KMSP 191153Z 25005KT 8SM FEW250 M04/M05 A2969 RMK AO2 SLP065 4/004 T10391050 11011 21039 53004",2023.02.19-06.55.01
"METAR","KMSP","2023-02-19T13:42:00Z",-3.9,-5.6,8,290,"OVC",7,"KMSP 191342Z 29008KT 7SM BKN008 OVC140 M04/M06 A2973 RMK AO2 T10391056",2023.02.19-07.55.01
"METAR","KMSP","2023-02-19T13:53:00Z",-3.9,-5.6,9,300,"OVC",8,"KMSP 191353Z 30009KT 8SM BKN008 OVC140 M04/M06 A2974 RMK AO2 SLP081 T10391056",2023.02.19-08.55.01
"METAR","KMSP","2023-02-19T14:53:00Z",-3.9,-5,11,310,"OVC",6,"KMSP 191453Z 31011KT 6SM BR OVC006 M04/M05 A2976 RMK AO2 SLP090 T10391050 53024",2023.02.19-09.55.01
"METAR","KMSP","2023-02-19T16:04:00Z",-1.7,-3.9,7,330,"OVC",9,"KMSP 191604Z 33007KT 9SM OVC011 M02/M04 A2978 RMK AO2 T10171039",2023.02.19-10.55.01
"METAR","KMSP","2023-02-19T17:15:00Z",0,-3.3,9,300,"OVC",10,"KMSP 191715Z 30009KT 10SM OVC016 00/M03 A2980 RMK AO2 T00001033",2023.02.19-11.55.01
"METAR","KMSP","2023-02-19T17:53:00Z",0,-3.3,10,300,"OVC",10,"KMSP 191753Z 30010G16KT 10SM OVC016 00/M03 A2980 RMK AO2 SLP101 4/004 T00001033 10000 21044 51012",2023.02.19-12.55.01
"METAR","KMSP","2023-02-19T18:53:00Z",0.6,-3.9,8,280,"OVC",10,"KMSP 191853Z 28008KT 10SM OVC022 01/M04 A2981 RMK AO2 SLP106 T00061039",2023.02.19-13.55.01
"METAR","KMSP","2023-02-19T20:33:00Z",1.7,-5,11,300,"SCT",10,"KMSP 192033Z 30011KT 10SM SCT026 SCT250 02/M05 A2982 RMK AO2 T00171050",2023.02.19-14.55.01
"METAR","KMSP","2023-02-19T20:53:00Z",1.7,-5,12,280,"FEW",10,"KMSP 192053Z 28012KT 10SM FEW030 FEW250 02/M05 A2982 RMK AO2 SLP109 T00171050 53007",2023.02.19-15.55.01
"METAR","KMSP","2023-02-19T21:53:00Z",1.1,-6.1,10,290,"FEW",10,"KMSP 192153Z 29010KT 10SM FEW030 FEW250 01/M06 A2983 RMK AO2 SLP111 T00111061",2023.02.19-16.55.01
"METAR","KMSP","2023-02-19T22:53:00Z",0,-7.8,12,320,"SCT",10,"KMSP 192253Z 32012KT 10SM FEW030 FEW180 SCT250 00/M08 A2984 RMK AO2 SLP117 T00001078",2023.02.19-17.55.01
"METAR","KMSP","2023-02-19T23:53:00Z",-1.1,-8.3,8,290,"FEW",10,"KMSP 192353Z 29008KT 10SM FEW180 FEW250 M01/M08 A2986 RMK AO2 SLP123 4/004 T10111083 10017 21011 53012",2023.02.19-18.55.01
"METAR","KMSP","2023-02-20T00:53:00Z",-2.2,-8.9,8,280,"FEW",10,"KMSP 200053Z 28008KT 10SM FEW180 FEW250 M02/M09 A2988 RMK AO2 SLP129 T10221089",2023.02.19-19.55.01
"METAR","KMSP","2023-02-20T01:53:00Z",-3.3,-10,10,290,"FEW",10,"KMSP 200153Z 29010KT 10SM FEW250 M03/M10 A2988 RMK AO2 SLP131 T10331100",2023.02.19-20.55.01
"METAR","KMSP","2023-02-20T02:53:00Z",-4.4,-9.4,7,290,"FEW",10,"KMSP 200253Z 29007KT 10SM FEW250 M04/M09 A2988 RMK AO2 SLP132 T10441094 51007",2023.02.19-21.55.01
"METAR","KMSP","2023-02-20T03:53:00Z",-5.6,-10,5,270,"CLR",10,"KMSP 200353Z 27005KT 10SM CLR M06/M10 A2988 RMK AO2 SLP132 T10561100",2023.02.19-22.55.01
"METAR","KMSP","2023-02-20T04:53:00Z",-6.7,-10.6,5,230,"CLR",10,"KMSP 200453Z 23005KT 10SM CLR M07/M11 A2987 RMK AO2 SLP128 T10671106",2023.02.19-23.55.01
"METAR","KMSP","2023-02-20T05:53:00Z",-7.8,-11.1,0,0,"CLR",10,"KMSP 200553Z 00000KT 10SM CLR M08/M11 A2986 RMK AO2 SLP123 4/004 T10781111 11011 21078 400171078 58009",2023.02.20-00.55.01
"METAR","KMSP","2023-02-20T06:53:00Z",-7.8,-11.1,3,200,"CLR",10,"KMSP 200653Z 20003KT 10SM CLR M08/M11 A2984 RMK AO2 SLP117 T10781111",2023.02.20-01.55.01
"METAR","KMSP","2023-02-20T07:53:00Z",-8.9,-12.2,4,250,"CLR",10,"KMSP 200753Z 25004KT 10SM CLR M09/M12 A2984 RMK AO2 SLP117 T10891122",2023.02.20-02.55.01
"METAR","KMSP","2023-02-20T08:53:00Z",-9.4,-12.2,0,0,"FEW",10,"KMSP 200853Z 00000KT 10SM FEW250 M09/M12 A2981 RMK AO2 SLP108 T10941122 58014",2023.02.20-03.55.01
"METAR","KMSP","2023-02-20T09:53:00Z",-10,-12.8,4,200,"FEW",10,"KMSP 200953Z 20004KT 10SM FEW120 FEW250 M10/M13 A2980 RMK AO2 SLP102 T11001128",2023.02.20-04.55.02
"METAR","KMSP","2023-02-20T10:53:00Z",-10,-12.2,4,130,"BKN",10,"KMSP 201053Z 13004KT 10SM BKN110 BKN130 M10/M12 A2975 RMK AO2 SLP087 T11001122",2023.02.20-05.55.01
"METAR","KMSP","2023-02-20T11:53:00Z",-8.9,-11.7,6,150,"OVC",10,"KMSP 201153Z 15006KT 10SM BKN120 OVC130 M09/M12 A2973 RMK AO2 SLP081 4/004 T10891117 11078 21100 57027",2023.02.20-06.55.01
"METAR","KMSP","2023-02-20T13:47:00Z",-8,-11,6,170,"OVC",0.5,"KMSP 201347Z 17006KT 1/2SM R30L/3500VP6000FT SN BKN028 OVC065 M08/M11 A2972 RMK AO2 SNB41 P0000",2023.02.20-07.55.01
"METAR","KMSP","2023-02-20T14:48:00Z",-8,-9,6,130,"OVC",2,"KMSP 201448Z 13006KT 2SM R30L/5000VP6000FT -SN BKN013 OVC037 M08/M09 A2968 RMK AO2 P0008",2023.02.20-08.55.01
"METAR","KMSP","2023-02-20T15:28:00Z",-6.7,-8.3,7,150,"OVC",10,"KMSP 201528Z 15007KT 10SM FEW012 BKN020 OVC028 M07/M08 A2965 RMK AO2 SNE28 PRESENT WX VCSH P0001 T10671083",2023.02.20-09.55.01
"METAR","KMSP","2023-02-20T16:22:00Z",-5.6,-7.8,6,170,"OVC",8,"KMSP 201622Z 17006KT 8SM -SN OVC016 M06/M08 A2964 RMK AO2 SNB21 P0000 T10561078",2023.02.20-10.55.01
"METAR","KMSP","2023-02-20T17:30:00Z",-3.3,-5.6,7,170,"OVC",9,"KMSP 201730Z 17007KT 9SM OVC014 M03/M06 A2960 RMK AO2 SNE30 P0001 T10331056",2023.02.20-11.55.01
"METAR","KMSP","2023-02-20T18:14:00Z",-1.1,-4.4,7,220,"OVC",9,"KMSP 201814Z 22007KT 9SM OVC014 M01/M04 A2958 RMK AO2 SNE14 P0000 T10111044",2023.02.20-12.55.01
"METAR","KMSP","2023-02-20T18:53:00Z",-0.6,-3.3,11,220,"OVC",10,"KMSP 201853Z 22011KT 10SM OVC013 M01/M03 A2956 RMK AO2 SNE14 SLP022 P0000 T10061033",2023.02.20-13.55.01
"METAR","KMSP","2023-02-20T20:45:00Z",1.1,-2.2,10,250,"OVC",10,"KMSP 202045Z 25010G15KT 10SM OVC016 01/M02 A2953 RMK AO2 T00111022",2023.02.20-14.55.01
"METAR","KMSP","2023-02-20T21:33:00Z",1.7,-2.2,13,250,"OVC",10,"KMSP 202133Z 25013G25KT 10SM BKN018 OVC029 02/M02 A2954 RMK AO2 T00171022",2023.02.20-15.55.01
"METAR","KMSP","2023-02-20T21:53:00Z",1.7,-2.2,12,260,"OVC",10,"KMSP 202153Z 26012G28KT 10SM OVC019 02/M02 A2953 RMK AO2 PK WND 24028/2150 SLP011 T00171022",2023.02.20-16.55.01
"METAR","KMSP","2023-02-20T22:53:00Z",1.7,-2.8,19,280,"BKN",10,"KMSP 202253Z 28019G33KT 10SM BKN020 BKN024 BKN028 02/M03 A2953 RMK AO2 PK WND 28033/2253 SLP012 T00171028",2023.02.20-17.55.01
"METAR","KMSP","2023-02-21T00:31:00Z",-1.1,-6.1,15,270,"BKN",10,"KMSP 210031Z 27015G34KT 10SM BKN028 BKN034 M01/M06 A2957 RMK AO2 PK WND 27034/0025 T10111061",2023.02.20-18.55.01
"METAR","KMSP","2023-02-21T01:19:00Z",-3.3,-7.8,14,280,"BKN",10,"KMSP 210119Z 28014G35KT 10SM BKN024 M03/M08 A2958 RMK AO2 PK WND 27039/0106 T10331078",2023.02.20-19.55.01
"METAR","KMSP","2023-02-21T02:45:00Z",-8.3,-12.8,17,300,"OVC",10,"KMSP 210245Z 30017G30KT 10SM -SN OVC025 M08/M13 A2965 RMK AO2 PK WND 30042/0155 SNB0154E12B42 P0000 T10831128",2023.02.20-20.55.01
"METAR","KMSP","2023-02-21T03:21:00Z",-9.4,-13.9,16,290,"OVC",9,"KMSP 210321Z 29016G28KT 9SM OVC024 M09/M14 A2965 RMK AO2 PK WND 30039/0255 SNE19 P0000 T10941139",2023.02.20-21.55.01
"METAR","KMSP","2023-02-21T04:37:00Z",-11.1,-15.6,16,290,"OVC",10,"KMSP 210437Z 29016G28KT 10SM SCT024 OVC040 M11/M16 A2968 RMK AO2 PK WND 29030/0421 T11111156",2023.02.20-22.55.01
"METAR","KMSP","2023-02-21T04:53:00Z",-11.1,-15.6,14,280,"OVC",10,"KMSP 210453Z 28014G28KT 10SM FEW022 OVC040 M11/M16 A2968 RMK AO2 PK WND 29030/0421 SLP065 T11111156",2023.02.20-23.55.01
"METAR","KMSP","2023-02-21T05:53:00Z",-12.2,-16.7,14,290,"SCT",10,"KMSP 210553Z 29014G27KT 10SM FEW022 SCT043 M12/M17 A2969 RMK AO2 PK WND 30031/0523 SLP070 4/005 60000 T11221167 11006 21122 400171122 53013",2023.02.21-00.55.01
"METAR","KMSP","2023-02-21T06:53:00Z",-12.8,-17.2,12,290,"FEW",10,"KMSP 210653Z 29012G25KT 10SM FEW022 FEW044 M13/M17 A2972 RMK AO2 SLP078 T11281172",2023.02.21-01.55.01
"METAR","KMSP","2023-02-21T07:53:00Z",-13.3,-17.2,12,290,"FEW",10,"KMSP 210753Z 29012KT 10SM FEW045 M13/M17 A2974 RMK AO2 PK WND 27026/0656 SLP084 T11331172",2023.02.21-02.55.01
"METAR","KMSP","2023-02-21T08:53:00Z",-13.9,-17.2,8,290,"CLR",10,"KMSP 210853Z 29008KT 10SM CLR M14/M17 A2975 RMK AO2 SLP088 T11391172 51019",2023.02.21-03.55.01
"METAR","KMSP","2023-02-21T09:53:00Z",-14.4,-17.8,12,290,"CLR",10,"KMSP 210953Z 29012KT 10SM CLR M14/M18 A2977 RMK AO2 SLP096 T11441178",2023.02.21-04.55.01
"METAR","KMSP","2023-02-21T10:53:00Z",-15,-18.3,9,310,"CLR",10,"KMSP 211053Z 31009KT 10SM CLR M15/M18 A2977 RMK AO2 SLP096 T11501183",2023.02.21-05.55.01
"METAR","KMSP","2023-02-21T11:53:00Z",-15,-18.3,12,280,"CLR",10,"KMSP 211153Z 28012KT 10SM CLR M15/M18 A2981 RMK AO2 SLP110 4/005 70012 T11501183 11122 21150 53020",2023.02.21-06.55.01
"METAR","KMSP","2023-02-21T12:53:00Z",-16.1,-19.4,8,290,"SCT",10,"KMSP 211253Z 29008KT 10SM SCT250 M16/M19 A2984 RMK AO2 SLP120 T11611194",2023.02.21-07.55.01
"METAR","KMSP","2023-02-21T13:53:00Z",-16.1,-18.9,4,310,"BKN",10,"KMSP 211353Z 31004KT 10SM BKN250 M16/M19 A2985 RMK AO2 SLP124 T11611189",2023.02.21-08.55.01
"METAR","KMSP","2023-02-21T14:53:00Z",-15,-18.3,5,320,"BKN",10,"KMSP 211453Z 32005KT 10SM BKN250 M15/M18 A2984 RMK AO2 SLP123 T11501183 50009",2023.02.21-09.55.01
"METAR","KMSP","2023-02-21T15:53:00Z",-13.9,-17.8,3,0,"BKN",10,"KMSP 211553Z VRB03KT 10SM FEW100 BKN250 M14/M18 A2984 RMK AO2 SLP122 T11391178",2023.02.21-10.55.01
"METAR","KMSP","2023-02-21T16:53:00Z",-13.3,-16.7,0,0,"BKN",10,"KMSP 211653Z 00000KT 10SM SCT150 BKN200 BKN250 M13/M17 A2983 RMK AO2 SLP121 T11331167",2023.02.21-11.55.01
"METAR","KMSP","2023-02-21T17:53:00Z",-12.2,-17.2,0,0,"BKN",10,"KMSP 211753Z 00000KT 10SM FEW150 FEW200 BKN250 M12/M17 A2984 RMK AO2 SLP122 4/004 T11221172 11111 21161 55002",2023.02.21-12.55.01
"METAR","KMSP","2023-02-21T18:53:00Z",-11.7,-17.2,5,140,"OVC",10,"KMSP 211853Z 14005KT 10SM BKN080 BKN150 OVC250 M12/M17 A2979 RMK AO2 SLP106 VIRGA T11171172",2023.02.21-13.55.01
"METAR","KMSP","2023-02-21T20:44:00Z",-10.6,-15.6,6,140,"OVC",2,"KMSP 212044Z 14006KT 2SM -SN BKN029 OVC038 M11/M16 A2978 RMK AO2 SFC VIS 6 SNB41 P0000 T11061156",2023.02.21-14.55.01
"METAR","KMSP","2023-02-21T21:40:00Z",-11.1,-13.9,6,140,"OVC",1,"KMSP 212140Z 14006KT 1SM R30L/5000V6000FT -SN OVC012 M11/M14 A2978 RMK AO2 SFC VIS 1 1/4 P0001 T11111139",2023.02.21-15.55.01
"METAR","KMSP","2023-02-21T22:30:00Z",-11.1,-13.3,5,100,"OVX",0.75,"KMSP 212230Z 10005KT 3/4SM R30L/4000V5000FT -SN BR VV009 M11/M13 A2978 RMK AO2 TWR VIS 1 P0002 T11111133",2023.02.21-16.55.01
"METAR","KMSP","2023-02-21T23:35:00Z",-10.6,-13.3,6,90,"OVC",3,"KMSP 212335Z 09006KT 3SM -SN BKN010 OVC026 M11/M13 A2979 RMK AO2 P0002 T11061133",2023.02.21-17.55.01
"METAR","KMSP","2023-02-21T23:53:00Z",-10.6,-13.3,6,60,"OVC",1.5,"KMSP 212353Z 06006KT 1 1/2SM -SN OVC024 M11/M13 A2979 RMK AO2 TWR VIS 3 SLP106 4/005 P0003 60009 T11061133 11100 21122 53003",2023.02.21-18.55.01
"METAR","KMSP","2023-02-22T00:53:00Z",-10,-12.2,6,60,"OVC",1.5,"KMSP 220053Z 06006KT 1 1/2SM -SN BR SCT017 OVC024 M10/M12 A2981 RMK AO2 SFC VIS 1 3/4 SLP112 P0003 T11001122",2023.02.21-19.55.01
"METAR","KMSP","2023-02-22T02:41:00Z",-10,-12.8,8,50,"OVC",3,"KMSP 220241Z 05008G18KT 3SM -SN FEW024 BKN037 OVC060 M10/M13 A2983 RMK AO2 SFC VIS 7 P0001 T11001128",2023.02.21-20.55.01
"METAR","KMSP","2023-02-22T03:23:00Z",-10,-12.2,9,40,"OVC",2,"KMSP 220323Z 04009KT 2SM -SN BR BKN030 OVC060 M10/M12 A2984 RMK AO2 P0001 T11001122",2023.02.21-21.55.01
"METAR","KMSP","2023-02-22T04:37:00Z",-9.4,-11.7,10,40,"OVX",1,"KMSP 220437Z 04010KT 1SM R30L/P6000FT -SN BR VV012 M09/M12 A2986 RMK AO2 P0003 T10941117",2023.02.21-22.55.01
"METAR","KMSP","2023-02-22T05:33:00Z",-9.4,-11.7,11,30,"OVC",1.5,"KMSP 220533Z 03011KT 1 1/2SM -SN BR OVC015 M09/M12 A2986 RMK AO2 P0003 T10941117",2023.02.21-23.55.01
"METAR","KMSP","2023-02-22T06:51:00Z",-9,-12,13,40,"OVC",2,"KMSP 220651Z 04013KT 2SM -SN BR OVC022 M09/M12 A2986 RMK AO2 P0002",2023.02.22-00.55.01
"METAR","KMSP","2023-02-22T07:39:00Z",-9.4,-11.7,12,30,"OVC",1.5,"KMSP 220739Z 03012KT 1 1/2SM -SN BR OVC020 M09/M12 A2987 RMK AO2 P0001 T10941117",2023.02.22-01.55.01
"METAR","KMSP","2023-02-22T08:46:00Z",-10,-12.2,13,40,"OVC",1.25,"KMSP 220846Z 04013KT 1 1/4SM -SN BR OVC015 M10/M12 A2985 RMK AO2 P0002 T11001122",2023.02.22-02.55.01
"METAR","KMSP","2023-02-22T09:12:00Z",-10,-12.2,15,40,"OVC",2,"KMSP 220912Z 04015KT 2SM -SN BR OVC020 M10/M12 A2985 RMK AO2 P0000 T11001122",2023.02.22-03.55.01
"METAR","KMSP","2023-02-22T09:53:00Z",-10,-12.8,11,40,"OVC",2.5,"KMSP 220953Z 04011G21KT 2 1/2SM -SN OVC026 M10/M13 A2987 RMK AO2 SLP133 P0001 T11001128",2023.02.22-04.55.01
"METAR","KMSP","2023-02-22T11:15:00Z",-10,-12.8,15,40,"OVC",4,"KMSP 221115Z 04015G22KT 4SM -SN OVC032 M10/M13 A2988 RMK AO2 PK WND 04026/1057 P0000 T11001128",2023.02.22-05.55.01
"METAR","KMSP","2023-02-22T12:32:00Z",-10,-13.3,14,50,"OVC",7,"KMSP 221232Z 05014KT 7SM -SN OVC027 M10/M13 A2989 RMK AO2 SNE12B32 P0001 T11001133",2023.02.22-06.55.02
"METAR","KMSP","2023-02-22T13:01:00Z",-10,-13.3,18,30,"OVC",8,"KMSP 221301Z 03018G27KT 8SM -SN OVC036 M10/M13 A2989 RMK AO2 PK WND 04027/1301 DRSN P0000 T11001133",2023.02.22-07.55.01
"METAR","KMSP","2023-02-22T14:38:00Z",-8.9,-12.2,14,40,"BKN",8,"KMSP 221438Z 04014G24KT 8SM SCT016 BKN046 BKN180 M09/M12 A2992 RMK AO2 SNE37 DRSN P0000 T10891122",2023.02.22-08.55.01
"METAR","KMSP","2023-02-22T15:28:00Z",-8.9,-12.8,14,40,"OVC",10,"KMSP 221528Z 04014KT 10SM -SN FEW021 OVC047 M09/M13 A2991 RMK AO2 SNB28 DRSN P0000 T10891128",2023.02.22-09.55.01
"METAR","KMSP","2023-02-22T16:30:00Z",-7.8,-12.2,17,50,"OVC",10,"KMSP 221630Z 05017G28KT 10SM BKN024 OVC050 M08/M12 A2991 RMK AO2 PK WND 06028/1629 SNE24 DRSN P0000 T10781122",2023.02.22-10.55.01
"METAR","KMSP","2023-02-22T16:53:00Z",-7.8,-12.2,17,40,"OVC",10,"KMSP 221653Z 04017G26KT 10SM BKN024 BKN050 OVC250 M08/M12 A2987 RMK AO2 PK WND 06028/1629 SNE24 SLP132 DRSN P0000 T10781122",2023.02.22-11.55.01
"METAR","KMSP","2023-02-22T17:53:00Z",-7.2,-12.2,17,60,"OVC",10,"KMSP 221753Z 06017G30KT 10SM BKN025 OVC050 M07/M12 A2987 RMK AO2 PK WND 05030/1748 SLP131 DRSN 4/007 60001 T10721122 11072 21100 56013",2023.02.22-12.55.01
"METAR","KMSP","2023-02-22T19:27:00Z",-6.7,-11.7,17,60,"OVC",3,"KMSP 221927Z 06017G28KT 3SM -SN OVC026 M07/M12 A2983 RMK AO2 PK WND 03028/1855 SFC VIS 7 SNB26 DRSN P0000 T10671117",2023.02.22-13.55.01
"METAR","KMSP","2023-02-22T19:53:00Z",-6.7,-10.6,15,50,"OVC",1,"KMSP 221953Z 05015G29KT 1SM R30L/P6000FT -SN BKN023 OVC028 M07/M11 A2983 RMK AO2 PK WND 05033/1934 SFC VIS 1 1/2 SNB26 SLP116 DRSN P0000 T10671106",2023.02.22-14.55.01
"METAR","KMSP","2023-02-22T21:05:00Z",-6.1,-9.4,14,40,"OVX",0.75,"KMSP 222105Z 04014G26KT 3/4SM R30L/4500V6000FT -SN VV013 M06/M09 A2982 RMK AO2 PK WND 04026/2058 TWR VIS 1 DRSN P0000 T10611094",2023.02.22-15.55.01
"METAR","KMSP","2023-02-22T22:49:00Z",-6,-8,14,40,"OVX",1,"KMSP 222249Z 04014G23KT 1SM R30L/5500VP6000FT -SN BLSN VV016 M06/M08 A2980 RMK AO2 PK WND 06028/2233 P0003",2023.02.22-16.55.01
"METAR","KMSP","2023-02-22T23:31:00Z",-6.1,-8.9,15,40,"OVC",2,"KMSP 222331Z 04015G21KT 2SM -SN BLSN SCT016 OVC023 M06/M09 A2982 RMK AO2 SFC VIS 2 1/2 P0001 T10611089",2023.02.22-17.55.01
"METAR","KMSP","2023-02-23T00:07:00Z",-6.7,-8.9,14,40,"OVC",2,"KMSP 230007Z 04014G23KT 2SM -SN BLSN FEW017 BKN038 OVC055 M07/M09 A2984 RMK AO2 SFC VIS 4 P0000 T10671089",2023.02.22-18.55.01
"METAR","KMSP","2023-02-23T01:16:00Z",-6.7,-9.4,19,30,"OVC",1.75,"KMSP 230116Z 03019G30KT 1 3/4SM -SN BLSN OVC020 M07/M09 A2983 RMK AO2 PK WND 03030/0115 TWR VIS 2 P0000 T10671094",2023.02.22-19.55.01
"METAR","KMSP","2023-02-23T02:39:00Z",-7.2,-9.4,18,40,"OVC",1.25,"KMSP 230239Z 04018G28KT 1 1/4SM -SN BLSN BKN017 OVC023 M07/M09 A2983 RMK AO2 PK WND 06031/0155 SFC VIS 2 1/2 P0002 T10721094",2023.02.22-20.55.01
"METAR","KMSP","2023-02-23T03:10:00Z",-7.2,-10,17,40,"OVC",5,"KMSP 230310Z 04017G26KT 5SM -SN FEW016 BKN039 OVC065 M07/M10 A2985 RMK AO2 PK WND 05026/0305 P0000 T10721100",2023.02.22-21.55.01
"METAR","KMSP","2023-02-23T04:46:00Z",-7.2,-10.6,16,40,"OVC",1.75,"KMSP 230446Z 04016G31KT 1 3/4SM -SN BLSN FEW018 OVC026 M07/M11 A2982 RMK AO2 PK WND 04032/0433 P0000 T10721106",2023.02.22-22.55.01
"METAR","KMSP","2023-02-23T05:27:00Z",-7.8,-10,14,40,"OVC",1.5,"KMSP 230527Z 04014G30KT 1 1/2SM -SN BLSN OVC020 M08/M10 A2983 RMK AO2 PK WND 05030/0518 SFC VIS 2 P0002 T10781100",2023.02.22-23.55.01
"METAR","KMSP","2023-02-23T06:34:00Z",-8.3,-10.6,17,40,"OVX",0.75,"KMSP 230634Z 04017G29KT 3/4SM R30L/5000VP6000FT -SN BLSN VV008 M08/M11 A2986 RMK AO2 PK WND 05029/0628 TWR VIS 1 P0003 T10831106",2023.02.23-00.55.01
"METAR","KMSP","2023-02-23T07:23:00Z",-8.9,-11.1,13,40,"OVX",0.75,"KMSP 230723Z 04013G23KT 3/4SM R30L/P6000FT -SN BLSN VV010 M09/M11 A2987 RMK AO2 PK WND 05026/0710 SFC VIS 1 P0002 T10891111",2023.02.23-01.55.01
"METAR","KMSP","2023-02-23T08:50:00Z",-9,-12,18,50,"OVC",5,"KMSP 230850Z 05018G26KT 5SM -SN BLSN BKN019 OVC025 M09/M12 A2983 RMK AO2 PK WND 04031/0815 P0001",2023.02.23-02.55.01
"METAR","KMSP","2023-02-23T08:53:00Z",-9.4,-12.2,15,60,"OVC",5,"KMSP 230853Z 06015G26KT 5SM -SN BLSN BKN019 OVC025 M09/M12 A2983 RMK AO2 PK WND 04031/0815 SLP115 P0001 60010 T10941122 56018",2023.02.23-03.55.01
"METAR","KMSP","2023-02-23T10:43:00Z",-8.3,-12.8,16,50,"OVC",4,"KMSP 231043Z 05016G27KT 4SM -SN BKN023 OVC029 M08/M13 A2981 RMK AO2 PK WND 07030/1004 P0000 T10831128",2023.02.23-04.55.01
"METAR","KMSP","2023-02-23T11:35:00Z",-8.9,-10.6,11,50,"OVX",0.5,"KMSP 231135Z 05011KT 1/2SM R30L/4000V4500FT SN BLSN VV004 M09/M11 A2987 RMK AO2 TWR VIS 1 4/009 P0006 T10891106",2023.02.23-05.55.01
"METAR","KMSP","2023-02-23T12:37:00Z",-8.3,-10.6,12,40,"OVX",0.5,"KMSP 231237Z 04012KT 1/2SM R30L/4000V5500FT SN BLSN VV005 M08/M11 A2987 RMK AO2 TWR VIS 1 SNINCR 1/11 P0007 T10831106",2023.02.23-06.55.01
"METAR","KMSP","2023-02-23T13:29:00Z",-9.4,-11.1,10,10,"OVX",0.75,"KMSP 231329Z 01010KT 3/4SM R30L/4000VP6000FT -SN BLSN VV010 M09/M11 A2989 RMK AO2 P0002 T10941111",2023.02.23-07.55.01
"METAR","KMSP","2023-02-23T14:41:00Z",-9.4,-12.2,11,10,"OVC",0.75,"KMSP 231441Z 01011KT 3/4SM R30L/2400VP6000FT -SN BLSN OVC016 M09/M12 A2992 RMK AO2 SFC VIS 1 1/4 P0001 T10941122",2023.02.23-08.55.01
"METAR","KMSP","2023-02-23T15:34:00Z",-9.4,-12.2,15,10,"OVC",1.25,"KMSP 231534Z COR 01015KT 1 1/4SM -SN BLSN OVC016 M09/M12 A2996 RMK AO2 SFC VIS 1 1/2 VIS 3/4V1 1/2 P0001 T10941122",2023.02.23-09.55.01
"METAR","KMSP","2023-02-23T16:35:00Z",-8.9,-12.2,17,360,"OVC",4,"KMSP 231635Z 36017G23KT 4SM -SN FEW017 BKN028 OVC034 M09/M12 A2999 RMK AO2 P0001 T10891122",2023.02.23-10.55.01
"METAR","KMSP","2023-02-23T17:41:00Z",-9.4,-13.3,14,350,"OVC",2.5,"KMSP 231741Z 35014G21KT 2 1/2SM R30L/5000VP6000FT -SN BKN017 OVC250 M09/M13 A3004 RMK AO2 P0000 T10941133",2023.02.23-11.55.01
"METAR","KMSP","2023-02-23T17:53:00Z",-10,-13.9,12,340,"OVC",3,"KMSP 231753Z 34012KT 3SM -SN BKN021 BKN028 OVC033 M10/M14 A3004 RMK AO2 SLP190 4/014 P0000 60015 T11001139 11083 21100 53036",2023.02.23-12.55.01
"METAR","KMSP","2023-02-23T18:53:00Z",-10.6,-14.4,12,350,"OVC",3,"KMSP 231853Z 35012G23KT 3SM -SN OVC022 M11/M14 A3009 RMK AO2 SLP208 P0001 T11061144",2023.02.23-13.55.01
"METAR","KMSP","2023-02-23T20:28:00Z",-10.6,-15,14,360,"OVC",7,"KMSP 232028Z 36014KT 7SM -SN BKN023 OVC031 M11/M15 A3016 RMK AO2 P0000 T11061150",2023.02.23-14.55.01
"METAR","KMSP","2023-02-23T21:26:00Z",-10.6,-16.1,13,350,"BKN",9,"KMSP 232126Z 35013KT 9SM FEW025 BKN035 BKN043 BKN150 M11/M16 A3020 RMK AO2 SNE26 P0000 T11061161",2023.02.23-15.55.01
"METAR","KMSP","2023-02-23T21:53:00Z",-10.6,-15.6,8,340,"BKN",9,"KMSP 232153Z 34008KT 9SM FEW025 SCT035 BKN150 BKN250 M11/M16 A3022 RMK AO2 SNE26 SLP250 P0000 T11061156",2023.02.23-16.55.01
"METAR","KMSP","2023-02-23T22:53:00Z",-11.7,-16.7,10,320,"BKN",9,"KMSP 232253Z 32010G18KT 9SM SCT024 SCT033 BKN042 BKN150 M12/M17 A3025 RMK AO2 PRESRR SLP263 T11171167",2023.02.23-17.55.01
"METAR","KMSP","2023-02-23T23:53:00Z",-12.2,-17.2,7,320,"BKN",9,"KMSP 232353Z 32007KT 9SM SCT025 BKN040 BKN150 M12/M17 A3031 RMK AO2 PRESRR SLP284 4/013 60001 T11221172 11094 21122 53045",2023.02.23-18.55.01
"METAR","KMSP","2023-02-24T01:24:00Z",-13.3,-17.8,12,320,"BKN",9,"KMSP 240124Z 32012KT 9SM FEW020 SCT025 BKN039 M13/M18 A3039 RMK AO2 T11331178",2023.02.23-19.55.01
"METAR","KMSP","2023-02-24T01:53:00Z",-13.9,-18.3,7,330,"SCT",10,"KMSP 240153Z 33007KT 10SM FEW020 SCT025 SCT040 SCT250 M14/M18 A3042 RMK AO2 SLP321 T11391183",2023.02.23-20.55.02
"METAR","KMSP","2023-02-24T02:53:00Z",-15,-18.9,6,280,"SCT",10,"KMSP 240253Z 28006KT 10SM FEW020 SCT250 M15/M19 A3047 RMK AO2 SLP337 T11501189 51050",2023.02.23-21.55.01
"METAR","KMSP","2023-02-24T03:53:00Z",-15.6,-18.3,6,300,"FEW",10,"KMSP 240353Z 30006KT 10SM FEW250 M16/M18 A3050 RMK AO2 SLP350 T11561183",2023.02.23-22.55.01
"METAR","KMSP","2023-02-24T04:53:00Z",-16.1,-18.9,5,290,"FEW",10,"KMSP 240453Z 29005KT 10SM FEW250 M16/M19 A3054 RMK AO2 SLP362 T11611189",2023.02.23-23.55.01
"METAR","KMSP","2023-02-24T05:53:00Z",-16.7,-19.4,5,290,"FEW",10,"KMSP 240553Z 29005KT 10SM FEW001 FEW250 M17/M19 A3055 RMK AO2 SLP368 4/013 P0000 60000 T11671194 11122 21178 410781178 51029",2023.02.24-00.55.01
"METAR","KMSP","2023-02-24T06:53:00Z",-17.2,-19.4,4,260,"SCT",6,"KMSP 240653Z 26004KT 6SM R30L/3500VP6000FT BR FEW002 SCT250 M17/M19 A3058 RMK AO2 SLP376 T11721194 $",2023.02.24-01.55.01
"METAR","KMSP","2023-02-24T07:53:00Z",-18.3,-20.6,4,280,"FEW",9,"KMSP 240753Z 28004KT 9SM R30L/3000VP6000FT FEW002 FEW250 M18/M21 A3060 RMK AO2 SLP383 T11831206 $",2023.02.24-02.55.01
"METAR","KMSP","2023-02-24T08:53:00Z",-19.4,-21.7,3,240,"FEW",10,"KMSP 240853Z 24003KT 10SM R30L/2600VP6000FT FEW002 M19/M22 A3062 RMK AO2 SLP392 I1000 I3000 T11941217 53023 $",2023.02.24-03.55.01
"METAR","KMSP","2023-02-24T09:53:00Z",-20,-22.8,4,220,"FEW",10,"KMSP 240953Z 22004KT 10SM R30L/3500VP6000FT FEW002 FEW250 M20/M23 A3062 RMK AO2 SLP391 T12001228 $",2023.02.24-04.55.01
"METAR","KMSP","2023-02-24T10:53:00Z",-21.1,-23.3,6,240,"FEW",8,"KMSP 241053Z 24006KT 8SM R30L/4000VP6000FT FEW002 M21/M23 A3065 RMK AO2 PRESRR SLP402 T12111233 $",2023.02.24-05.55.01
"METAR","KMSP","2023-02-24T11:53:00Z",-21.7,-24.4,7,230,"FEW",9,"KMSP 241153Z 23007KT 9SM R30L/5000VP6000FT FEW002 M22/M24 A3071 RMK AO2 SLP423 4/013 70016 I6000 T12171244 11167 21217 53028 $",2023.02.24-06.55.01
"METAR","KMSP","2023-02-24T12:53:00Z",-21.7,-23.3,0,0,"BKN",9,"KMSP 241253Z 00000KT 9SM R30L/2800VP6000FT SCT002 BKN200 M22/M23 A3069 RMK AO2 SLP417 T12171233 $",2023.02.24-07.55.01
"METAR","KMSP","2023-02-24T13:53:00Z",-20.6,-23.3,0,0,"BKN",9,"KMSP 241353Z 00000KT 9SM BKN250 M21/M23 A3069 RMK AO2 SLP417 VIS LWR S-SW T12061233 $",2023.02.24-08.55.01
"METAR","KMSP","2023-02-24T14:53:00Z",-21.1,-22.2,3,160,"SCT",9,"KMSP 241453Z 16003KT 9SM SCT250 M21/M22 A3069 RMK AO2 SLP417 T12111222 56006 $",2023.02.24-09.55.01
"METAR","KMSP","2023-02-24T15:53:00Z",-16.7,-20.6,0,0,"SCT",10,"KMSP 241553Z 00000KT 10SM SCT250 M17/M21 A3068 RMK AO2 SLP413 T11671206 $",2023.02.24-10.55.01
"METAR","KMSP","2023-02-24T16:53:00Z",-16.1,-18.9,4,200,"BKN",10,"KMSP 241653Z 20004KT 10SM BKN250 M16/M19 A3066 RMK AO2 SLP408 T11611189 $",2023.02.24-11.55.01
"METAR","KMSP","2023-02-24T17:53:00Z",-15,-18.9,4,160,"OVC",10,"KMSP 241753Z 16004KT 10SM FEW170 OVC250 M15/M19 A3066 RMK AO2 SLP405 4/012 T11501189 11150 21222 56011 $",2023.02.24-12.55.01
"METAR","KMSP","2023-02-24T18:53:00Z",-13.3,-18.9,4,260,"OVC",10,"KMSP 241853Z 26004KT 10SM SCT070 OVC250 M13/M19 A3064 RMK AO2 SLP398 T11331189 $",2023.02.24-13.55.01
"METAR","KMSP","2023-02-24T19:53:00Z",-12.2,-18.3,0,0,"OVC",10,"KMSP 241953Z 00000KT 10SM FEW075 SCT150 OVC250 M12/M18 A3061 RMK AO2 SLP388 T11221183 $",2023.02.24-14.55.01
"METAR","KMSP","2023-02-24T20:53:00Z",-12.8,-18.9,3,240,"OVC",10,"KMSP 242053Z 24003KT 10SM BKN075 BKN150 OVC250 M13/M19 A3060 RMK AO2 SLP386 T11281189 56018 $",2023.02.24-15.55.01
"METAR","KMSP","2023-02-24T22:28:00Z",-12.2,-18.3,7,180,"OVC",10,"KMSP 242228Z 18007KT 10SM -SN BKN065 OVC250 M12/M18 A3057 RMK AO2 SNB28 P0000 T11221183 $",2023.02.24-16.55.01
"METAR","KMSP","2023-02-24T22:53:00Z",-12.2,-18.3,5,150,"OVC",9,"KMSP 242253Z 15005KT 9SM -SN BKN065 OVC250 M12/M18 A3056 RMK AO2 SNB28 SLP374 P0000 T11221183 $",2023.02.24-17.55.01
"METAR","KMSP","2023-02-24T23:53:00Z",-12.8,-18.9,5,170,"OVC",9,"KMSP 242353Z 17005KT 9SM -SN BKN055 BKN070 OVC250 M13/M19 A3053 RMK AO2 SLP363 P0000 60000 T11281189 11117 21150 58023 $",2023.02.24-18.55.01
"METAR","KMSP","2023-02-25T01:41:00Z",-13.3,-18.9,4,150,"OVC",10,"KMSP 250141Z 15004KT 10SM -SN BKN055 OVC080 M13/M19 A3048 RMK AO2 SNB41 P0000 T11331189 $",2023.02.24-19.55.01
"METAR","KMSP","2023-02-25T02:17:00Z",-13.3,-18.3,3,160,"OVC",10,"KMSP 250217Z 16003KT 10SM -SN OVC048 M13/M18 A3047 RMK AO2 SNB17 P0000 T11331183 $",2023.02.24-20.55.01
"METAR","KMSP","2023-02-25T02:53:00Z",-12.8,-18.3,0,0,"OVC",6,"KMSP 250253Z 00000KT 6SM -SN OVC044 M13/M18 A3047 RMK AO2 SNB17 SLP341 P0000 60000 T11281183 56022 $",2023.02.24-21.55.01
"METAR","KMSP","2023-02-25T03:53:00Z",-13.3,-17.2,0,0,"OVC",5,"KMSP 250353Z 00000KT 5SM -SN OVC034 M13/M17 A3043 RMK AO2 SLP326 P0000 T11331172 $",2023.02.24-22.55.01
"METAR","KMSP","2023-02-25T04:53:00Z",-12.8,-16.7,4,190,"OVC",8,"KMSP 250453Z 19004KT 8SM -SN FEW025 BKN031 OVC080 M13/M17 A3041 RMK AO2 SLP320 P0000 T11281167 $",2023.02.24-23.55.01
"METAR","KMSP","2023-02-25T05:53:00Z",-12.8,-16.1,3,160,"OVC",7,"KMSP 250553Z 16003KT 7SM -SN OVC022 M13/M16 A3038 RMK AO2 SLP308 4/012 P0000 60000 T11281161 11128 21133 411171222 56029 $",2023.02.25-00.55.01
"METAR","KMSP","2023-02-25T07:32:00Z",-12.8,-16.1,4,220,"OVC",10,"KMSP 250732Z 22004KT 10SM -SN OVC016 M13/M16 A3035 RMK AO2 SNB32 P0000 T11281161 $",2023.02.25-01.55.01
"METAR","KMSP","2023-02-25T07:53:00Z",-12.8,-16.1,5,220,"OVC",9,"KMSP 250753Z 22005KT 9SM -SN OVC016 M13/M16 A3033 RMK AO2 SNB32 SLP292 P0000 T11281161 $",2023.02.25-02.55.01
"METAR","KMSP","2023-02-25T09:12:00Z",-12.8,-16.1,12,230,"OVC",6,"KMSP 250912Z 23012G17KT 6SM -SN OVC014 M13/M16 A3028 RMK AO2 P0000 T11281161 $",2023.02.25-03.55.01
"METAR","KMSP","2023-02-25T09:53:00Z",-13.9,-16.1,8,240,"OVC",8,"KMSP 250953Z 24008KT 8SM -SN OVC013 M14/M16 A3026 RMK AO2 SLP267 P0000 T11391161 $",2023.02.25-04.55.01
"METAR","KMSP","2023-02-25T11:21:00Z",-14.4,-16.7,4,220,"SCT",9,"KMSP 251121Z 22004KT 9SM SCT013 M14/M17 A3023 RMK AO2 SNE21 P0000 T11441167 $",2023.02.25-05.55.01
"METAR","KMSP","2023-02-25T11:53:00Z",-14.4,-16.7,3,200,"FEW",10,"KMSP 251153Z 20003KT 10SM FEW013 M14/M17 A3023 RMK AO2 SNE21 SLP256 4/012 P0000 60000 T11441167 11128 21144 56020 /",2023.02.25-06.55.01
"METAR","KMSP","2023-02-25T12:53:00Z",-15.6,-17.8,5,140,"CLR",9,"KMSP 251253Z 14005KT 9SM CLR M16/M18 A3021 RMK AO2 SLP251 T11561178 $",2023.02.25-07.55.01
"METAR","KMSP","2023-02-25T13:53:00Z",-15.6,-17.2,6,160,"CLR",10,"KMSP 251353Z 16006KT 10SM CLR M16/M17 A3018 RMK AO2 SLP241 T11561172 $",2023.02.25-08.55.02
"METAR","KMSP","2023-02-25T14:53:00Z",-13.3,-15.6,6,160,"CLR",10,"KMSP 251453Z 16006KT 10SM CLR M13/M16 A3014 RMK AO2 SLP226 T11331156 58028 $",2023.02.25-09.55.02
"METAR","KMSP","2023-02-25T15:53:00Z",-11.7,-14.4,6,170,"CLR",10,"KMSP 251553Z 17006KT 10SM CLR M12/M14 A3012 RMK AO2 SLP218 T11171144",2023.02.25-10.55.02
"METAR","KMSP","2023-02-25T16:53:00Z",-9.4,-13.9,10,170,"CLR",10,"KMSP 251653Z 17010KT 10SM CLR M09/M14 A3009 RMK AO2 SLP206 T10941139",2023.02.25-11.55.01
"METAR","KMSP","2023-02-25T17:53:00Z",-8.3,-12.8,9,180,"CLR",10,"KMSP 251753Z 18009KT 10SM CLR M08/M13 A3006 RMK AO2 SLP196 4/012 T10831128 11083 21161 58028",2023.02.25-12.55.01
"METAR","KMSP","2023-02-25T18:53:00Z",-6.1,-11.7,11,220,"CLR",10,"KMSP 251853Z 22011G18KT 10SM CLR M06/M12 A3002 RMK AO2 SLP184 T10611117",2023.02.25-13.55.01
"METAR","KMSP","2023-02-25T19:53:00Z",-5,-11.7,14,230,"CLR",10,"KMSP 251953Z 23014G22KT 10SM CLR M05/M12 A2999 RMK AO2 SLP172 T10501117",2023.02.25-14.55.01
"METAR","KMSP","2023-02-25T20:53:00Z",-4.4,-11.1,12,240,"CLR",10,"KMSP 252053Z 24012KT 10SM CLR M04/M11 A2998 RMK AO2 SLP169 T10441111 56024",2023.02.25-15.55.01
"METAR","KMSP","2023-02-25T21:53:00Z",-3.3,-10,12,250,"CLR",10,"KMSP 252153Z 25012G25KT 10SM CLR M03/M10 A2998 RMK AO2 SLP166 T10331100",2023.02.25-16.55.01
"METAR","KMSP","2023-02-25T22:53:00Z",-3.3,-9.4,10,240,"CLR",10,"KMSP 252253Z 24010KT 10SM CLR M03/M09 A2996 RMK AO2 PK WND 25027/2159 SLP161 T10331094",2023.02.25-17.55.01
"METAR","KMSP","2023-02-25T23:53:00Z",-3.9,-9.4,6,240,"FEW",10,"KMSP 252353Z 24006KT 10SM FEW250 M04/M09 A2995 RMK AO2 SLP159 4/012 T10391094 11033 21083 57010",2023.02.25-18.55.01
"METAR","KMSP","2023-02-26T00:53:00Z",-4.4,-9.4,5,220,"FEW",10,"KMSP 260053Z 22005KT 10SM FEW250 M04/M09 A2996 RMK AO2 SLP163 T10441094",2023.02.25-19.55.01
"METAR","KMSP","2023-02-26T01:53:00Z",-5.6,-10,4,250,"FEW",10,"KMSP 260153Z 25004KT 10SM FEW250 M06/M10 A2996 RMK AO2 SLP164 T10561100",2023.02.25-20.55.01
"METAR","KMSP","2023-02-26T02:53:00Z",-6.7,-10,6,260,"CLR",10,"KMSP 260253Z 26006KT 10SM CLR M07/M10 A2996 RMK AO2 SLP164 T10671100 51004",2023.02.25-21.55.01
"METAR","KMSP","2023-02-26T03:53:00Z",-6.7,-11.1,9,270,"CLR",10,"KMSP 260353Z 27009KT 10SM CLR M07/M11 A2998 RMK AO2 SLP169 T10671111",2023.02.25-22.55.01
"METAR","KMSP","2023-02-26T04:53:00Z",-7.8,-12.8,7,280,"CLR",10,"KMSP 260453Z 28007KT 10SM CLR M08/M13 A2998 RMK AO2 SLP168 T10781128",2023.02.25-23.55.02
"METAR","KMSP","2023-02-26T05:53:00Z",-9.4,-14.4,7,300,"CLR",10,"KMSP 260553Z 30007KT 10SM CLR M09/M14 A2999 RMK AO2 SLP170 4/012 T10941144 11039 21100 410331161 51007",2023.02.26-00.55.01
"METAR","KMSP","2023-02-26T06:53:00Z",-11.7,-16.1,4,320,"CLR",10,"KMSP 260653Z 32004KT 10SM CLR M12/M16 A3001 RMK AO2 SLP177 T11171161",2023.02.26-01.55.01
"METAR","KMSP","2023-02-26T07:53:00Z",-10.6,-15.6,3,260,"CLR",10,"KMSP 260753Z 26003KT 10SM CLR M11/M16 A3000 RMK AO2 SLP176 T11061156",2023.02.26-02.55.01
"METAR","KMSP","2023-02-26T08:53:00Z",-11.1,-15.6,0,0,"CLR",10,"KMSP 260853Z 00000KT 10SM CLR M11/M16 A3000 RMK AO2 SLP173 T11111156 50003",2023.02.26-03.55.01
"METAR","KMSP","2023-02-26T09:53:00Z",-13.9,-16.7,0,0,"CLR",10,"KMSP 260953Z 00000KT 10SM CLR M14/M17 A2998 RMK AO2 SLP170 T11391167",2023.02.26-04.55.01
"METAR","KMSP","2023-02-26T10:53:00Z",-12.8,-15.6,0,0,"CLR",7,"KMSP 261053Z 00000KT 7SM CLR M13/M16 A2999 RMK AO2 SLP169 T11281156",2023.02.26-05.55.01
"METAR","KMSP","2023-02-26T11:53:00Z",-14.4,-17.2,4,60,"CLR",9,"KMSP 261153Z 06004KT 9SM CLR M14/M17 A2997 RMK AO2 SLP165 4/012 T11441172 11094 21150 58009",2023.02.26-06.55.01
"METAR","KMSP","2023-02-26T12:53:00Z",-12.2,-15.6,6,210,"CLR",7,"KMSP 261253Z 21006KT 7SM CLR M12/M16 A3002 RMK AO2 SLP181 T11221156",2023.02.26-07.55.01
"METAR","KMSP","2023-02-26T13:53:00Z",-10.6,-15.6,4,80,"FEW",8,"KMSP 261353Z 08004KT 8SM FEW250 M11/M16 A3000 RMK AO2 SLP174 T11061156",2023.02.26-08.55.01
"METAR","KMSP","2023-02-26T14:53:00Z",-9.4,-15,4,60,"FEW",10,"KMSP 261453Z 06004KT 10SM FEW250 M09/M15 A3000 RMK AO2 SLP174 T10941150 51010",2023.02.26-09.55.01
"METAR","KMSP","2023-02-26T15:53:00Z",-8.3,-15,4,130,"FEW",10,"KMSP 261553Z 13004KT 10SM FEW250 M08/M15 A2999 RMK AO2 SLP169 T10831150",2023.02.26-10.55.01
"METAR","KMSP","2023-02-26T16:53:00Z",-6.1,-13.9,5,140,"FEW",10,"KMSP 261653Z 14005KT 10SM FEW250 M06/M14 A2997 RMK AO2 SLP165 T10611139",2023.02.26-11.55.02
"METAR","KMSP","2023-02-26T17:53:00Z",-3.9,-15,11,130,"FEW",10,"KMSP 261753Z 13011KT 10SM FEW250 M04/M15 A2994 RMK AO2 SLP154 4/012 T10391150 11039 21144 58020",2023.02.26-12.55.01
"METAR","KMSP","2023-02-26T18:53:00Z",-2.8,-13.9,10,120,"FEW",10,"KMSP 261853Z 12010KT 10SM FEW250 M03/M14 A2991 RMK AO2 SLP143 T10281139",2023.02.26-13.55.01
"METAR","KMSP","2023-02-26T19:53:00Z",-1.7,-13.3,12,130,"FEW",10,"KMSP 261953Z 13012KT 10SM FEW250 M02/M13 A2987 RMK AO2 SLP127 T10171133",2023.02.26-14.55.01
"METAR","KMSP","2023-02-26T20:53:00Z",0,-12.8,12,120,"SCT",10,"KMSP 262053Z 12012KT 10SM SCT250 00/M13 A2983 RMK AO2 SLP114 T00001128 58038",2023.02.26-15.55.01
"METAR","KMSP","2023-02-26T21:53:00Z",0.6,-12.2,10,130,"SCT",10,"KMSP 262153Z 13010KT 10SM SCT250 01/M12 A2980 RMK AO2 SLP105 T00061122",2023.02.26-16.55.01
"METAR","KMSP","2023-02-26T22:53:00Z",0,-11.1,11,100,"BKN",10,"KMSP 262253Z 10011KT 10SM BKN250 00/M11 A2976 RMK AO2 SLP091 T00001111",2023.02.26-17.55.01
"METAR","KMSP","2023-02-26T23:53:00Z",-1.1,-11.1,12,110,"BKN",10,"KMSP 262353Z 11012KT 10SM BKN250 M01/M11 A2973 RMK AO2 SLP081 4/011 T10111111 10006 21039 58032",2023.02.26-18.55.01
"METAR","KMSP","2023-02-27T00:53:00Z",-1.1,-11.1,10,110,"BKN",10,"KMSP 270053Z 11010G19KT 10SM BKN250 M01/M11 A2968 RMK AO2 SLP065 T10111111",2023.02.26-19.55.01
"METAR","KMSP","2023-02-27T01:53:00Z",-1.7,-11.1,13,120,"BKN",10,"KMSP 270153Z 12013KT 10SM BKN250 M02/M11 A2966 RMK AO2 SLP058 T10171111",2023.02.26-20.55.01
"METAR","KMSP","2023-02-27T02:53:00Z",-1.7,-11.1,12,120,"BKN",10,"KMSP 270253Z 12012KT 10SM BKN250 M02/M11 A2965 RMK AO2 SLP055 T10171111 56025",2023.02.26-21.55.01
"METAR","KMSP","2023-02-27T03:53:00Z",-2.2,-10.6,11,120,"BKN",10,"KMSP 270353Z 12011KT 10SM BKN250 M02/M11 A2961 RMK AO2 SLP039 T10221106",2023.02.26-22.55.01
"METAR","KMSP","2023-02-27T04:53:00Z",-1.1,-10,11,110,"BKN",10,"KMSP 270453Z 11011KT 10SM BKN250 M01/M10 A2958 RMK AO2 SLP028 T10111100",2023.02.26-23.55.01
"METAR","KMSP","2023-02-27T06:48:00Z",1,-6,11,90,"OVC",10,"KMSP 270648Z 09011KT 10SM BKN028 OVC039 01/M06 A2947 RMK AO2",2023.02.27-00.55.01
"METAR","KMSP","2023-02-27T06:53:00Z",1.1,-5.6,11,100,"OVC",10,"KMSP 270653Z 10011KT 10SM BKN028 OVC039 01/M06 A2948 RMK AO2 SLP990 T00111056",2023.02.27-01.55.01
"METAR","KMSP","2023-02-27T07:53:00Z",0.6,-5.6,10,110,"OVC",10,"KMSP 270753Z 11010KT 10SM OVC024 01/M06 A2947 RMK AO2 SLP987 T00061056",2023.02.27-02.55.01
"METAR","KMSP","2023-02-27T08:53:00Z",1.1,-4.4,10,100,"OVC",10,"KMSP 270853Z 10010KT 10SM OVC019 01/M04 A2941 RMK AO2 SLP968 T00111044 58020",2023.02.27-03.55.01
"METAR","KMSP","2023-02-27T09:53:00Z",1.1,-4.4,11,110,"OVC",10,"KMSP 270953Z 11011KT 10SM OVC018 01/M04 A2935 RMK AO2 SLP948 T00111044",2023.02.27-04.55.01
"METAR","KMSP","2023-02-27T11:38:00Z",0,-2.8,9,90,"OVC",4,"KMSP 271138Z 09009KT 4SM FZRA OVC017 00/M03 A2936 RMK AO2 RAE20FZRAB20 P0006 I1004 T00001028",2023.02.27-05.55.01
"METAR","KMSP","2023-02-27T12:24:00Z",0,-2.2,7,80,"OVC",4,"KMSP 271224Z 08007KT 4SM -RA BR OVC013 00/M02 A2935 RMK AO2 FZRAE10RAB10 P0008 I1003 T00001022",2023.02.27-06.55.01
"METAR","KMSP","2023-02-27T12:53:00Z",-0.6,-1.7,7,60,"OVC",5,"KMSP 271253Z 06007KT 5SM -FZRA BR OVC011 M01/M02 A2932 RMK AO2 SLP939 FZRAE10RAB10RAE45FZRAB45 P0013 I1007 T10061017",2023.02.27-07.55.01
"METAR","KMSP","2023-02-27T13:53:00Z",0,-1.7,8,50,"OVC",4,"KMSP 271353Z COR 05008KT 4SM -RA BR OVC010 00/M02 A2933 RMK AO2 RAB53FZRAE53 SLP940 P0003 I1002 T00001017",2023.02.27-08.55.01
"METAR","KMSP","2023-02-27T15:27:00Z",0,-1.7,8,40,"OVC",6,"KMSP 271527Z 04008KT 020V080 6SM -RA BR SCT009 BKN013 OVC018 00/M02 A2933 RMK AO2 P0002 T00001017",2023.02.27-09.55.01
"METAR","KMSP","2023-02-27T16:00:00Z",0,-1.7,6,10,"OVC",6,"KMSP 271600Z 01006KT 6SM -RA BR OVC011 00/M02 A2934 RMK AO2 P0000 T00001017",2023.02.27-10.55.01
"METAR","KMSP","2023-02-27T17:36:00Z",0,-1.1,6,0,"OVC",2.5,"KMSP 271736Z VRB06KT 2 1/2SM R30L/3500VP6000FT -RA BR FEW007 OVC019 00/M01 A2936 RMK AO2 P0007 T00001011",2023.02.27-11.55.01
"METAR","KMSP","2023-02-27T18:34:00Z",0,-0.6,6,350,"OVC",2,"KMSP 271834Z 35006KT 2SM -DZ BR BKN005 BKN014 OVC018 00/M01 A2938 RMK AO2 P0000 T00001006",2023.02.27-12.55.01
"METAR","KMSP","2023-02-27T19:08:00Z",0,-0.6,5,340,"OVC",2.5,"KMSP 271908Z 34005KT 2 1/2SM -DZ BR OVC005 00/M01 A2938 RMK AO2 TWR VIS 3 P0000 T00001006",2023.02.27-13.55.01
"METAR","KMSP","2023-02-27T20:29:00Z",0.6,-0.6,6,320,"OVC",3,"KMSP 272029Z 32006KT 3SM -DZ BR BKN006 OVC010 01/M01 A2941 RMK AO2 P0001 T00061006",2023.02.27-14.55.01
"METAR","KMSP","2023-02-27T21:15:00Z",0.6,-0.6,8,320,"OVC",7,"KMSP 272115Z 32008KT 7SM OVC007 01/M01 A2945 RMK AO2 DZE07 P0000 T00061006",2023.02.27-15.55.01
"METAR","KMSP","2023-02-27T21:53:00Z",0.6,-0.6,7,310,"OVC",6,"KMSP 272153Z 31007KT 6SM BR OVC007 01/M01 A2946 RMK AO2 DZE07 SLP985 P0000 T00061006",2023.02.27-16.55.01
"METAR","KMSP","2023-02-27T23:19:00Z",0.6,-1.1,9,310,"OVC",8,"KMSP 272319Z 31009KT 8SM OVC010 01/M01 A2952 RMK AO2 T00061011",2023.02.27-17.55.01
"METAR","KMSP","2023-02-28T00:34:00Z",1.1,-1.1,9,320,"OVC",10,"KMSP 280034Z 32009KT 10SM OVC016 01/M01 A2958 RMK AO2 T00111011",2023.02.27-18.55.01
"METAR","KMSP","2023-02-28T00:53:00Z",1.1,-1.1,6,320,"OVC",10,"KMSP 280053Z 32006G19KT 10SM OVC017 01/M01 A2959 RMK AO2 SLP027 T00111011",2023.02.27-19.55.01
"METAR","KMSP","2023-02-28T02:32:00Z",0.6,-1.7,9,310,"SCT",10,"KMSP 280232Z 31009KT 10SM SCT015 01/M02 A2963 RMK AO2 T00061017",2023.02.27-20.55.01
"METAR","KMSP","2023-02-28T02:53:00Z",0,-1.7,7,300,"SCT",10,"KMSP 280253Z 30007KT 10SM SCT015 00/M02 A2965 RMK AO2 SLP048 T00001017 51034",2023.02.27-21.55.01
"METAR","KMSP","2023-02-28T03:53:00Z",-0.6,-2.2,7,280,"FEW",8,"KMSP 280353Z 28007KT 8SM FEW015 M01/M02 A2967 RMK AO2 SLP056 T10061022",2023.02.27-22.55.01
"METAR","KMSP","2023-02-28T04:53:00Z",-1.1,-2.8,7,280,"CLR",9,"KMSP 280453Z 28007KT 9SM CLR M01/M03 A2970 RMK AO2 SLP067 T10111028",2023.02.27-23.55.01
"METAR","KMSP","2023-02-28T05:53:00Z",-2.2,-5,4,280,"CLR",10,"KMSP 280553Z 28004KT 10SM CLR M02/M05 A2971 RMK AO2 SLP070 4/010 T10221050 10011 21022 400111022 51021",2023.02.28-00.55.02
"METAR","KMSP","2023-02-28T06:53:00Z",-2.8,-6.1,6,290,"CLR",10,"KMSP 280653Z 29006KT 10SM CLR M03/M06 A2974 RMK AO2 SLP081 T10281061",2023.02.28-01.55.01
"METAR","KMSP","2023-02-28T07:53:00Z",-3.3,-6.7,6,260,"CLR",9,"KMSP 280753Z 26006KT 9SM CLR M03/M07 A2976 RMK AO2 SLP089 T10331067",2023.02.28-02.55.01
"METAR","KMSP","2023-02-28T08:53:00Z",-3.9,-7.2,4,260,"CLR",10,"KMSP 280853Z 26004KT 10SM CLR M04/M07 A2977 RMK AO2 SLP093 T10391072 51022",2023.02.28-03.55.01
"METAR","KMSP","2023-02-28T09:53:00Z",-4.4,-7.8,4,260,"CLR",8,"KMSP 280953Z 26004KT 8SM CLR M04/M08 A2979 RMK AO2 SLP099 T10441078",2023.02.28-04.55.01
"METAR","KMSP","2023-02-28T10:53:00Z",-5.6,-8.3,3,240,"CLR",9,"KMSP 281053Z 24003KT 9SM CLR M06/M08 A2981 RMK AO2 SLP104 T10561083",2023.02.28-05.55.01
"METAR","KMSP","2023-02-28T11:53:00Z",-6.1,-8.9,0,0,"CLR",10,"KMSP 281153Z 00000KT 10SM CLR M06/M09 A2982 RMK AO2 SLP109 4/010 70037 T10611089 11017 21061 51016",2023.02.28-06.55.01
"METAR","KMSP","2023-02-28T12:53:00Z",-6.7,-9.4,0,0,"CLR",10,"KMSP 281253Z 00000KT 10SM CLR M07/M09 A2982 RMK AO2 SLP111 T10671094",2023.02.28-07.55.01
"METAR","KMSP","2023-02-28T13:53:00Z",-5.6,-8.9,3,240,"FEW",10,"KMSP 281353Z 24003KT 10SM FEW200 M06/M09 A2983 RMK AO2 SLP113 T10561089",2023.02.28-08.55.01
"METAR","KMSP","2023-02-28T14:53:00Z",-3.3,-7.8,0,0,"FEW",10,"KMSP 281453Z 00000KT 10SM FEW200 M03/M08 A2986 RMK AO2 SLP124 T10331078 53014",2023.02.28-09.55.01
"METAR","KMSP","2023-02-28T15:53:00Z",-2.2,-6.7,3,0,"FEW",10,"KMSP 281553Z VRB03KT 10SM FEW200 M02/M07 A2988 RMK AO2 SLP127 T10221067",2023.02.28-10.55.01
"METAR","KMSP","2023-02-28T16:53:00Z",-1.1,-6.7,3,130,"SCT",10,"KMSP 281653Z 13003KT 10SM SCT200 M01/M07 A2985 RMK AO2 SLP119 T10111067",2023.02.28-11.55.01
"METAR","KMSP","2023-02-28T17:53:00Z",0.6,-6.1,4,190,"BKN",10,"KMSP 281753Z 19004KT 10SM BKN200 01/M06 A2986 RMK AO2 SLP120 4/008 T00061061 10006 21067 58003",2023.02.28-12.55.01
"METAR","KMSP","2023-02-28T18:53:00Z",2.2,-7.2,0,0,"BKN",10,"KMSP 281853Z 00000KT 10SM SCT075 BKN200 02/M07 A2985 RMK AO2 SLP117 T00221072",2023.02.28-13.55.01
"METAR","KMSP","2023-02-28T19:53:00Z",3.3,-7.2,0,0,"BKN",10,"KMSP 281953Z 00000KT 10SM BKN075 03/M07 A2982 RMK AO2 SLP109 T00331072",2023.02.28-14.55.01
"METAR","KMSP","2023-02-28T20:53:00Z",3.3,-7.8,3,150,"OVC",10,"KMSP 282053Z 15003KT 10SM BKN075 OVC200 03/M08 A2981 RMK AO2 SLP104 T00331078 58015",2023.02.28-15.55.01
"METAR","KMSP","2023-02-28T21:53:00Z",4.4,-8.9,0,0,"BKN",10,"KMSP 282153Z 00000KT 10SM FEW075 BKN190 BKN250 04/M09 A2980 RMK AO2 SLP101 T00441089",2023.02.28-16.55.01
"METAR","KMSP","2023-02-28T22:53:00Z",3.9,-9.4,3,0,"OVC",10,"KMSP 282253Z VRB03KT 10SM SCT075 BKN170 OVC250 04/M09 A2981 RMK AO2 SLP102 T00391094",2023.02.28-17.55.01
"METAR","KMSP","2023-02-28T23:53:00Z",2.2,-5.6,5,140,"OVC",10,"KMSP 282353Z 14005KT 10SM BKN075 BKN090 OVC170 02/M06 A2981 RMK AO2 SLP106 4/008 T00221056 10044 20006 53001",2023.02.28-18.55.01
"METAR","KMSP","2023-03-01T00:53:00Z",2.2,-6.7,3,160,"OVC",10,"KMSP 010053Z 16003KT 10SM BKN070 OVC170 02/M07 A2983 RMK AO2 SLP111 T00221067",2023.02.28-19.55.01
"METAR","KMSP","2023-03-01T01:53:00Z",1.1,-6.7,6,130,"OVC",10,"KMSP 010153Z 13006KT 10SM OVC075 01/M07 A2982 RMK AO2 SLP110 T00111067",2023.02.28-20.55.01
"METAR","KMSP","2023-03-01T02:53:00Z",1.7,-6.7,5,100,"OVC",10,"KMSP 010253Z 10005KT 10SM BKN075 OVC090 02/M07 A2983 RMK AO2 SLP110 T00171067 51004",2023.02.28-21.55.01
"METAR","KMSP","2023-03-01T04:48:00Z",1,-3,9,130,"OVC",8,"KMSP 010448Z 13009KT 8SM -SN OVC045 01/M03 A2982 RMK AO2 SNB38 P0000",2023.02.28-22.55.01
"METAR","KMSP","2023-03-01T04:53:00Z",0.6,-3.3,9,130,"OVC",9,"KMSP 010453Z 13009KT 9SM -SN OVC045 01/M03 A2982 RMK AO2 SNB38 SLP107 P0000 T00061033",2023.02.28-23.55.01
"METAR","KMSP","2023-03-01T05:53:00Z",0,-2.2,7,90,"OVC",4,"KMSP 010553Z 09007KT 4SM -SN BR BKN043 OVC060 00/M02 A2980 RMK AO2 SLP099 4/008 P0000 60000 T00001022 10022 20000 400441067 58009",2023.03.01-00.55.01
"METAR","KMSP","2023-03-01T07:30:00Z",0,-2.2,9,90,"OVC",9,"KMSP 010730Z 09009KT 9SM OVC070 00/M02 A2975 RMK AO2 SNE29 P0000 T00001022",2023.03.01-01.55.01
"METAR","KMSP","2023-03-01T07:53:00Z",0,-2.2,8,90,"OVC",10,"KMSP 010753Z 09008KT 10SM OVC070 00/M02 A2974 RMK AO2 SNE29 SLP079 P0000 T00001022",2023.03.01-02.55.01
"METAR","KMSP","2023-03-01T08:53:00Z",0,-2.2,9,110,"OVC",10,"KMSP 010853Z 11009KT 10SM OVC070 00/M02 A2971 RMK AO2 SLP070 60000 T00001022 56028",2023.03.01-03.55.01
"METAR","KMSP","2023-03-01T10:18:00Z",0,-2.2,9,120,"OVC",10,"KMSP 011018Z 12009KT 10SM BKN023 OVC040 00/M02 A2971 RMK AO2 T00001022",2023.03.01-04.55.01
"METAR","KMSP","2023-03-01T11:25:00Z",0,-1.7,12,120,"OVC",10,"KMSP 011125Z 12012KT 10SM -SN OVC009 00/M02 A2967 RMK AO2 SNB25 P0000 T00001017",2023.03.01-05.55.01
"METAR","KMSP","2023-03-01T12:33:00Z",0,-1.1,11,130,"OVC",2,"KMSP 011233Z 13011KT 2SM -SN BR BKN006 OVC015 00/M01 A2965 RMK AO2 SFC VIS 2 1/2 P0001 T00001011",2023.03.01-06.55.01
"METAR","KMSP","2023-03-01T13:33:00Z",0.6,-0.6,13,130,"OVC",8,"KMSP 011333Z 13013KT 8SM BKN008 OVC015 01/M01 A2963 RMK AO2 SNE28 PRESFR PRESENT WX VCSH P0004 T00061006",2023.03.01-07.55.01
"METAR","KMSP","2023-03-01T13:53:00Z",0.6,-0.6,10,150,"OVC",10,"KMSP 011353Z 15010KT 10SM BKN008 OVC013 01/M01 A2964 RMK AO2 SNE28 SLP045 P0004 T00061006",2023.03.01-08.55.01
"METAR","KMSP","2023-03-01T15:12:00Z",1.7,0,7,160,"OVC",9,"KMSP 011512Z 16007KT 9SM OVC010 02/00 A2962 RMK AO2 T00170000",2023.03.01-09.55.01
"METAR","KMSP","2023-03-01T16:15:00Z",2.2,0,9,160,"OVC",10,"KMSP 011615Z 16009KT 10SM SCT013 OVC022 02/00 A2961 RMK AO2 T00220000",2023.03.01-10.55.01
"METAR","KMSP","2023-03-01T16:53:00Z",2.2,-0.6,5,150,"OVC",10,"KMSP 011653Z 15005KT 10SM SCT021 BKN026 OVC032 02/M01 A2961 RMK AO2 SLP034 T00221006",2023.03.01-11.55.01
"METAR","KMSP","2023-03-01T18:50:00Z",2,-1,7,250,"OVC",8,"KMSP 011850Z 25007KT 8SM -SNRA BKN013 BKN023 OVC032 02/M01 A2963 RMK AO2 RAB43SNB24 P0000",2023.03.01-12.55.01
"METAR","KMSP","2023-03-01T19:10:00Z",1.7,-0.6,7,230,"OVC",9,"KMSP 011910Z 23007KT 9SM -SNRA SCT014 BKN019 OVC024 02/M01 A2963 RMK AO2 P0000 T00171006",2023.03.01-13.55.01
"METAR","KMSP","2023-03-01T19:53:00Z",1.7,-0.6,8,240,"OVC",9,"KMSP 011953Z 24008KT 9SM FEW012 BKN018 OVC025 02/M01 A2966 RMK AO2 RAE17SNE49 SLP050 P0000 T00171006",2023.03.01-14.55.01
"METAR","KMSP","2023-03-01T21:38:00Z",0.6,-1.1,12,350,"OVC",5,"KMSP 012138Z 35012KT 5SM -DZ BR BKN007 OVC012 01/M01 A2972 RMK AO2 DZE09B35 PRESRR P0000 T00061011",2023.03.01-15.55.01
"METAR","KMSP","2023-03-01T21:53:00Z",0.6,-1.1,13,350,"OVC",6,"KMSP 012153Z 35013KT 6SM -DZ BR OVC006 01/M01 A2973 RMK AO2 DZE09B35 SLP075 P0000 T00061011",2023.03.01-16.55.01
"METAR","KMSP","2023-03-01T22:53:00Z",-0.6,-2.8,15,350,"OVC",10,"KMSP 012253Z 35015KT 10SM OVC011 M01/M03 A2977 RMK AO2 DZE06 SLP092 P0000 T10061028",2023.03.01-17.55.01
"METAR","KMSP","2023-03-02T00:11:00Z",-1.7,-5,18,10,"OVC",10,"KMSP 020011Z 01018KT 10SM OVC015 M02/M05 A2985 RMK AO2 PRESRR T10171050",2023.03.01-18.55.01
"METAR","KMSP","2023-03-02T00:53:00Z",-2.2,-5.6,12,360,"OVC",10,"KMSP 020053Z 36012KT 10SM OVC016 M02/M06 A2988 RMK AO2 SLP128 T10221056",2023.03.01-19.55.01
"METAR","KMSP","2023-03-02T02:33:00Z",-3.3,-6.7,14,340,"OVC",10,"KMSP 020233Z 34014KT 10SM OVC019 M03/M07 A2996 RMK AO2 T10331067",2023.03.01-20.55.01
"METAR","KMSP","2023-03-02T02:53:00Z",-3.9,-7.2,14,350,"OVC",10,"KMSP 020253Z 35014G23KT 10SM OVC018 M04/M07 A2997 RMK AO2 SLP159 T10391072 51045",2023.03.01-21.55.01
"METAR","KMSP","2023-03-02T03:53:00Z",-4.4,-7.8,16,360,"OVC",10,"KMSP 020353Z 36016G23KT 10SM OVC018 M04/M08 A2999 RMK AO2 SLP168 T10441078",2023.03.01-22.55.01
"METAR","KMSP","2023-03-02T04:53:00Z",-4.4,-8.3,15,10,"OVC",10,"KMSP 020453Z 01015G22KT 10SM OVC019 M04/M08 A2999 RMK AO2 SLP168 T10441083",2023.03.01-23.55.01
"METAR","KMSP","2023-03-02T05:53:00Z",-4.4,-8.3,10,30,"OVC",10,"KMSP 020553Z 03010KT 10SM OVC019 M04/M08 A3001 RMK AO2 SLP172 4/007 T10441083 11017 21044 400331044 51013",2023.03.02-00.55.01
"METAR","KMSP","2023-03-02T06:53:00Z",-5,-8.9,9,10,"OVC",10,"KMSP 020653Z 01009KT 10SM OVC017 M05/M09 A3005 RMK AO2 SLP186 T10501089",2023.03.02-01.55.01
"METAR","KMSP","2023-03-02T07:53:00Z",-5.6,-8.9,8,50,"OVC",10,"KMSP 020753Z 05008KT 10SM OVC016 M06/M09 A3006 RMK AO2 SLP189 T10561089",2023.03.02-02.55.01
"METAR","KMSP","2023-03-02T08:53:00Z",-6.1,-8.9,5,350,"OVC",10,"KMSP 020853Z 35005KT 10SM OVC015 M06/M09 A3006 RMK AO2 SLP189 T10611089 50016",2023.03.02-03.55.01
"METAR","KMSP","2023-03-02T10:12:00Z",-7.2,-10,6,340,"SCT",10,"KMSP 021012Z 34006KT 10SM SCT013 M07/M10 A3004 RMK AO2 T10721100",2023.03.02-04.55.01
"METAR","KMSP","2023-03-02T11:51:00Z",-8,-11,6,10,"BKN",10,"KMSP 021151Z 01006KT 10SM BKN013 M08/M11 A3003 RMK AO2 4/007",2023.03.02-05.55.01
"METAR","KMSP","2023-03-02T11:53:00Z",-8.3,-10.6,7,20,"OVC",10,"KMSP 021153Z 02007KT 10SM OVC013 M08/M11 A3003 RMK AO2 SLP183 4/007 70005 T10831106 11044 21083 55007",2023.03.02-06.55.01
"METAR","KMSP","2023-03-02T12:53:00Z",-7.8,-10.6,7,90,"OVC",10,"KMSP 021253Z 09007KT 10SM OVC011 M08/M11 A3003 RMK AO2 SLP182 T10781106",2023.03.02-07.55.01
"METAR","KMSP","2023-03-02T13:58:00Z",-7.8,-10,6,90,"OVC",10,"KMSP 021358Z 09006KT 10SM OVC009 M08/M10 A3002 RMK AO2 T10781100",2023.03.02-08.55.01
"METAR","KMSP","2023-03-02T15:45:00Z",-7.2,-8.9,0,0,"OVC",10,"KMSP 021545Z 00000KT 10SM OVC010 M07/M09 A3004 RMK AO2 T10721089",2023.03.02-09.55.01
"METAR","KMSP","2023-03-02T15:53:00Z",-6.7,-9.4,4,130,"OVC",10,"KMSP 021553Z 13004KT 10SM OVC010 M07/M09 A3004 RMK AO2 SLP186 T10671094",2023.03.02-10.55.01
"METAR","KMSP","2023-03-02T16:53:00Z",-6.1,-8.3,4,200,"OVC",10,"KMSP 021653Z 20004KT 10SM OVC012 M06/M08 A3005 RMK AO2 SLP188 T10611083",2023.03.02-11.55.01
"METAR","KMSP","2023-03-02T18:18:00Z",-4.4,-7.8,6,170,"OVC",10,"KMSP 021818Z 17006KT 10SM OVC015 M04/M08 A2999 RMK AO2 T10441078",2023.03.02-12.55.01
"METAR","KMSP","2023-03-02T18:53:00Z",-4.4,-7.8,4,180,"BKN",10,"KMSP 021853Z 18004KT 10SM BKN015 M04/M08 A2998 RMK AO2 SLP167 T10441078",2023.03.02-13.55.01
"METAR","KMSP","2023-03-02T20:38:00Z",-2.8,-7.2,5,140,"BKN",10,"KMSP 022038Z 14005KT 10SM SCT018 BKN095 M03/M07 A2996 RMK AO2 T10281072",2023.03.02-14.55.01
"METAR","KMSP","2023-03-02T20:53:00Z",-2.8,-7.2,7,160,"BKN",10,"KMSP 022053Z 16007KT 10SM SCT018 BKN095 M03/M07 A2996 RMK AO2 SLP157 T10281072 56019",2023.03.02-15.55.01
"METAR","KMSP","2023-03-02T22:51:00Z",-3,-7,8,130,"BKN",10,"KMSP 022251Z 13008KT 10SM BKN018 BKN095 M03/M07 A2993 RMK AO2",2023.03.02-16.55.01
"METAR","KMSP","2023-03-02T22:53:00Z",-2.8,-6.7,8,140,"BKN",10,"KMSP 022253Z 14008KT 10SM BKN018 BKN095 M03/M07 A2993 RMK AO2 SLP148 T10281067",2023.03.02-17.55.01
"METAR","KMSP","2023-03-02T23:53:00Z",-3.3,-6.7,9,130,"BKN",10,"KMSP 022353Z 13009KT 10SM BKN018 BKN095 M03/M07 A2991 RMK AO2 SLP142 4/007 T10331067 11022 21050 58007",2023.03.02-18.55.01
"METAR","KMSP","2023-03-03T01:01:00Z",-3.3,-6.7,7,160,"OVC",10,"KMSP 030101Z 16007KT 10SM OVC014 M03/M07 A2990 RMK AO2 T10331067",2023.03.02-19.55.01
"METAR","KMSP","2023-03-03T01:53:00Z",-3.3,-6.1,9,150,"OVC",10,"KMSP 030153Z 15009KT 10SM OVC013 M03/M06 A2989 RMK AO2 SLP135 T10331061",2023.03.02-20.55.01
"METAR","KMSP","2023-03-03T02:53:00Z",-3.3,-6.1,10,170,"OVC",10,"KMSP 030253Z 17010KT 10SM OVC013 M03/M06 A2987 RMK AO2 SLP129 T10331061 58013",2023.03.02-21.55.01
"METAR","KMSP","2023-03-03T03:53:00Z",-2.8,-5.6,11,190,"OVC",10,"KMSP 030353Z 19011KT 10SM OVC013 M03/M06 A2986 RMK AO2 SLP125 T10281056",2023.03.02-22.55.01
"METAR","KMSP","2023-03-03T04:53:00Z",-2.2,-5.6,9,200,"OVC",10,"KMSP 030453Z 20009KT 10SM OVC013 M02/M06 A2985 RMK AO2 SLP120 T10221056",2023.03.02-23.55.01
"METAR","KMSP","2023-03-03T05:53:00Z",-2.8,-5.6,5,210,"OVC",10,"KMSP 030553Z 21005KT 10SM OVC013 M03/M06 A2982 RMK AO2 SLP110 4/007 T10281056 11022 21033 410221083 58018",2023.03.03-00.55.01
"METAR","KMSP","2023-03-03T07:24:00Z",-2.8,-5.6,4,210,"BKN",10,"KMSP 030724Z 21004KT 10SM BKN012 BKN020 M03/M06 A2980 RMK AO2 T10281056",2023.03.03-01.55.01
"METAR","KMSP","2023-03-03T08:43:00Z",-3.3,-5,0,0,"OVC",10,"KMSP 030843Z 00000KT 10SM OVC009 M03/M05 A2980 RMK AO2 T10331050",2023.03.03-02.55.01
"METAR","KMSP","2023-03-03T08:53:00Z",-3.3,-5,4,180,"OVC",10,"KMSP 030853Z 18004KT 10SM OVC009 M03/M05 A2979 RMK AO2 SLP100 T10331050 56008",2023.03.03-03.55.01
"METAR","KMSP","2023-03-03T09:53:00Z",-3.9,-5.6,4,130,"BKN",10,"KMSP 030953Z 13004KT 10SM BKN009 M04/M06 A2976 RMK AO2 SLP088 T10391056",2023.03.03-04.55.01
"METAR","KMSP","2023-03-03T10:53:00Z",-3.9,-5.6,5,150,"OVC",8,"KMSP 031053Z 15005KT 8SM OVC007 M04/M06 A2976 RMK AO2 SLP091 T10391056",2023.03.03-05.55.01
"METAR","KMSP","2023-03-03T12:46:00Z",-5.6,-6.1,5,150,"OVC",1,"KMSP 031246Z 15005KT 1SM R30L/2000V6000FT BR OVC002 M06/M06 A2973 RMK AO2 TWR VIS 2 VIS E 1/2 T10561061",2023.03.03-06.55.01
"METAR","KMSP","2023-03-03T13:19:00Z",-5.6,-5.6,3,130,"OVX",0.5,"KMSP 031319Z 13003KT 1/2SM R30L/1800V5500FT FZFG VV002 M06/M06 A2973 RMK AO2 VIS SW-W 1/4 I1000 T10561056",2023.03.03-07.55.01
"METAR","KMSP","2023-03-03T14:17:00Z",-5.6,-5.6,3,130,"OVC",1,"KMSP 031417Z 13003KT 1SM R30L/P6000FT BR OVC002 M06/M06 A2974 RMK AO2 SFC VIS 1 1/2 VIS NE-E 3/4 W 1 T10561056",2023.03.03-08.55.01
"METAR","KMSP","2023-03-03T15:05:00Z",-5,-6.1,5,70,"OVC",2,"KMSP 031505Z 07005KT 2SM BR OVC004 M05/M06 A2974 RMK AO2 SFC VIS 4 T10501061",2023.03.03-09.55.01
"METAR","KMSP","2023-03-03T16:23:00Z",-3.3,-4.4,0,0,"OVC",7,"KMSP 031623Z 00000KT 7SM SCT006 OVC250 M03/M04 A2970 RMK AO2 T10331044",2023.03.03-10.55.01
"METAR","KMSP","2023-03-03T16:53:00Z",-2.2,-3.9,4,160,"OVC",10,"KMSP 031653Z 16004KT 10SM FEW006 OVC250 M02/M04 A2969 RMK AO2 SLP063 T10221039",2023.03.03-11.55.01
"METAR","KMSP","2023-03-03T17:53:00Z",0.6,-2.8,5,160,"BKN",10,"KMSP 031753Z 16005KT 10SM BKN250 01/M03 A2966 RMK AO2 SLP053 4/007 I6000 T00061028 10006 21056 58028",2023.03.03-12.55.01
"METAR","KMSP","2023-03-03T18:53:00Z",1.7,-2.8,3,180,"BKN",10,"KMSP 031853Z 18003KT 10SM FEW140 BKN250 02/M03 A2963 RMK AO2 SLP043 T00171028",2023.03.03-13.55.02
"METAR","KMSP","2023-03-03T19:53:00Z",2.8,-2.2,0,0,"BKN",10,"KMSP 031953Z 00000KT 10SM FEW140 BKN250 03/M02 A2961 RMK AO2 SLP037 T00281022",2023.03.03-14.55.02
"METAR","KMSP","2023-03-03T20:53:00Z",3.9,-2.8,0,0,"BKN",10,"KMSP 032053Z 00000KT 10SM BKN100 BKN250 04/M03 A2961 RMK AO2 SLP035 T00391028 56016",2023.03.03-15.55.02
"METAR","KMSP","2023-03-03T21:53:00Z",4.4,-2.8,5,250,"BKN",10,"KMSP 032153Z 25005KT 10SM SCT110 BKN250 04/M03 A2962 RMK AO2 SLP037 T00441028",2023.03.03-16.55.01
"METAR","KMSP","2023-03-03T22:53:00Z",4.4,-2.8,6,260,"BKN",10,"KMSP 032253Z 26006KT 10SM SCT110 BKN250 04/M03 A2963 RMK AO2 SLP042 T00441028",2023.03.03-17.55.01
"METAR","KMSP","2023-03-03T23:53:00Z",3.9,-2.8,4,240,"SCT",10,"KMSP 032353Z 24004KT 10SM SCT110 SCT250 04/M03 A2964 RMK AO2 SLP045 4/007 T00391028 10056 20006 51009",2023.03.03-18.55.01
"METAR","KMSP","2023-03-04T00:53:00Z",2.2,-2.8,5,250,"FEW",10,"KMSP 040053Z 25005KT 10SM FEW110 FEW250 02/M03 A2965 RMK AO2 SLP052 T00221028",2023.03.03-19.55.01
"METAR","KMSP","2023-03-04T01:53:00Z",1.1,-3.3,5,260,"FEW",10,"KMSP 040153Z 26005KT 10SM FEW250 01/M03 A2966 RMK AO2 SLP055 T00111033",2023.03.03-20.55.01
"METAR","KMSP","2023-03-04T02:53:00Z",0,-3.3,6,270,"FEW",9,"KMSP 040253Z 27006KT 9SM FEW250 00/M03 A2968 RMK AO2 SLP062 T00001033 53016",2023.03.03-21.55.01
"METAR","KMSP","2023-03-04T03:53:00Z",-0.6,-3.3,7,270,"SCT",9,"KMSP 040353Z 27007KT 9SM SCT140 M01/M03 A2970 RMK AO2 SLP068 T10061033",2023.03.03-22.55.01
"METAR","KMSP","2023-03-04T04:53:00Z",-1.1,-3.3,3,250,"SCT",8,"KMSP 040453Z 25003KT 8SM SCT150 M01/M03 A2972 RMK AO2 SLP075 T10111033",2023.03.03-23.55.01
"METAR","KMSP","2023-03-04T05:53:00Z",-0.6,-3.3,4,240,"BKN",8,"KMSP 040553Z 24004KT 8SM BKN140 M01/M03 A2974 RMK AO2 SLP082 4/007 T10061033 10039 21011 400561056 53020",2023.03.04-00.55.01
"METAR","KMSP","2023-03-04T06:53:00Z",-1.1,-4.4,5,240,"SCT",8,"KMSP 040653Z 24005KT 8SM FEW110 SCT140 M01/M04 A2975 RMK AO2 SLP083 T10111044",2023.03.04-01.55.01
"METAR","KMSP","2023-03-04T07:53:00Z",-1.7,-4.4,3,220,"SCT",7,"KMSP 040753Z 22003KT 7SM SCT140 M02/M04 A2978 RMK AO2 SLP091 T10171044",2023.03.04-02.55.01
"METAR","KMSP","2023-03-04T08:53:00Z",-2.2,-4.4,3,230,"FEW",7,"KMSP 040853Z 23003KT 7SM FEW140 M02/M04 A2978 RMK AO2 SLP094 T10221044 53012",2023.03.04-03.55.01
"METAR","KMSP","2023-03-04T09:53:00Z",-2.8,-5,0,0,"BKN",6,"KMSP 040953Z 00000KT 6SM BR BKN150 M03/M05 A2979 RMK AO2 SLP095 T10281050",2023.03.04-04.55.01
"METAR","KMSP","2023-03-04T10:53:00Z",-3.3,-5,3,220,"FEW",5,"KMSP 041053Z 22003KT 5SM BR FEW150 M03/M05 A2981 RMK AO2 SLP104 T10331050",2023.03.04-05.55.01
"METAR","KMSP","2023-03-04T11:53:00Z",-3.3,-5.6,4,230,"SCT",5,"KMSP 041153Z 23004KT 5SM BR SCT160 M03/M06 A2984 RMK AO2 SLP112 4/007 T10331056 11006 21050 53018",2023.03.04-06.55.01
"METAR","KMSP","2023-03-04T12:53:00Z",-3.3,-5.6,0,0,"BKN",7,"KMSP 041253Z 00000KT 7SM BKN150 M03/M06 A2985 RMK AO2 SLP118 T10331056",2023.03.04-07.55.01
"METAR","KMSP","2023-03-04T13:53:00Z",-2.8,-5.6,0,0,"BKN",6,"KMSP 041353Z 00000KT 6SM HZ BKN110 M03/M06 A2987 RMK AO2 SLP125 T10281056",2023.03.04-08.55.01
"METAR","KMSP","2023-03-04T14:53:00Z",-2.2,-5,3,230,"OVC",8,"KMSP 041453Z 23003KT 8SM OVC110 M02/M05 A2988 RMK AO2 SLP128 T10221050 51014",2023.03.04-09.55.01
"METAR","KMSP","2023-03-04T15:53:00Z",-1.7,-5,8,230,"OVC",10,"KMSP 041553Z 23008KT 10SM OVC095 M02/M05 A2989 RMK AO2 SLP134 T10171050",2023.03.04-10.55.01
"METAR","KMSP","2023-03-04T16:53:00Z",-0.6,-4.4,9,270,"OVC",10,"KMSP 041653Z 27009KT 10SM OVC100 M01/M04 A2991 RMK AO2 SLP138 T10061044",2023.03.04-11.55.01
"METAR","KMSP","2023-03-04T17:53:00Z",1.1,-3.9,5,260,"OVC",10,"KMSP 041753Z 26005KT 10SM BKN070 OVC090 01/M04 A2992 RMK AO2 SLP140 4/007 T00111039 10011 21039 51013",2023.03.04-12.55.01
"METAR","KMSP","2023-03-04T18:53:00Z",2.2,-3.9,6,240,"OVC",10,"KMSP 041853Z 24006KT 10SM OVC050 02/M04 A2992 RMK AO2 SLP142 T00221039",2023.03.04-13.55.01
"METAR","KMSP","2023-03-04T19:53:00Z",2.8,-3.9,10,300,"BKN",10,"KMSP 041953Z 30010KT 10SM FEW070 BKN200 03/M04 A2993 RMK AO2 SLP143 T00281039",2023.03.04-14.55.01
"METAR","KMSP","2023-03-04T20:53:00Z",3.3,-4.4,7,260,"BKN",10,"KMSP 042053Z 26007KT 10SM FEW110 BKN250 03/M04 A2994 RMK AO2 SLP148 T00331044 53008 $",2023.03.04-15.55.01
"METAR","KMSP","2023-03-04T21:53:00Z",2.8,-4.4,10,270,"BKN",10,"KMSP 042153Z 27010KT 10SM FEW120 BKN250 03/M04 A2994 RMK AO2 SLP150 T00281044 $",2023.03.04-16.55.01
"METAR","KMSP","2023-03-04T22:53:00Z",2.2,-4.4,10,270,"SCT",10,"KMSP 042253Z 27010KT 10SM FEW120 SCT250 02/M04 A2997 RMK AO2 SLP157 T00221044 $",2023.03.04-17.55.01
"METAR","KMSP","2023-03-04T23:53:00Z",1.7,-3.9,9,250,"FEW",10,"KMSP 042353Z 25009KT 10SM FEW120 FEW250 02/M04 A3000 RMK AO2 SLP167 4/007 T00171039 10033 20011 53018 $",2023.03.04-18.55.01
"METAR","KMSP","2023-03-05T00:53:00Z",0,-4.4,6,270,"CLR",10,"KMSP 050053Z 27006KT 10SM CLR 00/M04 A3002 RMK AO2 SLP175 T00001044 $",2023.03.04-19.55.02
"METAR","KMSP","2023-03-05T01:53:00Z",-1.1,-5,4,250,"CLR",10,"KMSP 050153Z 25004KT 10SM CLR M01/M05 A3003 RMK AO2 SLP181 T10111050 $",2023.03.04-20.55.01
"METAR","KMSP","2023-03-05T02:53:00Z",-2.2,-5.6,5,240,"CLR",10,"KMSP 050253Z 24005KT 10SM CLR M02/M06 A3006 RMK AO2 SLP189 T10221056 53021 $",2023.03.04-21.55.01
"METAR","KMSP","2023-03-05T03:53:00Z",-2.8,-6.1,0,0,"CLR",10,"KMSP 050353Z 00000KT 10SM CLR M03/M06 A3008 RMK AO2 SLP196 T10281061 $",2023.03.04-22.55.01
"METAR","KMSP","2023-03-05T04:53:00Z",-3.9,-6.7,3,230,"CLR",10,"KMSP 050453Z 23003KT 10SM CLR M04/M07 A3010 RMK AO2 SLP204 T10391067 $",2023.03.04-23.55.01
"METAR","KMSP","2023-03-05T05:53:00Z",-4.4,-6.7,0,0,"CLR",10,"KMSP 050553Z 00000KT 10SM CLR M04/M07 A3012 RMK AO2 SLP212 4/007 T10441067 10017 21044 400331050 53022 $",2023.03.05-00.55.01
"METAR","KMSP","2023-03-05T06:53:00Z",-5,-7.2,3,230,"CLR",10,"KMSP 050653Z 23003KT 10SM CLR M05/M07 A3014 RMK AO2 SLP219 T10501072 $",2023.03.05-01.55.01
"METAR","KMSP","2023-03-05T07:53:00Z",-5,-7.8,4,220,"CLR",10,"KMSP 050753Z 22004KT 10SM CLR M05/M08 A3016 RMK AO2 SLP226 T10501078 $",2023.03.05-02.55.01
"METAR","KMSP","2023-03-05T08:53:00Z",-5.6,-8.3,0,0,"FEW",10,"KMSP 050853Z 00000KT 10SM FEW250 M06/M08 A3017 RMK AO2 SLP229 T10561083 51017 $",2023.03.05-03.55.01
"METAR","KMSP","2023-03-05T09:53:00Z",-6.1,-8.3,0,0,"SCT",10,"KMSP 050953Z 00000KT 10SM SCT250 M06/M08 A3018 RMK AO2 SLP230 T10611083 $",2023.03.05-04.55.01
"METAR","KMSP","2023-03-05T10:53:00Z",-6.7,-9.4,0,0,"SCT",10,"KMSP 051053Z 00000KT 10SM SCT250 M07/M09 A3017 RMK AO2 SLP229 T10671094 $",2023.03.05-05.55.01
"METAR","KMSP","2023-03-05T11:53:00Z",-6.7,-9.4,4,120,"FEW",7,"KMSP 051153Z 12004KT 7SM FEW250 M07/M09 A3017 RMK AO2 SLP229 4/007 T10671094 11044 21072 58000 $",2023.03.05-06.55.01
"METAR","KMSP","2023-03-05T12:53:00Z",-6.1,-8.3,3,60,"FEW",7,"KMSP 051253Z 06003KT 7SM FEW250 M06/M08 A3019 RMK AO2 SLP234 T10611083 $",2023.03.05-07.55.01
"METAR","KMSP","2023-03-05T13:53:00Z",-5.6,-7.8,3,140,"OVC",7,"KMSP 051353Z 14003KT 7SM OVC120 M06/M08 A3021 RMK AO2 SLP242 T10561078 $",2023.03.05-08.55.01
"METAR","KMSP","2023-03-05T14:53:00Z",-4.4,-7.8,4,140,"OVC",10,"KMSP 051453Z 14004KT 10SM OVC150 M04/M08 A3022 RMK AO2 SLP246 T10441078 52015 $",2023.03.05-09.55.01
"METAR","KMSP","2023-03-05T15:53:00Z",-2.2,-6.1,8,120,"BKN",10,"KMSP 051553Z 12008KT 10SM BKN150 M02/M06 A3022 RMK AO2 SLP244 T10221061 $",2023.03.05-10.55.01
"METAR","KMSP","2023-03-05T16:53:00Z",0,-6.1,9,120,"BKN",10,"KMSP 051653Z 12009KT 10SM SCT120 BKN150 BKN200 00/M06 A3020 RMK AO2 SLP237 T00001061",2023.03.05-11.55.01
"METAR","KMSP","2023-03-05T17:53:00Z",2.2,-6.1,13,120,"BKN",10,"KMSP 051753Z 12013KT 10SM BKN150 02/M06 A3017 RMK AO2 SLP228 4/006 T00221061 10022 21067 58016",2023.03.05-12.55.01
"METAR","KMSP","2023-03-05T18:53:00Z",2.8,-6.1,12,110,"OVC",10,"KMSP 051853Z 11012G17KT 10SM OVC140 03/M06 A3014 RMK AO2 SLP219 T00281061",2023.03.05-13.55.02
"METAR","KMSP","2023-03-05T19:53:00Z",3.3,-6.1,11,110,"OVC",10,"KMSP 051953Z 11011KT 10SM OVC130 03/M06 A3011 RMK AO2 SLP207 T00331061",2023.03.05-14.55.01
"METAR","KMSP","2023-03-05T20:53:00Z",3.3,-6.1,8,100,"OVC",10,"KMSP 052053Z 10008KT 10SM OVC110 03/M06 A3011 RMK AO2 SLP206 T00331061 56022",2023.03.05-15.55.01
"METAR","KMSP","2023-03-05T21:53:00Z",3.3,-6.1,14,80,"OVC",10,"KMSP 052153Z 08014KT 10SM OVC070 03/M06 A3007 RMK AO2 SLP192 T00331061",2023.03.05-16.55.01
"METAR","KMSP","2023-03-05T23:49:00Z",2,-3,16,120,"OVC",1,"KMSP 052349Z COR 12016G29KT 1SM R30L/5500VP6000FT -SN OVC022 02/M03 A3008 RMK AO2 PK WND 11032/2329 SFC VIS 2 1/2 VIS 1 1/4V5 SNB32 P0000",2023.03.05-17.55.01
"METAR","KMSP","2023-03-06T00:36:00Z",0.6,-1.1,7,80,"OVC",2.5,"KMSP 060036Z 08007KT 2 1/2SM -SN BR OVC020 01/M01 A3009 RMK AO2 PK WND 08027/0002 TWR VIS 3 P0002 T00061011",2023.03.05-18.55.01
"METAR","KMSP","2023-03-06T01:01:00Z",0.6,-1.7,9,60,"OVC",2,"KMSP 060101Z 06009G16KT 2SM -SN BR OVC014 01/M02 A3007 RMK AO2 TWR VIS 2 1/2 P0000 T00061017",2023.03.05-19.55.01
"METAR","KMSP","2023-03-06T02:46:00Z",0.6,-1.1,11,60,"OVX",1,"KMSP 060246Z 06011KT 1SM R30L/5500VP6000FT -SN BR VV007 01/M01 A3007 RMK AO2 TWR VIS 1 1/2 P0003 T00061011",2023.03.05-20.55.01
"METAR","KMSP","2023-03-06T02:53:00Z",0.6,-1.1,12,50,"OVX",1,"KMSP 060253Z 05012G27KT 1SM R30L/4000VP6000FT -SN BR VV006 01/M01 A3006 RMK AO2 PK WND 05027/0253 TWR VIS 1 1/2 SLP192 P0004 60008 T00061011 58001",2023.03.05-21.55.01
"METAR","KMSP","2023-03-06T03:53:00Z",0.6,-1.1,10,50,"OVX",1,"KMSP 060353Z 05010G20KT 1SM R30L/5500VP6000FT -SN BR VV005 01/M01 A3005 RMK AO2 PK WND 05027/0334 TWR VIS 1 1/2 SLP186 SNINCR 1/7 P0007 T00061011",2023.03.05-22.55.01
"METAR","KMSP","2023-03-06T05:15:00Z",0.6,-1.1,14,60,"OVX",0.75,"KMSP 060515Z 06014G27KT 3/4SM R30L/4500VP6000FT -SN BR VV006 01/M01 A3003 RMK AO2 PK WND 06027/0512 TWR VIS 1 P0003 T00061011",2023.03.05-23.55.01
"METAR","KMSP","2023-03-06T06:34:00Z",0,-1.1,12,60,"OVC",3,"KMSP 060634Z 06012KT 3SM -SN BR BKN008 OVC011 00/M01 A3000 RMK AO2 P0002 T00001011",2023.03.06-00.55.01
"METAR","KMSP","2023-03-06T07:09:00Z",0.6,-1.1,13,70,"OVC",10,"KMSP 060709Z 07013KT 10SM BKN010 OVC015 01/M01 A3000 RMK AO2 T00061011",2023.03.06-01.55.01
"METAR","KMSP","2023-03-06T07:53:00Z",0.6,-1.1,12,70,"OVC",10,"KMSP 060753Z 07012KT 10SM BKN010 BKN013 OVC032 01/M01 A2999 RMK AO2 SLP163 T00061011",2023.03.06-02.55.01
"METAR","KMSP","2023-03-06T08:53:00Z",0.6,-1.1,13,60,"OVC",8,"KMSP 060853Z 06013KT 8SM OVC014 01/M01 A2997 RMK AO2 PRESFR SLP157 60002 T00061011 56016",2023.03.06-03.55.01
"METAR","KMSP","2023-03-06T10:24:00Z",0,-1.1,10,30,"OVC",4,"KMSP 061024Z 03010KT 4SM -SN BR BKN009 OVC014 00/M01 A3000 RMK AO2 P0000 T00001011",2023.03.06-04.55.01
"METAR","KMSP","2023-03-06T11:27:00Z",0,-1.1,10,40,"OVC",4,"KMSP 061127Z 04010KT 4SM -SN BR BKN006 OVC010 00/M01 A2999 RMK AO2 P0000 T00001011",2023.03.06-05.55.01
"METAR","KMSP","2023-03-06T12:01:00Z",0,-1.1,8,30,"OVC",6,"KMSP 061201Z 03008KT 6SM BR BKN010 OVC014 00/M01 A3000 RMK AO2 T00001011",2023.03.06-06.55.01
"METAR","KMSP","2023-03-06T13:38:00Z",0,-1.1,10,360,"OVC",4,"KMSP 061338Z 36010KT 4SM -SNDZ BR OVC008 00/M01 A3003 RMK AO2 DZB21 P0000 T00001011",2023.03.06-07.55.01
"METAR","KMSP","2023-03-06T14:27:00Z",0,-1.1,10,10,"OVC",3,"KMSP 061427Z 01010G20KT 3SM -SN BR OVC007 00/M01 A3003 RMK AO2 DZE19 P0000 T00001011",2023.03.06-08.55.01
"METAR","KMSP","2023-03-06T14:53:00Z",0,-1.1,9,10,"OVC",3,"KMSP 061453Z 01009G19KT 3SM -SN BR OVC008 00/M01 A3004 RMK AO2 DZE19 SLP181 P0000 60000 T00001011 51016",2023.03.06-09.55.01
"METAR","KMSP","2023-03-06T16:01:00Z",0.6,-1.1,11,360,"OVC",5,"KMSP 061601Z 36011G22KT 5SM -SN BR OVC010 01/M01 A3006 RMK AO2 P0000 T00061011",2023.03.06-10.55.02
"METAR","KMSP","2023-03-06T16:53:00Z",0.6,-1.1,10,10,"OVC",4,"KMSP 061653Z 01010G19KT 4SM -SN BR OVC011 01/M01 A3008 RMK AO2 SLP194 P0000 T00061011",2023.03.06-11.55.01
"METAR","KMSP","2023-03-06T18:34:00Z",2.2,-1.1,12,20,"OVC",9,"KMSP 061834Z 02012G23KT 9SM OVC014 02/M01 A3010 RMK AO2 SNE34 PRESENT WX VCSH P0000 T00221011",2023.03.06-12.55.01
"METAR","KMSP","2023-03-06T19:18:00Z",2.2,-1.7,15,30,"OVC",10,"KMSP 061918Z 03015KT 10SM OVC018 02/M02 A3011 RMK AO2 PK WND 02027/1859 T00221017",2023.03.06-13.55.01
"METAR","KMSP","2023-03-06T19:53:00Z",2.2,-1.7,9,10,"OVC",10,"KMSP 061953Z 01009KT 10SM OVC019 02/M02 A3013 RMK AO2 PK WND 02027/1859 SLP211 T00221017",2023.03.06-14.55.01
"METAR","KMSP","2023-03-06T20:53:00Z",2.2,-2.2,13,10,"OVC",10,"KMSP 062053Z 01013KT 10SM OVC021 02/M02 A3015 RMK AO2 SLP220 60000 T00221022 53022",2023.03.06-15.55.01
"METAR","KMSP","2023-03-06T21:53:00Z",2.2,-2.2,11,20,"OVC",10,"KMSP 062153Z 02011G17KT 10SM OVC028 02/M02 A3018 RMK AO2 SLP229 T00221022",2023.03.06-16.55.01
"METAR","KMSP","2023-03-06T23:12:00Z",1.7,-1.7,11,350,"BKN",10,"KMSP 062312Z 35011KT 10SM SCT020 SCT026 BKN031 02/M02 A3022 RMK AO2 T00171017",2023.03.06-17.55.01
"METAR","KMSP","2023-03-07T00:21:00Z",1.7,-2.2,9,360,"BKN",10,"KMSP 070021Z 36009G20KT 10SM SCT020 BKN033 02/M02 A3027 RMK AO2 T00171022",2023.03.06-18.55.01
"METAR","KMSP","2023-03-07T00:53:00Z",1.1,-2.2,9,10,"SCT",10,"KMSP 070053Z 01009KT 10SM SCT025 SCT035 01/M02 A3029 RMK AO2 SLP267 T00111022",2023.03.06-19.55.01
"METAR","KMSP","2023-03-07T01:53:00Z",0.6,-3.3,7,10,"SCT",10,"KMSP 070153Z 01007KT 10SM SCT025 01/M03 A3031 RMK AO2 SLP274 T00061033",2023.03.06-20.55.01
"METAR","KMSP","2023-03-07T02:53:00Z",0,-3.3,7,10,"FEW",10,"KMSP 070253Z 01007KT 240V030 10SM FEW025 00/M03 A3033 RMK AO2 SLP280 T00001033 51025",2023.03.06-21.55.01
"METAR","KMSP","2023-03-07T03:53:00Z",-0.6,-3.9,7,30,"FEW",10,"KMSP 070353Z 03007KT 10SM FEW025 M01/M04 A3034 RMK AO2 SLP285 T10061039",2023.03.06-22.55.02
"METAR","KMSP","2023-03-07T04:53:00Z",-1.1,-3.9,7,10,"FEW",10,"KMSP 070453Z 01007KT 10SM FEW025 M01/M04 A3035 RMK AO2 SLP287 T10111039",2023.03.06-23.55.01
"METAR","KMSP","2023-03-07T05:53:00Z",-1.7,-3.9,9,30,"FEW",10,"KMSP 070553Z 03009KT 10SM FEW013 M02/M04 A3036 RMK AO2 SLP292 4/008 T10171039 10017 21017 400221017 53012",2023.03.07-00.55.01
"METAR","KMSP","2023-03-07T07:38:00Z",-2.2,-4.4,0,0,"BKN",10,"KMSP 070738Z 00000KT 10SM BKN021 M02/M04 A3040 RMK AO2 T10221044",2023.03.07-01.55.01
"METAR","KMSP","2023-03-07T07:53:00Z",-2.2,-4.4,0,0,"BKN",10,"KMSP 070753Z 00000KT 10SM BKN021 M02/M04 A3040 RMK AO2 SLP306 T10221044",2023.03.07-02.55.01
"METAR","KMSP","2023-03-07T08:53:00Z",-2.2,-3.9,0,0,"OVC",10,"KMSP 070853Z 00000KT 10SM OVC021 M02/M04 A3040 RMK AO2 SLP306 T10221039 51014",2023.03.07-03.55.01
null,null,null,null,null,null,null,null,null,null,2023.03.07-04.55.01
"METAR","KMSP","2023-03-07T10:53:00Z",-1.7,-3.9,4,10,"OVC",10,"KMSP 071053Z 01004KT 10SM OVC022 M02/M04 A3042 RMK AO2 SLP311 T10171039",2023.03.07-05.55.01
"METAR","KMSP","2023-03-07T11:53:00Z",-1.7,-3.3,6,330,"OVC",10,"KMSP 071153Z 33006KT 10SM OVC024 M02/M03 A3044 RMK AO2 SLP320 4/008 70002 T10171033 11017 21028 53014",2023.03.07-06.55.01
"METAR","KMSP","2023-03-07T13:08:00Z",-1.7,-3.9,6,340,"OVC",10,"KMSP 071308Z 34006KT 10SM OVC031 M02/M04 A3048 RMK AO2 T10171039",2023.03.07-07.55.01
"METAR","KMSP","2023-03-07T14:36:00Z",0,-3.3,7,40,"SCT",10,"KMSP 071436Z 04007KT 10SM SCT029 SCT250 00/M03 A3050 RMK AO2 T00001033",2023.03.07-08.55.01
"METAR","KMSP","2023-03-07T14:53:00Z",0.6,-2.8,6,60,"FEW",10,"KMSP 071453Z 06006KT 10SM FEW029 FEW250 01/M03 A3050 RMK AO2 SLP337 T00061028 51018 $",2023.03.07-09.55.01
"METAR","KMSP","2023-03-07T16:39:00Z",1.7,-3.9,9,130,"BKN",10,"KMSP 071639Z 13009KT 10SM BKN028 BKN250 02/M04 A3052 RMK AO2 T00171039 PNO $",2023.03.07-10.55.01
"METAR","KMSP","2023-03-07T17:01:00Z",1.7,-3.9,10,120,"BKN",10,"KMSP 071701Z 12010KT 10SM SCT028 BKN250 02/M04 A3052 RMK AO2 T00171039 PNO $",2023.03.07-11.55.02
"METAR","KMSP","2023-03-07T17:53:00Z",2.2,-4.4,8,110,"BKN",10,"KMSP 071753Z 11008KT 10SM FEW028 BKN250 02/M04 A3051 RMK AO2 SLP342 4/008 T00221044 10022 21017 50004",2023.03.07-12.55.01
"METAR","KMSP","2023-03-07T18:53:00Z",2.8,-4.4,11,110,"BKN",10,"KMSP 071853Z 11011G17KT 10SM FEW030 BKN250 03/M04 A3049 RMK AO2 SLP336 T00281044",2023.03.07-13.55.01
"METAR","KMSP","2023-03-07T19:53:00Z",3.3,-5.6,10,90,"BKN",10,"KMSP 071953Z 09010KT 10SM FEW030 BKN250 03/M06 A3048 RMK AO2 SLP332 T00331056",2023.03.07-14.55.01
"METAR","KMSP","2023-03-07T20:53:00Z",3.3,-5.6,10,100,"OVC",10,"KMSP 072053Z 10010KT 10SM FEW030 BKN150 OVC250 03/M06 A3048 RMK AO2 SLP331 T00331056 56011",2023.03.07-15.55.01
"METAR","KMSP","2023-03-07T21:53:00Z",3.9,-6.1,11,90,"OVC",10,"KMSP 072153Z 09011KT 10SM FEW030 BKN150 OVC250 04/M06 A3047 RMK AO2 SLP330 T00391061",2023.03.07-16.55.01
"METAR","KMSP","2023-03-07T22:53:00Z",3.3,-6.1,12,110,"OVC",10,"KMSP 072253Z 11012KT 10SM FEW030 BKN140 OVC250 03/M06 A3046 RMK AO2 SLP326 T00331061",2023.03.07-17.55.01
"METAR","KMSP","2023-03-07T23:53:00Z",2.8,-5.6,10,110,"OVC",10,"KMSP 072353Z 11010KT 10SM SCT140 BKN210 OVC250 03/M06 A3046 RMK AO2 SLP325 4/007 T00281056 10039 20022 58006",2023.03.07-18.55.01
"METAR","KMSP","2023-03-08T00:53:00Z",2.8,-5.6,7,80,"OVC",10,"KMSP 080053Z 08007KT 10SM FEW120 SCT150 OVC250 03/M06 A3046 RMK AO2 SLP324 T00281056",2023.03.07-19.55.01
"METAR","KMSP","2023-03-08T01:53:00Z",2.2,-5.6,9,80,"OVC",10,"KMSP 080153Z 08009KT 10SM SCT120 BKN150 OVC250 02/M06 A3044 RMK AO2 SLP318 T00221056",2023.03.07-20.55.01
"METAR","KMSP","2023-03-08T02:53:00Z",2.2,-6.1,11,90,"OVC",10,"KMSP 080253Z 09011KT 10SM BKN120 BKN150 OVC250 02/M06 A3045 RMK AO2 SLP320 T00221061 55004",2023.03.07-21.55.01
"METAR","KMSP","2023-03-08T03:53:00Z",2.2,-5.6,11,100,"OVC",10,"KMSP 080353Z 10011G18KT 10SM BKN120 OVC170 02/M06 A3044 RMK AO2 SLP316 T00221056",2023.03.07-22.55.01
"METAR","KMSP","2023-03-08T04:53:00Z",2.2,-5.6,11,110,"OVC",10,"KMSP 080453Z 11011KT 10SM BKN100 OVC140 02/M06 A3044 RMK AO2 SLP318 T00221056",2023.03.07-23.55.01
"METAR","KMSP","2023-03-08T05:53:00Z",1.7,-6.1,10,110,"BKN",10,"KMSP 080553Z 11010KT 10SM FEW110 BKN130 02/M06 A3045 RMK AO2 SLP321 T00171061 10033 20017 400441028 53001",2023.03.08-00.55.01
"METAR","KMSP","2023-03-08T06:53:00Z",1.7,-6.7,8,100,"OVC",10,"KMSP 080653Z 10008KT 10SM OVC110 02/M07 A3046 RMK AO2 SLP323 T00171067",2023.03.08-01.55.01
"METAR","KMSP","2023-03-08T07:53:00Z",1.1,-6.7,9,100,"OVC",10,"KMSP 080753Z 10009KT 10SM OVC110 01/M07 A3046 RMK AO2 SLP323 T00111067",2023.03.08-02.55.01
"METAR","KMSP","2023-03-08T08:53:00Z",1.1,-7.2,10,100,"OVC",10,"KMSP 080853Z 10010KT 10SM OVC100 01/M07 A3046 RMK AO2 SLP322 T00111072 50001",2023.03.08-03.55.01
"METAR","KMSP","2023-03-08T09:53:00Z",0.6,-8.3,12,110,"OVC",10,"KMSP 080953Z 11012KT 10SM OVC110 01/M08 A3045 RMK AO2 SLP320 T00061083",2023.03.08-04.55.01
"METAR","KMSP","2023-03-08T10:53:00Z",0,-9.4,12,110,"OVC",10,"KMSP 081053Z 11012KT 10SM OVC100 00/M09 A3044 RMK AO2 SLP317 T00001094",2023.03.08-05.55.01
"METAR","KMSP","2023-03-08T11:53:00Z",0,-9.4,11,110,"OVC",10,"KMSP 081153Z 11011KT 10SM SCT055 OVC120 00/M09 A3043 RMK AO2 SLP314 4/007 T00001094 10017 20000 58009",2023.03.08-06.55.01
"METAR","KMSP","2023-03-08T12:53:00Z",0,-8.3,10,120,"OVC",10,"KMSP 081253Z 12010KT 10SM OVC060 00/M08 A3043 RMK AO2 SLP316 T00001083",2023.03.08-07.55.02
"METAR","KMSP","2023-03-08T13:53:00Z",0.6,-8.3,10,130,"OVC",10,"KMSP 081353Z 13010KT 10SM FEW040 OVC060 01/M08 A3044 RMK AO2 SLP317 T00061083",2023.03.08-08.55.01
"METAR","KMSP","2023-03-08T14:53:00Z",1.1,-7.2,11,140,"OVC",10,"KMSP 081453Z 14011KT 10SM OVC050 01/M07 A3045 RMK AO2 SLP320 T00111072 53006",2023.03.08-09.55.02
"METAR","KMSP","2023-03-08T16:32:00Z",1.1,-6.1,13,140,"OVC",9,"KMSP 081632Z 14013KT 9SM -SN BKN039 OVC050 01/M06 A3046 RMK AO2 SNB31 P0000 T00111061",2023.03.08-10.55.02
"METAR","KMSP","2023-03-08T17:29:00Z",0,-3.3,7,150,"OVC",3,"KMSP 081729Z 15007KT 3SM R30L/5500VP6000FT -SN OVC031 00/M03 A3046 RMK AO2 SFC VIS 5 P0000 T00001033",2023.03.08-11.55.01
"METAR","KMSP","2023-03-08T18:42:00Z",0,-2.8,8,130,"OVC",2,"KMSP 081842Z 13008KT 2SM -SN BKN025 OVC035 00/M03 A3046 RMK AO2 P0000 T00001028",2023.03.08-12.55.01
"METAR","KMSP","2023-03-08T19:16:00Z",0,-2.2,8,120,"OVC",3,"KMSP 081916Z 12008KT 3SM -SN SCT021 OVC035 00/M02 A3045 RMK AO2 SFC VIS 7 P0000 T00001022",2023.03.08-13.55.01
"METAR","KMSP","2023-03-08T20:32:00Z",0,-1.7,5,120,"OVC",8,"KMSP 082032Z 12005KT 8SM -SN FEW012 BKN035 OVC043 00/M02 A3043 RMK AO2 P0000 T00001017",2023.03.08-14.55.01
"METAR","KMSP","2023-03-08T20:53:00Z",0.6,-2.2,6,110,"OVC",9,"KMSP 082053Z 11006KT 9SM -SN FEW012 BKN041 OVC050 01/M02 A3043 RMK AO2 SLP316 P0000 60001 T00061022 57008",2023.03.08-15.55.01
"METAR","KMSP","2023-03-08T21:53:00Z",1.1,-2.2,5,0,"OVC",9,"KMSP 082153Z VRB05KT 9SM -SN OVC040 01/M02 A3043 RMK AO2 SLP314 P0001 T00111022",2023.03.08-16.55.01
"METAR","KMSP","2023-03-08T23:18:00Z",0.6,-1.7,4,20,"OVC",3,"KMSP 082318Z 02004KT 3SM -SN BR BKN042 OVC055 01/M02 A3042 RMK AO2 SFC VIS 5 P0000 T00061017",2023.03.08-17.55.01
"METAR","KMSP","2023-03-09T00:45:00Z",1.1,-2.2,3,0,"OVC",2.5,"KMSP 090045Z VRB03KT 2 1/2SM -SN OVC036 01/M02 A3043 RMK AO2 TWR VIS 3 P0000 T00111022",2023.03.08-18.55.01
"METAR","KMSP","2023-03-09T01:09:00Z",0.6,-2.2,5,80,"OVC",3,"KMSP 090109Z 08005KT 3SM -SN OVC034 01/M02 A3043 RMK AO2 P0000 T00061022",2023.03.08-19.55.01
"METAR","KMSP","2023-03-09T01:53:00Z",0.6,-2.2,4,20,"OVC",3,"KMSP 090153Z 02004KT 3SM -SN OVC044 01/M02 A3043 RMK AO2 SFC VIS 6 SLP315 P0001 T00061022",2023.03.08-20.55.01
"METAR","KMSP","2023-03-09T03:45:00Z",0,-1.7,5,0,"OVC",9,"KMSP 090345Z VRB05KT 9SM OVC050 00/M02 A3042 RMK AO2 SNE41 P0000 T00001017",2023.03.08-21.55.01
"METAR","KMSP","2023-03-09T03:53:00Z",0,-1.7,5,20,"OVC",10,"KMSP 090353Z 02005KT 10SM OVC050 00/M02 A3042 RMK AO2 SNE41 SLP313 P0000 T00001017",2023.03.08-22.55.01
"METAR","KMSP","2023-03-09T04:53:00Z",0,-2.2,6,10,"OVC",10,"KMSP 090453Z 01006KT 10SM OVC055 00/M02 A3042 RMK AO2 SLP311 T00001022",2023.03.08-23.55.01
"METAR","KMSP","2023-03-09T05:53:00Z",0.6,-2.2,6,30,"OVC",10,"KMSP 090553Z 03006KT 10SM OVC050 01/M02 A3041 RMK AO2 SLP309 4/008 60001 T00061022 10011 20000 400170000 58004",2023.03.09-00.55.01
"METAR","KMSP","2023-03-09T06:53:00Z",0,-2.2,5,10,"OVC",10,"KMSP 090653Z 01005KT 10SM OVC055 00/M02 A3041 RMK AO2 SLP309 T00001022",2023.03.09-01.55.01
"METAR","KMSP","2023-03-09T07:53:00Z",0,-2.2,3,350,"OVC",10,"KMSP 090753Z 35003KT 10SM OVC050 00/M02 A3041 RMK AO2 SLP308 T00001022",2023.03.09-02.55.01
"METAR","KMSP","2023-03-09T08:53:00Z",0,-2.2,4,20,"OVC",10,"KMSP 090853Z 02004KT 10SM OVC050 00/M02 A3039 RMK AO2 SLP301 T00001022 58007",2023.03.09-03.55.01
"METAR","KMSP","2023-03-09T09:53:00Z",0.6,-2.8,6,70,"OVC",10,"KMSP 090953Z 07006KT 10SM OVC055 01/M03 A3037 RMK AO2 SLP292 T00061028",2023.03.09-04.55.01
"METAR","KMSP","2023-03-09T10:53:00Z",1.1,-4.4,7,90,"OVC",10,"KMSP 091053Z 09007KT 10SM OVC050 01/M04 A3036 RMK AO2 SLP292 T00111044",2023.03.09-05.55.02
"METAR","KMSP","2023-03-09T11:53:00Z",0.6,-5,8,80,"OVC",10,"KMSP 091153Z 08008G17KT 10SM OVC050 01/M05 A3035 RMK AO2 SLP286 4/008 70005 T00061050 10011 21006 56015",2023.03.09-06.55.01
"METAR","KMSP","2023-03-09T12:53:00Z",0.6,-5,7,80,"OVC",10,"KMSP 091253Z 08007KT 10SM OVC060 01/M05 A3035 RMK AO2 SLP287 T00061050",2023.03.09-07.55.01
"METAR","KMSP","2023-03-09T14:50:00Z",-1,-4,10,100,"OVC",1,"KMSP 091450Z 10010KT 1SM R30L/5500VP6000FT -SN BKN023 OVC032 M01/M04 A3036 RMK AO2 SNB07 P0000",2023.03.09-08.55.01
"METAR","KMSP","2023-03-09T15:33:00Z",-0.6,-2.8,9,90,"OVX",0.75,"KMSP 091533Z 09009KT 3/4SM R30L/5000VP6000FT -SN BR VV013 M01/M03 A3035 RMK AO2 TWR VIS 1 P0001 T10061028",2023.03.09-09.55.01
"METAR","KMSP","2023-03-09T15:53:00Z",-0.6,-2.2,7,90,"OVC",1,"KMSP 091553Z 09007KT 1SM R30L/P6000FT -SN BR SCT009 OVC013 M01/M02 A3036 RMK AO2 SFC VIS 1 1/4 SLP291 P0002 T10061022",2023.03.09-10.55.01
"METAR","KMSP","2023-03-09T17:37:00Z",0.6,-2.2,13,90,"OVC",2,"KMSP 091737Z 09013G27KT 2SM -SN SCT012 BKN018 OVC033 01/M02 A3033 RMK AO2 PK WND 09027/1728 SFC VIS 3 P0001 T00061022",2023.03.09-11.55.01
"METAR","KMSP","2023-03-09T18:15:00Z",0.6,-2.2,15,100,"OVC",3,"KMSP 091815Z 10015G29KT 3SM -SN BKN016 BKN022 OVC035 01/M02 A3032 RMK AO2 PK WND 11029/1809 SFC VIS 4 P0000 T00061022",2023.03.09-12.55.01
"METAR","KMSP","2023-03-09T19:20:00Z",0.6,-2.2,15,100,"OVC",1.5,"KMSP 091920Z 10015G25KT 1 1/2SM -SN FEW017 BKN022 OVC036 01/M02 A3029 RMK AO2 P0000 T00061022",2023.03.09-13.55.01
"METAR","KMSP","2023-03-09T19:53:00Z",0.6,-1.7,13,90,"OVC",1,"KMSP 091953Z 09013KT 1SM R30L/5000VP6000FT -SN BR FEW010 BKN015 OVC021 01/M02 A3029 RMK AO2 TWR VIS 1 1/2 SLP266 P0000 T00061017",2023.03.09-14.55.01
"METAR","KMSP","2023-03-09T21:51:00Z",1,-2,13,80,"OVC",1.75,"KMSP 092151Z 08013KT 1 3/4SM -SN BR BKN012 OVC024 01/M02 A3027 RMK AO2 TWR VIS 2 P0001",2023.03.09-15.55.01
"METAR","KMSP","2023-03-09T22:24:00Z",0,-2.2,17,80,"OVC",1,"KMSP 092224Z 08017G28KT 1SM R30L/5000VP6000FT -SN BR BKN012 OVC020 00/M02 A3027 RMK AO2 PK WND 08028/2217 TWR VIS 1 3/4 P0000 T00001022",2023.03.09-16.55.02
"METAR","KMSP","2023-03-09T23:51:00Z",-1,-3,11,70,"OVC",1.75,"KMSP 092351Z 07011KT 1 3/4SM -SN BR SCT009 OVC023 M01/M03 A3027 RMK AO2 PK WND 12029/2301 TWR VIS 2 4/009 P0001",2023.03.09-17.55.02
"METAR","KMSP","2023-03-10T00:39:00Z",-0.6,-2.8,8,60,"OVC",3,"KMSP 100039Z 06008KT 3SM -SN BR FEW009 OVC033 M01/M03 A3026 RMK AO2 SFC VIS 4 P0001 T10061028",2023.03.09-18.55.02
"METAR","KMSP","2023-03-10T01:39:00Z",-0.6,-2.2,6,50,"OVC",1.75,"KMSP 100139Z 05006KT 1 3/4SM -SN BR FEW008 SCT015 OVC025 M01/M02 A3026 RMK AO2 TWR VIS 2 1/2 P0000 T10061022",2023.03.09-19.55.01
"METAR","KMSP","2023-03-10T01:53:00Z",-1.1,-2.8,6,40,"OVC",1.5,"KMSP 100153Z 04006KT 1 1/2SM -SN BR FEW008 OVC021 M01/M03 A3026 RMK AO2 TWR VIS 2 1/2 SLP256 P0000 T10111028",2023.03.09-20.55.01
"METAR","KMSP","2023-03-10T03:51:00Z",-1,-3,5,0,"OVC",1.75,"KMSP 100351Z VRB05KT 1 3/4SM -SN BR SCT008 BKN014 OVC021 M01/M03 A3025 RMK AO2 TWR VIS 2 P0001",2023.03.09-21.55.01
"METAR","KMSP","2023-03-10T04:37:00Z",-1.1,-2.2,6,40,"OVC",1,"KMSP 100437Z 04006KT 1SM R30L/P6000FT -SN BR OVC014 M01/M02 A3024 RMK AO2 SFC VIS 1 1/2 P0002 T10111022",2023.03.09-22.55.01
"METAR","KMSP","2023-03-10T05:32:00Z",-1.1,-3.3,9,80,"OVC",2,"KMSP 100532Z 08009KT 2SM -SN BR FEW007 OVC022 M01/M03 A3024 RMK AO2 SFC VIS 2 1/2 P0001 T10111033",2023.03.09-23.55.01
"METAR","KMSP","2023-03-10T06:45:00Z",-1.7,-3.3,8,70,"OVC",4,"KMSP 100645Z 07008KT 4SM -SN BR OVC034 M02/M03 A3023 RMK AO2 P0000 T10171033",2023.03.10-00.55.01
"METAR","KMSP","2023-03-10T07:37:00Z",-1.7,-2.8,4,330,"OVC",4,"KMSP 100737Z 33004KT 4SM -SN BR SCT008 BKN023 OVC030 M02/M03 A3023 RMK AO2 P0001 T10171028",2023.03.10-01.55.01
"METAR","KMSP","2023-03-10T08:37:00Z",-1.7,-2.8,5,360,"OVC",3,"KMSP 100837Z 36005KT 3SM -SN BR SCT008 BKN014 OVC027 M02/M03 A3022 RMK AO2 P0001 T10171028",2023.03.10-02.55.01
"METAR","KMSP","2023-03-10T09:36:00Z",-2.2,-3.3,7,10,"OVC",3,"KMSP 100936Z 01007KT 3SM -SN BR FEW008 BKN019 OVC032 M02/M03 A3021 RMK AO2 P0001 T10221033",2023.03.10-03.55.01
"METAR","KMSP","2023-03-10T10:28:00Z",-2.2,-3.9,9,20,"OVC",4,"KMSP 101028Z 02009KT 4SM -SN BR BKN013 OVC031 M02/M04 A3021 RMK AO2 P0000 T10221039",2023.03.10-04.55.01
"METAR","KMSP","2023-03-10T11:28:00Z",-2.2,-3.9,7,10,"OVC",5,"KMSP 101128Z 01007KT 5SM -SN BR SCT009 OVC014 M02/M04 A3021 RMK AO2 P0000 T10221039",2023.03.10-05.55.01
"METAR","KMSP","2023-03-10T12:50:00Z",-3,-5,7,30,"OVC",7,"KMSP 101250Z 03007G19KT 7SM -SN SCT017 BKN030 OVC065 M03/M05 A3022 RMK AO2 P0000",2023.03.10-06.55.01
"METAR","KMSP","2023-03-10T12:53:00Z",-2.8,-5,8,30,"OVC",7,"KMSP 101253Z 03008G21KT 260V130 7SM -SN BKN017 BKN030 OVC065 M03/M05 A3022 RMK AO2 SLP246 P0000 T10281050",2023.03.10-07.55.01
"METAR","KMSP","2023-03-10T14:39:00Z",-2.2,-5,7,30,"OVC",10,"KMSP 101439Z 03007KT 10SM OVC015 M02/M05 A3023 RMK AO2 SNE24 P0000 T10221050",2023.03.10-08.55.01
"METAR","KMSP","2023-03-10T15:13:00Z",-2.2,-5,7,30,"OVC",10,"KMSP 101513Z 03007KT 10SM OVC014 M02/M05 A3023 RMK AO2 T10221050",2023.03.10-09.55.01
"METAR","KMSP","2023-03-10T15:53:00Z",-1.7,-5,5,60,"OVC",10,"KMSP 101553Z 06005KT 10SM OVC016 M02/M05 A3024 RMK AO2 SLP251 T10171050",2023.03.10-10.55.01
"METAR","KMSP","2023-03-10T16:53:00Z",-1.1,-5,5,40,"OVC",10,"KMSP 101653Z 04005KT 10SM FEW015 OVC021 M01/M05 A3023 RMK AO2 SLP247 T10111050",2023.03.10-11.55.01
"METAR","KMSP","2023-03-10T17:53:00Z",-1.1,-5,5,0,"OVC",10,"KMSP 101753Z VRB05KT 10SM OVC022 M01/M05 A3024 RMK AO2 SLP251 4/010 60000 T10111050 11011 21033 53002",2023.03.10-12.55.01
"METAR","KMSP","2023-03-10T19:27:00Z",0.6,-5.6,5,40,"OVC",10,"KMSP 101927Z 04005KT 10SM FEW024 BKN030 OVC039 01/M06 A3021 RMK AO2 T00061056",2023.03.10-13.55.01
"METAR","KMSP","2023-03-10T20:22:00Z",0,-5.6,6,50,"OVC",10,"KMSP 102022Z 05006KT 10SM SCT026 OVC034 00/M06 A3018 RMK AO2 T00001056",2023.03.10-14.55.01
"METAR","KMSP","2023-03-10T21:45:00Z",0.6,-5.6,7,40,"OVC",10,"KMSP 102145Z 04007KT 10SM BKN028 OVC034 01/M06 A3018 RMK AO2 T00061056",2023.03.10-15.55.01
"METAR","KMSP","2023-03-10T22:03:00Z",0,-5.6,8,40,"OVC",10,"KMSP 102203Z 04008KT 10SM OVC030 00/M06 A3019 RMK AO2 T00001056",2023.03.10-16.55.01
"METAR","KMSP","2023-03-10T22:53:00Z",0.6,-6.1,6,60,"OVC",10,"KMSP 102253Z 06006KT 10SM OVC035 01/M06 A3018 RMK AO2 SLP229 T00061061",2023.03.10-17.55.01
"METAR","KMSP","2023-03-10T23:53:00Z",0,-6.1,6,0,"OVC",10,"KMSP 102353Z VRB06KT 10SM OVC036 00/M06 A3015 RMK AO2 SLP222 4/009 T00001061 10006 21011 58007",2023.03.10-18.55.01
"METAR","KMSP","2023-03-11T00:53:00Z",0,-6.1,7,40,"OVC",10,"KMSP 110053Z 04007KT 10SM OVC037 00/M06 A3017 RMK AO2 SLP227 T00001061",2023.03.10-19.55.01
"METAR","KMSP","2023-03-11T01:53:00Z",-0.6,-6.1,8,50,"OVC",10,"KMSP 110153Z 05008KT 10SM OVC037 M01/M06 A3014 RMK AO2 SLP217 T10061061",2023.03.10-20.55.01
"METAR","KMSP","2023-03-11T02:53:00Z",-0.6,-6.1,10,70,"OVC",10,"KMSP 110253Z 07010G24KT 10SM OVC038 M01/M06 A3014 RMK AO2 PK WND 05026/0220 SLP217 T10061061 58005",2023.03.10-21.55.01
"METAR","KMSP","2023-03-11T03:53:00Z",-1.1,-6.1,8,60,"OVC",10,"KMSP 110353Z 06008KT 10SM OVC038 M01/M06 A3015 RMK AO2 SLP222 T10111061",2023.03.10-22.55.01
"METAR","KMSP","2023-03-11T04:53:00Z",-1.7,-5.6,12,80,"OVC",10,"KMSP 110453Z 08012KT 10SM OVC038 M02/M06 A3012 RMK AO2 SLP211 T10171056",2023.03.10-23.55.01
"METAR","KMSP","2023-03-11T05:53:00Z",-1.7,-6.1,10,90,"OVC",10,"KMSP 110553Z 09010KT 10SM OVC036 M02/M06 A3010 RMK AO2 SLP204 4/009 T10171061 10000 21017 400061033 58013",2023.03.11-00.55.01
"METAR","KMSP","2023-03-11T06:53:00Z",-1.7,-6.1,9,90,"OVC",10,"KMSP 110653Z 09009KT 10SM OVC037 M02/M06 A3009 RMK AO2 SLP198 T10171061",2023.03.11-01.55.01
"METAR","KMSP","2023-03-11T08:49:00Z",-2,-6,8,90,"OVC",10,"KMSP 110849Z 09008KT 10SM SCT027 OVC036 M02/M06 A3008 RMK AO2",2023.03.11-02.55.01
"METAR","KMSP","2023-03-11T08:53:00Z",-2.2,-6.1,9,90,"OVC",10,"KMSP 110853Z 09009KT 10SM FEW027 OVC037 M02/M06 A3008 RMK AO2 SLP196 T10221061 58003",2023.03.11-03.55.01
"METAR","KMSP","2023-03-11T09:53:00Z",-2.2,-6.1,9,90,"OVC",10,"KMSP 110953Z 09009KT 10SM OVC036 M02/M06 A3005 RMK AO2 SLP187 T10221061",2023.03.11-04.55.01
"METAR","KMSP","2023-03-11T11:30:00Z",-1.7,-5.6,11,110,"OVC",10,"KMSP 111130Z 11011KT 10SM SCT025 OVC036 M02/M06 A3003 RMK AO2 T10171056",2023.03.11-05.55.01
"METAR","KMSP","2023-03-11T11:53:00Z",-1.7,-5.6,14,110,"OVC",10,"KMSP 111153Z 11014KT 10SM BKN023 OVC035 M02/M06 A3003 RMK AO2 SLP179 4/009 T10171056 11017 21022 56017",2023.03.11-06.55.01
"METAR","KMSP","2023-03-11T12:53:00Z",-1.7,-5.6,13,110,"OVC",10,"KMSP 111253Z 11013KT 10SM OVC019 M02/M06 A3002 RMK AO2 SLP177 T10171056",2023.03.11-07.55.01
"METAR","KMSP","2023-03-11T14:46:00Z",-1.7,-5,10,120,"OVC",5,"KMSP 111446Z 12010KT 5SM -SN OVC017 M02/M05 A3003 RMK AO2 SNB38 P0000 T10171050",2023.03.11-08.55.01
"METAR","KMSP","2023-03-11T15:50:00Z",-2,-4,14,100,"OVC",1.75,"KMSP 111550Z 10014KT 1 3/4SM -SN BR FEW015 BKN020 OVC026 M02/M04 A3000 RMK AO2 TWR VIS 2 P0001",2023.03.11-09.55.01
"METAR","KMSP","2023-03-11T16:40:00Z",-1.7,-3.3,13,130,"OVX",0.5,"KMSP 111640Z 13013KT 1/2SM R30L/2800V6000FT SN FZFG VV009 M02/M03 A2999 RMK AO2 TWR VIS 1 P0002 T10171033",2023.03.11-10.55.01
"METAR","KMSP","2023-03-11T17:43:00Z",-1.1,-2.2,15,120,"OVC",1,"KMSP 111743Z 12015G24KT 1SM R30L/P6000FT -SN BR BKN009 BKN012 OVC017 M01/M02 A2995 RMK AO2 PK WND 14027/1717 P0002 T10111022",2023.03.11-11.55.01
"METAR","KMSP","2023-03-11T18:48:00Z",-0.6,-2.2,18,120,"OVC",3,"KMSP 111848Z 12018G29KT 3SM -SN BR BKN010 OVC015 M01/M02 A2992 RMK AO2 PK WND 12029/1847 SFC VIS 3 SLP143 P0001 T10061022",2023.03.11-12.55.01
"METAR","KMSP","2023-03-11T19:51:00Z",-1,-4,11,140,"OVC",1.75,"KMSP 111951Z 14011G26KT 1 3/4SM -SN OVC014 M01/M04 A2991 RMK AO2 PK WND 13032/1909 TWR VIS 2 SNE25B43 P0000",2023.03.11-13.55.01
"METAR","KMSP","2023-03-11T20:24:00Z",-1.7,-3.3,13,110,"OVC",4,"KMSP 112024Z 11013KT 4SM -SN BR OVC014 M02/M03 A2990 RMK AO2 P0000 T10171033",2023.03.11-14.55.01
"METAR","KMSP","2023-03-11T20:53:00Z",-1.7,-3.3,13,120,"OVC",4,"KMSP 112053Z 12013KT 4SM -SN BR BKN014 OVC019 M02/M03 A2990 RMK AO2 SLP137 P0000 60001 T10171033 56014",2023.03.11-15.55.01
"METAR","KMSP","2023-03-11T22:44:00Z",-1.7,-2.8,9,130,"OVC",1.75,"KMSP 112244Z 13009KT 1 3/4SM -FZDZSN BR BKN010 OVC014 M02/M03 A2993 RMK AO2 TWR VIS 2 DZB02E03FZDZB03 P0004 I1000 T10171028 $",2023.03.11-16.55.01
"METAR","KMSP","2023-03-11T23:48:00Z",-2,-3,9,120,"OVC",0.75,"KMSP 112348Z 12009KT 3/4SM R30L/5000VP6000FT -FZDZSN BR FEW004 SCT009 OVC015 M02/M03 A2993 RMK AO2 TWR VIS 1 FZDZE2256B20 P0003 I1000 $",2023.03.11-17.55.01
"METAR","KMSP","2023-03-12T00:41:00Z",-1.7,-2.8,10,130,"OVC",2,"KMSP 120041Z 13010KT 2SM -FZDZSN BR SCT008 BKN013 OVC026 M02/M03 A2992 RMK AO2 TWR VIS 2 1/2 P0001 I1000 T10171028 $",2023.03.11-18.55.01
"METAR","KMSP","2023-03-12T01:41:00Z",-1.7,-2.8,9,130,"OVC",6,"KMSP 120141Z 13009KT 6SM -SN OVC011 M02/M03 A2991 RMK AO2 P0000 T10171028 $",2023.03.11-19.55.01
"METAR","KMSP","2023-03-12T02:42:00Z",-1.1,-2.8,10,150,"OVC",10,"KMSP 120242Z 15010KT 10SM SCT010 OVC017 M01/M03 A2991 RMK AO2 SNE27 P0000 T10111028 $",2023.03.11-20.55.01
"METAR","KMSP","2023-03-12T03:13:00Z",-1.7,-2.8,10,140,"OVC",6,"KMSP 120313Z 14010KT 6SM -FZDZ BR OVC009 M02/M03 A2991 RMK AO2 P0000 I1000 T10171028 $",2023.03.11-21.55.01
"METAR","KMSP","2023-03-12T04:45:00Z",-1.7,-2.8,9,150,"OVC",9,"KMSP 120445Z 15009KT 9SM OVC007 M02/M03 A2988 RMK AO2 FZDZE39 P0000 I1000 T10171028 $",2023.03.11-22.55.01
"METAR","KMSP","2023-03-12T04:53:00Z",-1.7,-2.2,9,150,"OVC",10,"KMSP 120453Z 15009KT 10SM OVC007 M02/M02 A2988 RMK AO2 FZDZE39 SLP129 P0000 I1000 T10171022 $",2023.03.11-23.55.01
"METAR","KMSP","2023-03-12T05:53:00Z",-1.1,-2.2,10,160,"OVC",10,"KMSP 120553Z 16010KT 10SM OVC006 M01/M02 A2986 RMK AO2 SLP123 4/011 60001 I6001 T10111022 11011 21017 410061022 58016 $",2023.03.12-00.55.01
"METAR","KMSP","2023-03-12T07:38:00Z",-0.6,-1.7,8,170,"OVC",6,"KMSP 120738Z 17008KT 6SM BR OVC010 M01/M02 A2983 RMK AO2 SNB10E24 P0000 T10061017 $",2023.03.12-01.55.01
"METAR","KMSP","2023-03-12T08:45:00Z",0,-1.7,5,210,"OVC",9,"KMSP 120845Z 21005KT 9SM SCT014 BKN028 OVC065 00/M02 A2981 RMK AO2 T00001017 $",2023.03.12-03.55.01
"METAR","KMSP","2023-03-12T09:37:00Z",-0.6,-2.8,7,230,"OVC",7,"KMSP 120937Z 23007KT 7SM SCT011 BKN032 OVC055 M01/M03 A2979 RMK AO2 SNB0854E02B08E33 P0001 T10061028 $",2023.03.12-04.55.01
"METAR","KMSP","2023-03-12T10:10:00Z",-1.1,-3.3,9,240,"OVC",8,"KMSP 121010Z 24009KT 8SM -SN FEW021 BKN039 OVC060 M01/M03 A2979 RMK AO2 SNB08 P0000 T10111033 $",2023.03.12-05.55.01
"METAR","KMSP","2023-03-12T11:41:00Z",-2.2,-6.1,8,270,"OVC",10,"KMSP 121141Z 27008KT 10SM -SN BKN026 OVC060 M02/M06 A2979 RMK AO2 SNB41 P0000 T10221061 $",2023.03.12-06.55.01
"METAR","KMSP","2023-03-12T12:45:00Z",-2.8,-5.6,5,220,"OVC",1.75,"KMSP 121245Z 22005KT 1 3/4SM -SN FEW012 SCT020 OVC028 M03/M06 A2980 RMK AO2 TWR VIS 2 P0000 T10281056 $",2023.03.12-07.55.01
"METAR","KMSP","2023-03-12T13:31:00Z",-3.3,-5.6,7,240,"OVC",3,"KMSP 121331Z 24007KT 3SM -SN BR SCT014 BKN020 OVC029 M03/M06 A2980 RMK AO2 P0001 T10331056 $",2023.03.12-08.55.01
"METAR","KMSP","2023-03-12T13:53:00Z",-3.3,-5.6,7,230,"OVC",5,"KMSP 121353Z 23007KT 5SM -SN BR SCT014 OVC025 M03/M06 A2980 RMK AO2 SLP101 P0001 T10331056 $",2023.03.12-09.55.01
"METAR","KMSP","2023-03-12T14:53:00Z",-2.8,-5.6,8,240,"OVC",5,"KMSP 121453Z 24008KT 5SM HZ BKN015 BKN022 OVC031 M03/M06 A2980 RMK AO2 SNE1354B17E48 SLP101 P0000 60001 T10281056 51002 $",2023.03.12-10.55.01
"METAR","KMSP","2023-03-12T16:42:00Z",-2.2,-5.6,7,250,"OVC",4,"KMSP 121642Z 25007KT 4SM -SN FEW016 SCT021 OVC028 M02/M06 A2982 RMK AO2 SNB40 P0000 T10221056 $",2023.03.12-11.55.01
"METAR","KMSP","2023-03-12T17:18:00Z",-1.7,-5.6,8,250,"OVC",1.75,"KMSP 121718Z 25008KT 1 3/4SM -SN SCT017 BKN024 OVC031 M02/M06 A2982 RMK AO2 P0000 T10171056 $",2023.03.12-12.55.01
"METAR","KMSP","2023-03-12T18:21:00Z",-1.1,-5,8,260,"OVC",3,"KMSP 121821Z 26008KT 3SM -SN BKN020 OVC030 M01/M05 A2983 RMK AO2 P0001 T10111050 $",2023.03.12-13.55.02
"METAR","KMSP","2023-03-12T19:47:00Z",-1,-3,7,280,"OVC",1,"KMSP 121947Z 28007KT 1SM R30L/4500VP6000FT -SN BR FEW010 OVC016 M01/M03 A2983 RMK AO2 TWR VIS 2 P0001 $",2023.03.12-14.55.01
"METAR","KMSP","2023-03-12T20:51:00Z",0,-3,8,300,"OVC",2,"KMSP 122051Z 30008KT 2SM -SN FEW014 BKN019 OVC030 00/M03 A2984 RMK AO2 SFC VIS 2 1/2 P0001",2023.03.12-15.55.01
"METAR","KMSP","2023-03-12T21:43:00Z",0,-3.9,13,350,"OVC",4,"KMSP 122143Z COR 35013G20KT 4SM -SN FEW013 SCT019 OVC029 00/M04 A2985 RMK AO2 P0000 T00001039",2023.03.12-16.55.01
"METAR","KMSP","2023-03-12T22:41:00Z",-0.6,-3.9,11,340,"OVC",4,"KMSP 122241Z 34011KT 4SM -SN SCT017 BKN022 OVC037 M01/M04 A2988 RMK AO2 P0000 T10061039",2023.03.12-17.55.01
"METAR","KMSP","2023-03-12T22:53:00Z",-0.6,-3.9,15,350,"OVC",5,"KMSP 122253Z 35015G21KT 5SM -SN SCT017 BKN022 OVC040 M01/M04 A2988 RMK AO2 SLP129 P0000 T10061039",2023.03.12-18.55.01
"METAR","KMSP","2023-03-12T23:53:00Z",-1.1,-4.4,15,340,"OVC",9,"KMSP 122353Z 34015KT 9SM -SN BKN018 OVC035 M01/M04 A2992 RMK AO2 SLP143 4/011 P0000 60003 T10111044 10000 21017 53028",2023.03.12-19.55.01
"METAR","KMSP","2023-03-13T00:53:00Z",-1.7,-5,14,350,"OVC",8,"KMSP 130053Z 35014KT 8SM -SN OVC017 M02/M05 A2995 RMK AO2 SLP154 P0000 T10171050",2023.03.12-20.55.01
"METAR","KMSP","2023-03-13T02:20:00Z",-2.8,-6.1,16,350,"OVC",9,"KMSP 130220Z 35016G32KT 9SM -SN OVC015 M03/M06 A3001 RMK AO2 PK WND 35032/0211 P0000 T10281061",2023.03.12-21.55.01
"METAR","KMSP","2023-03-13T03:43:00Z",-3.3,-7.2,19,350,"OVC",9,"KMSP 130343Z 35019G26KT 9SM BKN022 OVC044 M03/M07 A3005 RMK AO2 PK WND 35031/0302 SNE43 P0000 T10331072",2023.03.12-22.55.01
"METAR","KMSP","2023-03-13T04:50:00Z",-4,-8,14,360,"OVC",10,"KMSP 130450Z 36014G22KT 10SM SCT021 OVC036 M04/M08 A3008 RMK AO2 PK WND 34027/0420 SNB0357E06 P0000",2023.03.12-23.55.01
"METAR","KMSP","2023-03-13T04:53:00Z",-4.4,-8.3,13,350,"OVC",10,"KMSP 130453Z 35013G22KT 10SM SCT021 OVC034 M04/M08 A3008 RMK AO2 PK WND 34027/0420 SNB0357E06 SLP197 P0000 T10441083",2023.03.13-00.55.02
"METAR","KMSP","2023-03-13T05:53:00Z",-4.4,-8.3,14,360,"OVC",10,"KMSP 130553Z 36014G25KT 10SM BKN033 OVC044 M04/M08 A3009 RMK AO2 SLP203 4/011 60000 T10441083 11011 21050 400001050 51015",2023.03.13-01.55.02
"METAR","KMSP","2023-03-13T06:53:00Z",-5,-8.3,12,10,"OVC",8,"KMSP 130653Z 01012G22KT 8SM -SN OVC034 M05/M08 A3012 RMK AO2 SNB14 SLP213 P0000 T10501083",2023.03.13-02.55.01
"METAR","KMSP","2023-03-13T07:53:00Z",-5.6,-8.9,14,350,"OVC",9,"KMSP 130753Z 35014G22KT 9SM -SN BKN020 OVC042 M06/M09 A3015 RMK AO2 SLP224 P0000 T10561089",2023.03.13-03.55.01
"METAR","KMSP","2023-03-13T08:53:00Z",-6.1,-9.4,15,360,"OVC",9,"KMSP 130853Z 36015KT 9SM -SN OVC017 M06/M09 A3017 RMK AO2 SLP230 P0000 60000 T10611094 51026",2023.03.13-04.55.01
"METAR","KMSP","2023-03-13T10:38:00Z",-6.7,-10,12,350,"SCT",9,"KMSP 131038Z 35012KT 9SM -SN SCT016 SCT060 M07/M10 A3020 RMK AO2 SNB07 P0000 T10671100",2023.03.13-05.55.01
"METAR","KMSP","2023-03-13T10:53:00Z",-6.7,-10.6,14,360,"SCT",9,"KMSP 131053Z 36014KT 9SM FEW016 SCT060 M07/M11 A3021 RMK AO2 SLP242 SNB02E32 P0000 T10671106",2023.03.13-06.55.01
"METAR","KMSP","2023-03-13T12:00:00Z",-7.2,-10.6,12,350,"BKN",10,"KMSP 131200Z 35012KT 10SM BKN026 M07/M11 A3024 RMK AO2 T10721106",2023.03.13-07.55.01
"METAR","KMSP","2023-03-13T12:53:00Z",-7.2,-10.6,9,350,"BKN",10,"KMSP 131253Z 35009KT 10SM BKN025 M07/M11 A3027 RMK AO2 SLP264 T10721106",2023.03.13-08.55.02
"METAR","KMSP","2023-03-13T13:53:00Z",-6.7,-10.6,8,350,"SCT",10,"KMSP 131353Z 35008KT 10SM SCT024 M07/M11 A3029 RMK AO2 SLP270 T10671106",2023.03.13-09.55.01
"METAR","KMSP","2023-03-13T15:46:00Z",-4.4,-9.4,7,10,"SCT",10,"KMSP 131546Z 01007KT 10SM SCT021 M04/M09 A3031 RMK AO2 T10441094",2023.03.13-10.55.01
"METAR","KMSP","2023-03-13T15:53:00Z",-4.4,-9.4,8,10,"SCT",10,"KMSP 131553Z 01008KT 10SM SCT021 M04/M09 A3031 RMK AO2 SLP279 T10441094",2023.03.13-11.55.01
"METAR","KMSP","2023-03-13T16:53:00Z",-3.3,-8.9,6,0,"BKN",10,"KMSP 131653Z VRB06KT 10SM BKN024 M03/M09 A3031 RMK AO2 SLP278 T10331089",2023.03.13-12.55.01
"METAR","KMSP","2023-03-13T17:53:00Z",-2.8,-9.4,9,340,"BKN",10,"KMSP 131753Z 34009KT 10SM BKN025 BKN030 M03/M09 A3031 RMK AO2 SLP277 4/011 933033 T10281094 11028 21072 51002",2023.03.13-13.55.01
"METAR","KMSP","2023-03-13T19:04:00Z",-1.7,-9.4,5,340,"SCT",10,"KMSP 131904Z 34005KT 10SM SCT030 M02/M09 A3030 RMK AO2 T10171094",2023.03.13-14.55.01
"METAR","KMSP","2023-03-13T19:53:00Z",-1.1,-9.4,9,360,"FEW",10,"KMSP 131953Z 36009G15KT 10SM FEW032 M01/M09 A3029 RMK AO2 SLP269 T10111094",2023.03.13-15.55.01
"METAR","KMSP","2023-03-13T20:53:00Z",-1.1,-10,8,330,"SCT",10,"KMSP 132053Z 33008KT 10SM SCT034 M01/M10 A3029 RMK AO2 SLP270 T10111100 55007",2023.03.13-16.55.01
"METAR","KMSP","2023-03-13T21:53:00Z",-1.1,-10.6,7,360,"SCT",10,"KMSP 132153Z 36007KT 10SM SCT038 M01/M11 A3029 RMK AO2 SLP271 T10111106",2023.03.13-17.55.01
"METAR","KMSP","2023-03-13T22:53:00Z",-1.1,-11.1,5,30,"FEW",10,"KMSP 132253Z 03005KT 10SM FEW038 M01/M11 A3030 RMK AO2 SLP274 T10111111",2023.03.13-18.55.01
"METAR","KMSP","2023-03-13T23:53:00Z",-1.7,-11.7,8,40,"FEW",10,"KMSP 132353Z 04008KT 10SM FEW038 M02/M12 A3031 RMK AO2 SLP277 4/011 T10171117 11006 21028 53006",2023.03.13-19.55.01
"METAR","KMSP","2023-03-14T00:53:00Z",-3.3,-12.8,6,40,"CLR",10,"KMSP 140053Z 04006KT 10SM CLR M03/M13 A3032 RMK AO2 SLP281 T10331128",2023.03.13-20.55.01
"METAR","KMSP","2023-03-14T01:53:00Z",-3.3,-12.8,3,10,"CLR",10,"KMSP 140153Z 01003KT 10SM CLR M03/M13 A3032 RMK AO2 SLP282 T10331128",2023.03.13-21.55.01
"METAR","KMSP","2023-03-14T02:53:00Z",-5,-12.8,0,0,"CLR",10,"KMSP 140253Z 00000KT 10SM CLR M05/M13 A3032 RMK AO2 SLP283 T10501128 51006",2023.03.13-22.55.01
"METAR","KMSP","2023-03-14T03:53:00Z",-6.1,-12.2,4,300,"CLR",10,"KMSP 140353Z 30004KT 10SM CLR M06/M12 A3033 RMK AO2 SLP286 T10611122",2023.03.13-23.55.01
"METAR","KMSP","2023-03-14T04:53:00Z",-6.1,-11.7,0,0,"CLR",10,"KMSP 140453Z 00000KT 10SM CLR M06/M12 A3033 RMK AO2 SLP283 T10611117",2023.03.14-00.55.01
"METAR","KMSP","2023-03-14T05:53:00Z",-7.8,-12.8,0,0,"CLR",10,"KMSP 140553Z 00000KT 10SM CLR M08/M13 A3033 RMK AO2 SLP286 4/011 T10781128 11022 21078 410061078 51003",2023.03.14-01.55.01
"METAR","KMSP","2023-03-14T06:53:00Z",-8.9,-12.2,0,0,"CLR",10,"KMSP 140653Z 00000KT 10SM CLR M09/M12 A3033 RMK AO2 SLP287 T10891122",2023.03.14-02.55.01
"METAR","KMSP","2023-03-14T07:53:00Z",-8.9,-12.8,0,0,"CLR",10,"KMSP 140753Z 00000KT 10SM CLR M09/M13 A3034 RMK AO2 SLP288 T10891128",2023.03.14-03.55.01
"METAR","KMSP","2023-03-14T08:53:00Z",-9.4,-13.9,0,0,"CLR",6,"KMSP 140853Z 00000KT 6SM HZ CLR M09/M14 A3034 RMK AO2 SLP288 T10941139 50002",2023.03.14-04.55.01
"METAR","KMSP","2023-03-14T09:53:00Z",-10,-13.9,0,0,"CLR",8,"KMSP 140953Z 00000KT 8SM CLR M10/M14 A3034 RMK AO2 SLP290 T11001139",2023.03.14-05.55.01
"METAR","KMSP","2023-03-14T10:53:00Z",-11.1,-13.9,3,120,"CLR",9,"KMSP 141053Z 12003KT 9SM CLR M11/M14 A3034 RMK AO2 SLP287 T11111139",2023.03.14-06.55.01
"METAR","KMSP","2023-03-14T11:53:00Z",-10.6,-13.3,3,130,"FEW",10,"KMSP 141153Z 13003KT 10SM FEW250 M11/M13 A3035 RMK AO2 SLP292 4/011 T11061133 11078 21117 53003",2023.03.14-07.55.01
"METAR","KMSP","2023-03-14T12:53:00Z",-11.1,-13.9,4,140,"FEW",9,"KMSP 141253Z 14004KT 9SM FEW250 M11/M14 A3035 RMK AO2 SLP295 T11111139",2023.03.14-08.55.01
"METAR","KMSP","2023-03-14T13:53:00Z",-10,-13.3,6,130,"FEW",10,"KMSP 141353Z 13006KT 10SM FEW250 M10/M13 A3035 RMK AO2 SLP292 T11001133",2023.03.14-09.55.01
"METAR","KMSP","2023-03-14T14:53:00Z",-6.7,-12.8,8,160,"FEW",10,"KMSP 141453Z 16008KT 10SM FEW250 M07/M13 A3036 RMK AO2 SLP296 T10671128 53004",2023.03.14-10.55.01
"METAR","KMSP","2023-03-14T15:53:00Z",-5,-11.7,10,150,"FEW",10,"KMSP 141553Z 15010KT 10SM FEW250 M05/M12 A3035 RMK AO2 SLP293 T10501117",2023.03.14-11.55.01
"METAR","KMSP","2023-03-14T16:53:00Z",-3.9,-10.6,11,150,"FEW",10,"KMSP 141653Z 15011KT 10SM FEW250 M04/M11 A3034 RMK AO2 SLP287 T10391106",2023.03.14-12.55.01
"METAR","KMSP","2023-03-14T17:53:00Z",-2.2,-9.4,11,180,"FEW",10,"KMSP 141753Z 18011KT 10SM FEW250 M02/M09 A3032 RMK AO2 SLP280 4/010 T10221094 11022 21117 58015",2023.03.14-13.55.01
"METAR","KMSP","2023-03-14T18:53:00Z",-1.7,-8.9,13,150,"FEW",10,"KMSP 141853Z 15013KT 10SM FEW250 M02/M09 A3028 RMK AO2 SLP269 T10171089",2023.03.14-14.55.01
"METAR","KMSP","2023-03-14T19:53:00Z",-1.1,-8.3,11,170,"CLR",10,"KMSP 141953Z 17011KT 10SM CLR M01/M08 A3026 RMK AO2 SLP259 T10111083",2023.03.14-15.55.01
"METAR","KMSP","2023-03-14T20:53:00Z",-0.6,-7.8,12,160,"FEW",10,"KMSP 142053Z 16012KT 10SM FEW250 M01/M08 A3023 RMK AO2 SLP249 T10061078 56030",2023.03.14-16.55.01
"METAR","KMSP","2023-03-14T21:53:00Z",-0.6,-7.8,15,170,"CLR",10,"KMSP 142153Z 17015KT 10SM CLR M01/M08 A3021 RMK AO2 PK WND 15026/2141 SLP245 T10061078",2023.03.14-17.55.01
"METAR","KMSP","2023-03-14T22:53:00Z",-0.6,-7.8,17,170,"SCT",10,"KMSP 142253Z 17017G22KT 10SM FEW100 SCT150 M01/M08 A3019 RMK AO2 PK WND 15027/2231 SLP237 T10061078",2023.03.14-18.55.01
"METAR","KMSP","2023-03-14T23:53:00Z",-1.1,-7.2,12,160,"SCT",10,"KMSP 142353Z 16012KT 10SM SCT110 M01/M07 A3017 RMK AO2 SLP230 4/010 T10111072 11006 21022 58019",2023.03.14-19.55.01
"METAR","KMSP","2023-03-15T00:53:00Z",-1.7,-7.2,14,150,"FEW",10,"KMSP 150053Z 15014KT 10SM FEW110 M02/M07 A3015 RMK AO2 SLP224 T10171072",2023.03.14-20.55.01
"METAR","KMSP","2023-03-15T01:53:00Z",-1.7,-7.2,11,160,"FEW",10,"KMSP 150153Z 16011G18KT 10SM FEW110 M02/M07 A3014 RMK AO2 SLP222 T10171072",2023.03.14-21.55.01
"METAR","KMSP","2023-03-15T02:53:00Z",-1.7,-7.2,13,170,"CLR",10,"KMSP 150253Z 17013G19KT 10SM CLR M02/M07 A3014 RMK AO2 SLP220 T10171072 56009",2023.03.14-22.55.01
"METAR","KMSP","2023-03-15T03:53:00Z",-2.2,-7.2,12,170,"CLR",10,"KMSP 150353Z 17012KT 10SM CLR M02/M07 A3012 RMK AO2 SLP213 T10221072",2023.03.14-23.55.01
"METAR","KMSP","2023-03-15T04:53:00Z",-2.2,-7.2,10,160,"CLR",10,"KMSP 150453Z 16010KT 10SM CLR M02/M07 A3010 RMK AO2 SLP207 T10221072",2023.03.15-00.55.01
"METAR","KMSP","2023-03-15T05:53:00Z",-2.2,-6.7,9,150,"CLR",10,"KMSP 150553Z 15009KT 10SM CLR M02/M07 A3008 RMK AO2 SLP196 4/010 T10221067 11011 21028 410061117 58021",2023.03.15-01.55.02
"METAR","KMSP","2023-03-15T06:53:00Z",-2.8,-6.7,7,150,"CLR",10,"KMSP 150653Z 15007KT 10SM CLR M03/M07 A3006 RMK AO2 SLP189 T10281067",2023.03.15-02.55.01
"METAR","KMSP","2023-03-15T07:53:00Z",-2.2,-6.7,7,140,"CLR",10,"KMSP 150753Z 14007KT 10SM CLR M02/M07 A3002 RMK AO2 SLP178 T10221067",2023.03.15-03.55.01
"METAR","KMSP","2023-03-15T08:53:00Z",-2.2,-6.1,7,140,"CLR",10,"KMSP 150853Z 14007KT 10SM CLR M02/M06 A3000 RMK AO2 SLP170 T10221061 58025",2023.03.15-04.55.01
"METAR","KMSP","2023-03-15T09:53:00Z",-2.2,-6.1,7,150,"CLR",10,"KMSP 150953Z 15007KT 10SM CLR M02/M06 A2997 RMK AO2 SLP161 T10221061",2023.03.15-05.55.01
"METAR","KMSP","2023-03-15T10:53:00Z",-1.7,-6.1,7,150,"CLR",10,"KMSP 151053Z 15007KT 10SM CLR M02/M06 A2996 RMK AO2 SLP156 T10171061",2023.03.15-06.55.01
"METAR","KMSP","2023-03-15T11:53:00Z",0,-5.6,8,160,"SCT",10,"KMSP 151153Z 16008KT 10SM SCT250 00/M06 A2995 RMK AO2 SLP152 4/010 T00001056 10006 21028 56016",2023.03.15-07.55.02
"METAR","KMSP","2023-03-15T12:53:00Z",0.6,-5,9,170,"SCT",10,"KMSP 151253Z 17009KT 10SM SCT250 01/M05 A2995 RMK AO2 SLP152 T00061050",2023.03.15-08.55.02
"METAR","KMSP","2023-03-15T13:53:00Z",1.1,-5,10,170,"BKN",10,"KMSP 151353Z 17010KT 10SM BKN250 01/M05 A2994 RMK AO2 SLP147 T00111050",2023.03.15-09.55.01
"METAR","KMSP","2023-03-15T14:53:00Z",2.2,-4.4,11,180,"OVC",10,"KMSP 151453Z 18011KT 10SM FEW220 OVC250 02/M04 A2992 RMK AO2 SLP141 T00221044 58010",2023.03.15-10.55.01
"METAR","KMSP","2023-03-15T15:53:00Z",3.3,-3.3,11,180,"OVC",10,"KMSP 151553Z 18011KT 10SM FEW220 OVC250 03/M03 A2991 RMK AO2 SLP136 T00331033",2023.03.15-11.55.01
"METAR","KMSP","2023-03-15T16:53:00Z",5,-2.8,12,180,"OVC",10,"KMSP 151653Z 18012KT 10SM FEW220 OVC250 05/M03 A2989 RMK AO2 SLP129 T00501028",2023.03.15-12.55.01
"METAR","KMSP","2023-03-15T17:53:00Z",5.6,-2.2,11,170,"OVC",10,"KMSP 151753Z 17011KT 10SM FEW180 OVC250 06/M02 A2987 RMK AO2 SLP123 4/009 T00561022 10056 20000 58017",2023.03.15-13.55.01
"METAR","KMSP","2023-03-15T18:53:00Z",6.1,-1.7,11,170,"OVC",10,"KMSP 151853Z 17011KT 10SM FEW200 OVC250 06/M02 A2986 RMK AO2 SLP119 T00611017",2023.03.15-14.55.01
"METAR","KMSP","2023-03-15T19:53:00Z",6.1,-1.7,11,160,"OVC",10,"KMSP 151953Z 16011KT 10SM SCT150 OVC250 06/M02 A2983 RMK AO2 SLP108 T00611017",2023.03.15-15.55.01
"METAR","KMSP","2023-03-15T20:53:00Z",5.6,-1.7,10,150,"OVC",10,"KMSP 152053Z 15010KT 10SM SCT150 OVC250 06/M02 A2981 RMK AO2 SLP103 T00561017 58019",2023.03.15-16.55.01
"METAR","KMSP","2023-03-15T21:53:00Z",4.4,-1.1,9,150,"OVC",10,"KMSP 152153Z 15009KT 10SM SCT160 OVC250 04/M01 A2979 RMK AO2 SLP096 T00441011",2023.03.15-17.55.01
"METAR","KMSP","2023-03-15T22:53:00Z",5,-1.1,9,160,"BKN",10,"KMSP 152253Z COR 16009KT 10SM SCT160 BKN250 05/M01 A2977 RMK AO2 SLP091 T00501011",2023.03.15-18.55.01
"METAR","KMSP","2023-03-15T23:53:00Z",5,-0.6,6,130,"OVC",10,"KMSP 152353Z 13006KT 10SM SCT080 BKN160 OVC250 05/M01 A2977 RMK AO2 SLP089 4/009 VIRGA T00501006 10061 20044 56013",2023.03.15-19.55.01
"METAR","KMSP","2023-03-16T00:53:00Z",5,-0.6,6,120,"OVC",10,"KMSP 160053Z 12006KT 10SM OVC050 05/M01 A2975 RMK AO2 SLP081 T00501006",2023.03.15-20.55.01
"METAR","KMSP","2023-03-16T01:53:00Z",4.4,0,9,120,"OVC",10,"KMSP 160153Z 12009KT 10SM OVC050 04/00 A2972 RMK AO2 SLP071 T00440000",2023.03.15-21.55.01
"METAR","KMSP","2023-03-16T02:53:00Z",5.6,0.6,10,140,"OVC",10,"KMSP 160253Z 14010KT 10SM BKN055 OVC070 06/01 A2969 RMK AO2 SLP061 T00560006 58026",2023.03.15-22.55.01
"METAR","KMSP","2023-03-16T03:53:00Z",6.1,1.1,15,160,"OVC",10,"KMSP 160353Z 16015G27KT 10SM BKN060 OVC075 06/01 A2967 RMK AO2 PK WND 15027/0345 SLP053 T00610011",2023.03.15-23.55.01
"METAR","KMSP","2023-03-16T04:53:00Z",7.2,1.1,9,170,"OVC",10,"KMSP 160453Z 17009G22KT 10SM FEW060 OVC075 07/01 A2965 RMK AO2 PK WND 15027/0404 SLP047 T00720011",2023.03.16-00.55.01
"METAR","KMSP","2023-03-16T05:53:00Z",5.6,1.1,8,160,"OVC",10,"KMSP 160553Z 16008KT 10SM FEW080 OVC220 06/01 A2964 RMK AO2 SLP043 4/008 T00560011 10072 20044 400721028 56016",2023.03.16-01.55.01
"METAR","KMSP","2023-03-16T06:53:00Z",6.1,1.7,8,170,"OVC",10,"KMSP 160653Z 17008KT 10SM OVC200 06/02 A2962 RMK AO2 SLP037 T00610017",2023.03.16-02.55.01
"METAR","KMSP","2023-03-16T07:53:00Z",6.7,1.7,6,170,"OVC",10,"KMSP 160753Z 17006KT 10SM OVC200 07/02 A2963 RMK AO2 SLP039 T00670017",2023.03.16-03.55.01
"METAR","KMSP","2023-03-16T08:53:00Z",7.2,2.2,6,200,"OVC",10,"KMSP 160853Z 20006KT 10SM OVC200 07/02 A2962 RMK AO2 SLP034 T00720022 56007",2023.03.16-04.55.01
"METAR","KMSP","2023-03-16T09:53:00Z",6.7,2.2,11,170,"OVC",10,"KMSP 160953Z 17011KT 10SM BKN095 OVC150 07/02 A2959 RMK AO2 SLP026 T00670022",2023.03.16-05.55.01
"METAR","KMSP","2023-03-16T10:53:00Z",6.7,2.2,8,200,"OVC",10,"KMSP 161053Z 20008KT 10SM OVC090 07/02 A2959 RMK AO2 SLP026 T00670022",2023.03.16-06.55.01
"METAR","KMSP","2023-03-16T12:16:00Z",5.6,1.7,5,240,"OVC",10,"KMSP 161216Z 24005KT 10SM BKN026 OVC095 06/02 A2960 RMK AO2 T00560017",2023.03.16-07.55.01
"METAR","KMSP","2023-03-16T13:26:00Z",5,1.7,3,230,"OVC",10,"KMSP 161326Z 23003KT 10SM OVC016 05/02 A2961 RMK AO2 T00500017",2023.03.16-08.55.01
"METAR","KMSP","2023-03-16T14:14:00Z",4.4,1.7,3,0,"OVC",9,"KMSP 161414Z VRB03KT 9SM -RA BKN014 OVC020 04/02 A2960 RMK AO2 RAB00 P0000 T00440017",2023.03.16-09.55.01
"METAR","KMSP","2023-03-16T15:50:00Z",3,2,5,330,"OVC",5,"KMSP 161550Z 33005KT 5SM -RA BR BKN010 OVC015 03/02 A2958 RMK AO2 P0003",2023.03.16-10.55.01
"METAR","KMSP","2023-03-16T16:24:00Z",2.8,1.1,9,340,"OVC",5,"KMSP 161624Z 34009KT 5SM -RA BR BKN006 OVC012 03/01 A2958 RMK AO2 P0002 T00280011",2023.03.16-11.55.01
"METAR","KMSP","2023-03-16T16:53:00Z",2.2,0.6,9,350,"OVC",6,"KMSP 161653Z 35009KT 6SM -RA BR OVC007 02/01 A2958 RMK AO2 SLP022 P0005 T00220006",2023.03.16-12.55.01
"METAR","KMSP","2023-03-16T18:25:00Z",1.7,0,10,350,"OVC",6,"KMSP 161825Z 35010G24KT 6SM -RASN BR OVC009 02/00 A2961 RMK AO2 SNB25 P0004 T00170000",2023.03.16-13.55.01
"METAR","KMSP","2023-03-16T18:53:00Z",1.7,0,13,340,"OVC",8,"KMSP 161853Z 34013G18KT 8SM -SNRA OVC010 02/00 A2961 RMK AO2 SNB25 SLP031 P0006 T00170000",2023.03.16-14.55.01
"METAR","KMSP","2023-03-16T20:39:00Z",0,-1.7,21,330,"OVC",2,"KMSP 162039Z 33021G30KT 2SM R30L/6000VP6000FT -SNRA BR BKN009 OVC014 00/M02 A2962 RMK AO2 PK WND 33034/2022 P0001 T00001017",2023.03.16-15.55.01
"METAR","KMSP","2023-03-16T21:32:00Z",-0.6,-2.8,14,330,"OVC",3,"KMSP 162132Z 33014G31KT 3SM -SN BR BKN014 BKN021 OVC042 M01/M03 A2965 RMK AO2 PK WND 34033/2107 SFC VIS 4 P0000 T10061028",2023.03.16-16.55.01
"METAR","KMSP","2023-03-16T22:45:00Z",-1.7,-3.9,21,340,"OVC",3,"KMSP 162245Z 34021G35KT 3SM -SN BR BKN014 OVC019 M02/M04 A2968 RMK AO2 PK WND 33035/2245 SFC VIS 4 P0001 T10171039",2023.03.16-17.55.01
"METAR","KMSP","2023-03-16T23:37:00Z",-2.2,-5,24,330,"OVC",2,"KMSP 162337Z 33024G36KT 2SM -SN OVC017 M02/M05 A2970 RMK AO2 PK WND 33036/2334 TWR VIS 3 P0000 T10221050",2023.03.16-18.55.01
"METAR","KMSP","2023-03-16T23:53:00Z",-2.2,-5.6,18,330,"OVC",4,"KMSP 162353Z 33018G30KT 4SM -SN OVC017 M02/M06 A2971 RMK AO2 PK WND 33036/2334 SLP069 4/005 P0000 60010 T10221056 10017 21022 51030",2023.03.16-19.55.01
"METAR","KMSP","2023-03-17T01:16:00Z",-3.3,-6.1,20,330,"OVC",3,"KMSP 170116Z 33020G29KT 3SM -SN BKN017 OVC028 M03/M06 A2974 RMK AO2 PK WND 33034/0101 P0000 T10331061",2023.03.16-20.55.01
"METAR","KMSP","2023-03-17T01:53:00Z",-3.3,-6.1,15,330,"OVC",3,"KMSP 170153Z 33015G25KT 3SM -SN OVC019 M03/M06 A2975 RMK AO2 PK WND 33034/0101 SFC VIS 4 SLP083 P0000 T10331061",2023.03.16-21.55.01
"METAR","KMSP","2023-03-17T02:53:00Z",-4.4,-7.8,19,330,"OVC",8,"KMSP 170253Z 33019G33KT 8SM -SN OVC021 M04/M08 A2976 RMK AO2 PK WND 35033/0250 SLP089 P0000 60000 T10441078 51017",2023.03.16-22.55.01
"METAR","KMSP","2023-03-17T04:40:00Z",-5.6,-11.1,19,330,"OVC",9,"KMSP 170440Z 33019G30KT 9SM BKN055 OVC070 M06/M11 A2980 RMK AO2 PK WND 33032/0426 SNE39 P0000 T10561111",2023.03.16-23.55.01
"METAR","KMSP","2023-03-17T04:53:00Z",-6.1,-11.7,18,320,"OVC",10,"KMSP 170453Z 32018G29KT 10SM BKN046 OVC070 M06/M12 A2980 RMK AO2 PK WND 33032/0426 SNE39 SLP101 P0000 T10611117",2023.03.17-00.55.01
"METAR","KMSP","2023-03-17T05:53:00Z",-7.2,-12.2,19,330,"FEW",10,"KMSP 170553Z 33019G25KT 10SM FEW040 M07/M12 A2981 RMK AO2 PK WND 32035/0507 SLP107 4/005 60000 T10721122 11022 21072 400721072 51016",2023.03.17-01.55.01
"METAR","KMSP","2023-03-17T06:53:00Z",-8.9,-13.3,15,310,"FEW",10,"KMSP 170653Z 31015G23KT 10SM FEW022 M09/M13 A2983 RMK AO2 PK WND 30028/0638 SLP112 T10891133",2023.03.17-02.55.01
"METAR","KMSP","2023-03-17T07:53:00Z",-10,-14.4,17,320,"FEW",10,"KMSP 170753Z 32017G25KT 10SM FEW022 M10/M14 A2984 RMK AO2 PK WND 30027/0743 SLP116 T11001144",2023.03.17-03.55.01
"METAR","KMSP","2023-03-17T08:53:00Z",-10.6,-15,19,320,"CLR",10,"KMSP 170853Z 32019G27KT 10SM CLR M11/M15 A2984 RMK AO2 PK WND 32031/0759 SLP120 T11061150 51010",2023.03.17-04.55.01
"METAR","KMSP","2023-03-17T09:53:00Z",-11.1,-15.6,15,310,"CLR",10,"KMSP 170953Z 31015G23KT 10SM CLR M11/M16 A2985 RMK AO2 PK WND 31032/0904 SLP122 T11111156",2023.03.17-05.55.01
"METAR","KMSP","2023-03-17T10:53:00Z",-12.2,-16.7,17,310,"FEW",10,"KMSP 171053Z 31017KT 10SM FEW250 M12/M17 A2986 RMK AO2 PK WND 30026/0956 SLP128 T11221167",2023.03.17-06.55.01
"METAR","KMSP","2023-03-17T11:53:00Z",-12.8,-17.8,16,300,"FEW",10,"KMSP 171153Z 30016KT 10SM FEW250 M13/M18 A2988 RMK AO2 PK WND 31027/1123 SLP134 4/005 70021 T11281178 11078 21128 53013",2023.03.17-07.55.01
"METAR","KMSP","2023-03-17T12:53:00Z",-13.3,-18.3,17,300,"CLR",10,"KMSP 171253Z 30017G27KT 10SM CLR M13/M18 A2989 RMK AO2 PK WND 29027/1209 SLP137 T11331183",2023.03.17-08.55.01
"METAR","KMSP","2023-03-17T13:53:00Z",-12.8,-18.3,19,310,"CLR",10,"KMSP 171353Z 31019G28KT 10SM CLR M13/M18 A2990 RMK AO2 PK WND 31029/1320 SLP138 T11281183",2023.03.17-09.55.01
"METAR","KMSP","2023-03-17T14:53:00Z",-11.7,-17.8,13,300,"CLR",10,"KMSP 171453Z 30013G23KT 10SM CLR M12/M18 A2990 RMK AO2 PK WND 30029/1422 SLP139 T11171178 51005 $",2023.03.17-10.55.01
"METAR","KMSP","2023-03-17T15:53:00Z",-10.6,-16.7,16,290,"CLR",10,"KMSP 171553Z 29016G24KT 10SM CLR M11/M17 A2990 RMK AO2 PK WND 27029/1515 SLP141 T11061167 $",2023.03.17-11.55.01
"METAR","KMSP","2023-03-17T17:45:00Z",-8.3,-15,18,280,"BKN",10,"KMSP 171745Z 28018G29KT 10SM BKN028 M08/M15 A2991 RMK AO2 PK WND 27030/1731 T10831150",2023.03.17-12.55.01
"METAR","KMSP","2023-03-17T18:35:00Z",-9.4,-16.1,19,290,"BKN",10,"KMSP 171835Z 29019G29KT 10SM BKN030 M09/M16 A2991 RMK AO2 PK WND 27033/1808 T10941161",2023.03.17-13.55.01
"METAR","KMSP","2023-03-17T18:53:00Z",-8.9,-16.1,17,290,"BKN",9,"KMSP 171853Z 29017G27KT 9SM BKN030 M09/M16 A2991 RMK AO2 PK WND 27033/1808 SLP143 T10891161",2023.03.17-14.55.01
"METAR","KMSP","2023-03-17T19:53:00Z",-9.4,-16.7,20,270,"FEW",10,"KMSP 171953Z 27020G34KT 10SM FEW031 M09/M17 A2990 RMK AO2 PK WND 27034/1953 SLP143 T10941167 $",2023.03.17-15.55.01
"METAR","KMSP","2023-03-17T20:53:00Z",-9.4,-16.7,16,290,"SCT",10,"KMSP 172053Z 29016G32KT 10SM SCT032 M09/M17 A2991 RMK AO2 PK WND 28034/2004 SLP145 T10941167 53001 $",2023.03.17-16.55.01
"METAR","KMSP","2023-03-17T21:53:00Z",-10,-17.8,17,280,"SCT",10,"KMSP 172153Z 28017G30KT 10SM SCT032 M10/M18 A2992 RMK AO2 PK WND 26036/2116 SLP151 T11001178 $",2023.03.17-17.55.01
"METAR","KMSP","2023-03-17T23:16:00Z",-12.2,-18.3,19,290,"BKN",10,"KMSP 172316Z 29019G31KT 10SM -SN BKN032 M12/M18 A2994 RMK AO2 PK WND 27034/2259 SNB16 P0000 T11221183 $",2023.03.17-18.55.01
"METAR","KMSP","2023-03-17T23:53:00Z",-12.8,-18.3,16,290,"BKN",6,"KMSP 172353Z 29016G27KT 6SM -SN BKN032 BKN045 M13/M18 A2996 RMK AO2 PK WND 27034/2259 SNB16 SLP166 4/005 P0000 60000 T11281183 11089 21128 53019 $",2023.03.17-19.55.01
"METAR","KMSP","2023-03-18T00:53:00Z",-13.3,-18.3,17,290,"BKN",6,"KMSP 180053Z 29017G26KT 6SM -SN FEW028 BKN033 BKN095 M13/M18 A2997 RMK AO2 PK WND 29034/0006 SLP169 P0000 T11331183 $",2023.03.17-20.55.01
"METAR","KMSP","2023-03-18T02:29:00Z",-13.9,-18.3,12,300,"OVC",6,"KMSP 180229Z 30012G23KT 6SM -SN BKN033 OVC045 M14/M18 A2998 RMK AO2 SNB29 P0000 T11391183 $",2023.03.17-21.55.01
"METAR","KMSP","2023-03-18T02:53:00Z",-13.9,-17.8,14,300,"OVC",6,"KMSP 180253Z 30014G23KT 6SM -SN BKN033 OVC045 M14/M18 A2998 RMK AO2 SNB29 SLP171 P0000 60000 T11391178 51005 /",2023.03.17-22.55.01
"METAR","KMSP","2023-03-18T03:53:00Z",-13.9,-17.8,14,300,"SCT",9,"KMSP 180353Z 30014G25KT 9SM -SN FEW033 FEW043 SCT060 M14/M18 A2998 RMK AO2 SLP172 P0000 T11391178 $",2023.03.17-23.55.01
"METAR","KMSP","2023-03-18T05:51:00Z",-13,-17,14,300,"OVC",5,"KMSP 180551Z 30014KT 5SM -SN OVC031 M13/M17 A2999 RMK AO2 SNB09 P0000 $",2023.03.18-00.55.01
"METAR","KMSP","2023-03-18T05:53:00Z",-13.3,-17.2,14,300,"OVC",5,"KMSP 180553Z COR 30014KT 5SM -SN OVC033 M13/M17 A2999 RMK AO2 SNB09 SLP172 4/005 P0000 60000 T11331172 11128 21139 410781139 51001 $",2023.03.18-01.55.01
"METAR","KMSP","2023-03-18T06:53:00Z",-13.3,-16.7,14,300,"OVC",4,"KMSP 180653Z 30014KT 4SM -SN OVC039 M13/M17 A3000 RMK AO2 PK WND 29026/0616 SLP175 P0000 T11331167 $",2023.03.18-02.55.01
"METAR","KMSP","2023-03-18T08:51:00Z",-13,-16,11,300,"OVC",3,"KMSP 180851Z 30011KT 3SM -SN OVC031 M13/M16 A3001 RMK AO2 P0000 $",2023.03.18-03.55.01
"METAR","KMSP","2023-03-18T08:53:00Z",-12.8,-16.1,12,290,"OVC",3,"KMSP 180853Z 29012KT 3SM -SN OVC033 M13/M16 A3001 RMK AO2 SLP182 P0000 60000 T11281161 51009 $",2023.03.18-04.55.02
"METAR","KMSP","2023-03-18T10:13:00Z",-11.7,-15.6,15,300,"OVC",10,"KMSP 181013Z 30015G22KT 10SM FEW026 SCT040 OVC090 M12/M16 A3003 RMK AO2 SNE04 P0000 T11171156 $",2023.03.18-05.55.01
"METAR","KMSP","2023-03-18T11:13:00Z",-11.1,-15,12,300,"OVC",9,"KMSP 181113Z 30012KT 9SM -SN BKN037 OVC080 M11/M15 A3005 RMK AO2 P0000 T11111150 $",2023.03.18-06.55.01
"METAR","KMSP","2023-03-18T12:13:00Z",-11.1,-15,12,300,"OVC",9,"KMSP 181213Z 30012KT 9SM -SN BKN028 OVC090 M11/M15 A3007 RMK AO2 P0000 T11111150 $",2023.03.18-07.55.01
"METAR","KMSP","2023-03-18T12:53:00Z",-10.6,-15,16,320,"OVC",7,"KMSP 181253Z 32016KT 7SM OVC028 M11/M15 A3009 RMK AO2 SNE51 SLP207 P0000 T11061150 $",2023.03.18-08.55.01
"METAR","KMSP","2023-03-18T14:31:00Z",-10,-15,19,340,"SCT",10,"KMSP 181431Z 34019G27KT 10SM SCT026 M10/M15 A3013 RMK AO2 PK WND 35027/1430 T11001150 $",2023.03.18-09.55.01
"METAR","KMSP","2023-03-18T15:46:00Z",-8.9,-15,17,330,"BKN",10,"KMSP 181546Z 33017G22KT 10SM SCT027 BKN250 M09/M15 A3016 RMK AO2 T10891150 $",2023.03.18-10.55.01
"METAR","KMSP","2023-03-18T15:53:00Z",-8.3,-14.4,13,340,"BKN",10,"KMSP 181553Z 34013KT 10SM FEW027 BKN250 M08/M14 A3016 RMK AO2 SLP231 T10831144 $",2023.03.18-11.55.01
"METAR","KMSP","2023-03-18T16:53:00Z",-7.2,-13.9,15,330,"SCT",10,"KMSP 181653Z 33015G22KT 10SM FEW027 SCT250 M07/M14 A3017 RMK AO2 SLP235 T10721139 $",2023.03.18-12.55.01
"METAR","KMSP","2023-03-18T17:53:00Z",-6.1,-13.9,16,330,"SCT",10,"KMSP 181753Z 33016G25KT 10SM SCT250 M06/M14 A3018 RMK AO2 SLP238 4/005 60000 T10611139 11056 21111 51015 $",2023.03.18-13.55.01
"METAR","KMSP","2023-03-18T18:53:00Z",-5,-15,18,330,"SCT",10,"KMSP 181853Z 33018G25KT 10SM SCT250 M05/M15 A3019 RMK AO2 PK WND 31027/1841 SLP239 T10501150 $",2023.03.18-14.55.01
"METAR","KMSP","2023-03-18T19:53:00Z",-4.4,-14.4,16,340,"SCT",10,"KMSP 181953Z 34016G27KT 10SM SCT250 M04/M14 A3019 RMK AO2 PK WND 34027/1952 SLP240 T10441144 /",2023.03.18-15.55.01
"METAR","KMSP","2023-03-18T20:53:00Z",-3.9,-15,18,320,"BKN",10,"KMSP 182053Z 32018G29KT 10SM FEW220 BKN250 M04/M15 A3019 RMK AO2 PK WND 33029/2045 SLP240 T10391150 51003 $",2023.03.18-16.55.01
"METAR","KMSP","2023-03-18T21:53:00Z",-3.3,-15,14,330,"SCT",10,"KMSP 182153Z COR 33014G26KT 10SM FEW220 SCT250 M03/M15 A3020 RMK AO2 PK WND 32030/2100 SLP241 T10331150 $",2023.03.18-17.55.01
"METAR","KMSP","2023-03-18T22:53:00Z",-2.8,-15,14,320,"SCT",10,"KMSP 182253Z COR 32014G23KT 10SM FEW220 SCT250 M03/M15 A3021 RMK AO2 PK WND 31028/2238 SLP245 T10281150 $",2023.03.18-18.55.01
"METAR","KMSP","2023-03-18T23:53:00Z",-4.4,-14.4,12,310,"FEW",10,"KMSP 182353Z 31012G24KT 10SM FEW250 M04/M14 A3023 RMK AO2 PK WND 28027/2308 SLP253 4/005 T10441144 11028 21061 53014 $",2023.03.18-19.55.01
"METAR","KMSP","2023-03-19T00:53:00Z",-5.6,-14.4,9,300,"FEW",10,"KMSP 190053Z 30009KT 10SM FEW250 M06/M14 A3024 RMK AO2 SLP257 T10561144 $",2023.03.18-20.55.01
"METAR","KMSP","2023-03-19T01:53:00Z",-6.7,-14.4,10,280,"CLR",10,"KMSP 190153Z 28010KT 10SM CLR M07/M14 A3027 RMK AO2 SLP266 T10671144 $",2023.03.18-21.55.01
"METAR","KMSP","2023-03-19T02:53:00Z",-8.3,-15.6,12,290,"CLR",10,"KMSP 190253Z 29012KT 10SM CLR M08/M16 A3028 RMK AO2 SLP272 T10831156 53017 $",2023.03.18-22.55.01
"METAR","KMSP","2023-03-19T03:53:00Z",-9.4,-16.1,11,300,"CLR",10,"KMSP 190353Z 30011KT 10SM CLR M09/M16 A3029 RMK AO2 SLP274 T10941161 $",2023.03.18-23.55.01
"METAR","KMSP","2023-03-19T04:53:00Z",-9.4,-16.7,8,300,"CLR",10,"KMSP 190453Z 30008KT 10SM CLR M09/M17 A3030 RMK AO2 SLP276 T10941167 $",2023.03.19-00.55.01
"METAR","KMSP","2023-03-19T05:53:00Z",-10.6,-16.7,8,280,"CLR",10,"KMSP 190553Z 28008KT 10SM CLR M11/M17 A3030 RMK AO2 SLP277 4/005 T11061167 11044 21106 410281133 51005 $",2023.03.19-01.55.01
"METAR","KMSP","2023-03-19T06:53:00Z",-10.6,-17.2,6,270,"CLR",10,"KMSP 190653Z 27006KT 10SM CLR M11/M17 A3030 RMK AO2 SLP276 T11061172 $",2023.03.19-02.55.01
"METAR","KMSP","2023-03-19T07:53:00Z",-11.7,-17.8,7,270,"CLR",10,"KMSP 190753Z 27007KT 10SM CLR M12/M18 A3030 RMK AO2 SLP275 T11171178 $",2023.03.19-03.55.01
"METAR","KMSP","2023-03-19T08:53:00Z",-12.2,-17.8,6,260,"CLR",10,"KMSP 190853Z 26006KT 10SM CLR M12/M18 A3028 RMK AO2 SLP269 T11221178 58007 $",2023.03.19-04.55.01
"METAR","KMSP","2023-03-19T09:53:00Z",-12.8,-17.8,6,260,"CLR",10,"KMSP 190953Z 26006KT 10SM CLR M13/M18 A3027 RMK AO2 SLP265 T11281178 $",2023.03.19-05.55.01
"METAR","KMSP","2023-03-19T10:53:00Z",-13.3,-18.3,8,250,"CLR",10,"KMSP 191053Z 25008KT 10SM CLR M13/M18 A3027 RMK AO2 SLP265 T11331183 $",2023.03.19-06.55.01
"METAR","KMSP","2023-03-19T11:53:00Z",-13.9,-18.3,8,240,"CLR",10,"KMSP 191153Z 24008KT 10SM CLR M14/M18 A3026 RMK AO2 SLP263 4/005 T11391183 11106 21139 56006 $",2023.03.19-07.55.01
"METAR","KMSP","2023-03-19T12:53:00Z",-13.3,-17.8,6,230,"FEW",10,"KMSP 191253Z 23006KT 10SM FEW250 M13/M18 A3025 RMK AO2 SLP260 T11331178 $",2023.03.19-08.55.01
"METAR","KMSP","2023-03-19T13:53:00Z",-11.7,-18.3,8,230,"FEW",10,"KMSP 191353Z 23008KT 10SM FEW200 M12/M18 A3023 RMK AO2 SLP253 T11171183 $",2023.03.19-09.55.01
"METAR","KMSP","2023-03-19T14:53:00Z",-8.9,-18.9,9,240,"FEW",10,"KMSP 191453Z 24009KT 10SM FEW200 M09/M19 A3021 RMK AO2 SLP247 T10891189 58016 $",2023.03.19-10.55.01
"METAR","KMSP","2023-03-19T15:53:00Z",-6.1,-16.7,9,230,"FEW",10,"KMSP 191553Z 23009KT 10SM FEW200 M06/M17 A3019 RMK AO2 SLP238 T10611167 $",2023.03.19-11.55.01
"METAR","KMSP","2023-03-19T16:53:00Z",-3.3,-15,9,220,"FEW",10,"KMSP 191653Z 22009G16KT 10SM FEW200 M03/M15 A3016 RMK AO2 SLP226 T10331150 $",2023.03.19-12.55.01
"METAR","KMSP","2023-03-19T17:53:00Z",-0.6,-12.8,14,220,"FEW",10,"KMSP 191753Z 22014G20KT 10SM FEW200 M01/M13 A3012 RMK AO2 SLP213 4/005 T10061128 11006 21139 58031 $",2023.03.19-13.55.01
"METAR","KMSP","2023-03-19T18:53:00Z",1.1,-11.7,13,220,"FEW",10,"KMSP 191853Z 22013G20KT 10SM FEW200 FEW250 01/M12 A3008 RMK AO2 PK WND 23026/1816 SLP198 T00111117 $",2023.03.19-14.55.01
"METAR","KMSP","2023-03-19T19:53:00Z",2.8,-11.1,17,220,"FEW",10,"KMSP 191953Z 22017G30KT 10SM FEW200 FEW250 03/M11 A3004 RMK AO2 PK WND 22031/1937 SLP186 T00281111 $",2023.03.19-15.55.01
"METAR","KMSP","2023-03-19T20:53:00Z",3.3,-9.4,11,210,"FEW",10,"KMSP 192053Z 21011G27KT 10SM FEW200 FEW250 03/M09 A3000 RMK AO2 PK WND 22031/1958 SLP172 T00331094 58039 $",2023.03.19-16.55.01
"METAR","KMSP","2023-03-19T21:53:00Z",3.9,-8.3,11,220,"SCT",10,"KMSP 192153Z 22011G21KT 10SM FEW200 SCT250 04/M08 A2997 RMK AO2 SLP162 T00391083 $",2023.03.19-17.55.02
"METAR","KMSP","2023-03-19T22:53:00Z",4.4,-8.3,13,220,"SCT",10,"KMSP 192253Z 22013KT 10SM FEW200 SCT250 04/M08 A2995 RMK AO2 PK WND 22030/2237 SLP153 T00441083 $",2023.03.19-18.55.02
"METAR","KMSP","2023-03-19T23:53:00Z",3.9,-7.2,11,220,"SCT",10,"KMSP 192353Z 22011G19KT 10SM FEW200 SCT250 04/M07 A2993 RMK AO2 PK WND 24027/2255 SLP149 4/005 T00391072 10044 21006 56022 $",2023.03.19-19.55.01
"METAR","KMSP","2023-03-20T00:53:00Z",3.3,-6.1,8,210,"SCT",10,"KMSP 200053Z 21008KT 10SM FEW200 SCT250 03/M06 A2991 RMK AO2 SLP142 T00331061 $",2023.03.19-20.55.01
"METAR","KMSP","2023-03-20T01:53:00Z",3.3,-5.6,7,210,"SCT",10,"KMSP 200153Z 21007KT 10SM SCT200 03/M06 A2989 RMK AO2 SLP135 T00331056 $",2023.03.19-21.55.01
"METAR","KMSP","2023-03-20T02:52:00Z",1,-6,3,300,"SCT",10,"KMSP 200252Z 30003KT 10SM SCT200 01/M06 A2989",2023.03.19-22.55.01
"METAR","KMSP","2023-03-20T03:53:00Z",2.2,-5.6,6,210,"SCT",10,"KMSP 200353Z 21006KT 10SM SCT200 02/M06 A2989 RMK AO2 SLP132 T00221056 $",2023.03.19-23.55.01
"METAR","KMSP","2023-03-20T04:53:00Z",1.7,-5.6,8,210,"SCT",10,"KMSP 200453Z 21008G16KT 10SM SCT200 02/M06 A2987 RMK AO2 SLP127 T00171056 $",2023.03.20-00.55.01
"METAR","KMSP","2023-03-20T05:53:00Z",1.7,-6.1,4,250,"SCT",10,"KMSP 200553Z 25004KT 10SM SCT200 02/M06 A2987 RMK AO2 SLP124 4/005 6//// T00171061 10044 20011 400441139 $",2023.03.20-01.55.01
"METAR","KMSP","2023-03-20T06:53:00Z",-0.6,-6.7,5,340,"SCT",10,"KMSP 200653Z 34005KT 10SM SCT200 M01/M07 A2987 RMK AO2 SLP126 T10061067 $",2023.03.20-02.55.01
"METAR","KMSP","2023-03-20T07:53:00Z",-2.2,-6.7,5,350,"CLR",10,"KMSP 200753Z 35005KT 10SM CLR M02/M07 A2987 RMK AO2 SLP125 T10221067 $",2023.03.20-03.55.01
"METAR","KMSP","2023-03-20T08:53:00Z",-2.2,-6.7,3,360,"CLR",10,"KMSP 200853Z 36003KT 10SM CLR M02/M07 A2986 RMK AO2 SLP122 T10221067 58002 $",2023.03.20-04.55.01
"METAR","KMSP","2023-03-20T09:53:00Z",-2.8,-6.7,4,10,"CLR",10,"KMSP 200953Z 01004KT 10SM CLR M03/M07 A2986 RMK AO2 SLP122 T10281067 $",2023.03.20-05.55.01
"METAR","KMSP","2023-03-20T10:53:00Z",-2.8,-6.7,7,10,"FEW",10,"KMSP 201053Z 01007KT 10SM FEW170 M03/M07 A2987 RMK AO2 SLP124 T10281067 /",2023.03.20-06.55.01
"METAR","KMSP","2023-03-20T11:53:00Z",-3.3,-7.8,5,360,"BKN",10,"KMSP 201153Z 36005KT 10SM SCT170 BKN250 M03/M08 A2988 RMK AO2 SLP127 4/005 7//// T10331078 10017 21033 53005 $",2023.03.20-07.55.01
"METAR","KMSP","2023-03-20T12:53:00Z",-3.9,-7.8,6,360,"BKN",10,"KMSP 201253Z 36006KT 10SM BKN250 M04/M08 A2991 RMK AO2 SLP137 T10391078 $",2023.03.20-08.55.01
"METAR","KMSP","2023-03-20T13:53:00Z",-3.3,-8.3,6,360,"BKN",10,"KMSP 201353Z 36006KT 10SM BKN250 M03/M08 A2992 RMK AO2 SLP143 T10331083 $",2023.03.20-09.55.01
"METAR","KMSP","2023-03-20T14:53:00Z",-1.7,-7.8,9,30,"BKN",10,"KMSP 201453Z 03009KT 10SM BKN250 M02/M08 A2994 RMK AO2 SLP148 T10171078 51020 $",2023.03.20-10.55.01
"METAR","KMSP","2023-03-20T15:53:00Z",0,-7.2,11,50,"BKN",10,"KMSP 201553Z 05011G17KT 10SM FEW180 BKN250 00/M07 A2995 RMK AO2 SLP151 T00001072",2023.03.20-11.55.01
"METAR","KMSP","2023-03-20T16:53:00Z",1.1,-6.7,10,20,"BKN",10,"KMSP 201653Z 02010G23KT 10SM FEW170 BKN250 01/M07 A2997 RMK AO2 SLP159 T00111067",2023.03.20-12.55.01
"METAR","KMSP","2023-03-20T17:53:00Z",2.2,-6.1,10,40,"FEW",10,"KMSP 201753Z 04010G22KT 10SM FEW250 02/M06 A2997 RMK AO2 SLP156 4/005 933021 T00221061 10022 21039 50009",2023.03.20-13.55.01
"METAR","KMSP","2023-03-20T18:53:00Z",3.3,-6.1,8,60,"FEW",10,"KMSP 201853Z 06008G18KT 10SM FEW250 03/M06 A2998 RMK AO2 SLP160 T00331061",2023.03.20-14.55.01
"METAR","KMSP","2023-03-20T19:53:00Z",3.3,-6.7,9,70,"FEW",10,"KMSP 201953Z 07009G17KT 10SM FEW250 03/M07 A2998 RMK AO2 SLP160 T00331067",2023.03.20-15.55.01
"METAR","KMSP","2023-03-20T20:53:00Z",3.9,-6.1,9,30,"FEW",10,"KMSP 202053Z 03009G25KT 10SM FEW250 04/M06 A2998 RMK AO2 SLP162 T00391061 51005",2023.03.20-16.55.01
"METAR","KMSP","2023-03-20T21:53:00Z",3.9,-6.1,12,30,"FEW",10,"KMSP 202153Z COR 03012G19KT 10SM FEW250 04/M06 A2999 RMK AO2 SLP165 T00391061",2023.03.20-17.55.01
"METAR","KMSP","2023-03-20T22:53:00Z",3.9,-7.8,8,60,"FEW",10,"KMSP 202253Z COR 06008G17KT 10SM FEW250 04/M08 A3000 RMK AO2 PK WND 03027/2156 SLP167 T00391078",2023.03.20-18.55.01
"METAR","KMSP","2023-03-20T23:53:00Z",3.3,-7.8,10,60,"FEW",10,"KMSP 202353Z 06010KT 10SM FEW250 03/M08 A3001 RMK AO2 SLP174 4/004 T00331078 10039 20022 53010",2023.03.20-19.55.01
"METAR","KMSP","2023-03-21T00:53:00Z",2.2,-8.3,5,50,"FEW",10,"KMSP 210053Z 05005KT 10SM FEW200 FEW250 02/M08 A3004 RMK AO2 SLP182 T00221083",2023.03.20-20.55.01
"METAR","KMSP","2023-03-21T01:53:00Z",0.6,-7.8,6,30,"FEW",10,"KMSP 210153Z 03006KT 10SM FEW200 FEW250 01/M08 A3003 RMK AO2 SLP182 T00061078",2023.03.20-21.55.01
"METAR","KMSP","2023-03-21T02:53:00Z",0,-8.9,9,40,"SCT",10,"KMSP 210253Z 04009G16KT 10SM SCT250 00/M09 A3005 RMK AO2 SLP185 T00001089 51011",2023.03.20-22.55.01
"METAR","KMSP","2023-03-21T03:53:00Z",-0.6,-9.4,10,40,"BKN",10,"KMSP 210353Z 04010G19KT 10SM BKN250 M01/M09 A3006 RMK AO2 SLP188 T10061094",2023.03.20-23.55.01
"METAR","KMSP","2023-03-21T04:53:00Z",-1.7,-8.9,8,30,"SCT",10,"KMSP 210453Z 03008KT 10SM SCT250 M02/M09 A3006 RMK AO2 SLP190 T10171089",2023.03.21-00.55.01
"METAR","KMSP","2023-03-21T05:53:00Z",-2.2,-8.9,9,60,"SCT",10,"KMSP 210553Z 06009KT 10SM SCT250 M02/M09 A3006 RMK AO2 SLP189 4/004 T10221089 10033 21022 400391039 50003",2023.03.21-01.55.02
"METAR","KMSP","2023-03-21T06:53:00Z",-2.8,-8.9,9,70,"SCT",10,"KMSP 210653Z 07009G20KT 10SM SCT250 M03/M09 A3006 RMK AO2 SLP188 T10281089",2023.03.21-02.55.01
"METAR","KMSP","2023-03-21T07:53:00Z",-3.3,-8.9,7,60,"SCT",10,"KMSP 210753Z 06007KT 10SM SCT250 M03/M09 A3006 RMK AO2 SLP188 T10331089",2023.03.21-03.55.02
"METAR","KMSP","2023-03-21T08:53:00Z",-3.9,-8.9,7,50,"SCT",10,"KMSP 210853Z 05007KT 10SM SCT250 M04/M09 A3004 RMK AO2 SLP181 T10391089 58007",2023.03.21-04.55.01
"METAR","KMSP","2023-03-21T09:53:00Z",-3.9,-8.9,9,60,"BKN",10,"KMSP 210953Z 06009KT 10SM BKN230 M04/M09 A3003 RMK AO2 SLP179 T10391089",2023.03.21-05.55.01
"METAR","KMSP","2023-03-21T10:53:00Z",-3.9,-8.3,10,60,"BKN",10,"KMSP 211053Z 06010G18KT 10SM BKN230 M04/M08 A3003 RMK AO2 SLP179 T10391083",2023.03.21-06.55.01
"METAR","KMSP","2023-03-21T11:53:00Z",-3.3,-8.3,7,60,"OVC",10,"KMSP 211153Z 06007KT 10SM OVC150 M03/M08 A3003 RMK AO2 SLP180 4/004 T10331083 11022 21039 55001",2023.03.21-07.55.01
"METAR","KMSP","2023-03-21T12:53:00Z",-3.3,-7.8,8,70,"OVC",10,"KMSP 211253Z 07008KT 10SM FEW140 OVC250 M03/M08 A3004 RMK AO2 SLP182 T10331078",2023.03.21-08.55.01
"METAR","KMSP","2023-03-21T13:53:00Z",-2.2,-6.7,9,80,"BKN",10,"KMSP 211353Z 08009KT 10SM FEW140 BKN250 M02/M07 A3004 RMK AO2 SLP181 T10221067",2023.03.21-09.55.01
"METAR","KMSP","2023-03-21T14:53:00Z",-0.6,-5,11,90,"OVC",10,"KMSP 211453Z 09011KT 10SM OVC250 M01/M05 A3004 RMK AO2 SLP182 T10061050 51001",2023.03.21-10.55.01
"METAR","KMSP","2023-03-21T15:53:00Z",0,-4.4,12,100,"OVC",10,"KMSP 211553Z 10012KT 10SM FEW075 SCT100 OVC250 00/M04 A3003 RMK AO2 SLP180 T00001044",2023.03.21-11.55.01
"METAR","KMSP","2023-03-21T16:53:00Z",1.1,-3.9,12,100,"OVC",10,"KMSP 211653Z 10012G22KT 10SM SCT070 BKN100 OVC250 01/M04 A3004 RMK AO2 SLP183 T00111039",2023.03.21-12.55.01
"METAR","KMSP","2023-03-21T17:53:00Z",2.2,-3.9,13,90,"BKN",10,"KMSP 211753Z 09013G20KT 10SM SCT070 BKN140 BKN250 02/M04 A3002 RMK AO2 SLP176 4/004 T00221039 10022 21033 58005",2023.03.21-13.55.01
"METAR","KMSP","2023-03-21T18:53:00Z",2.8,-3.3,12,90,"SCT",10,"KMSP 211853Z 09012G21KT 10SM FEW100 SCT200 03/M03 A3000 RMK AO2 SLP169 T00281033",2023.03.21-14.55.01
"METAR","KMSP","2023-03-21T19:53:00Z",3.3,-2.8,14,110,"BKN",10,"KMSP 211953Z 11014G18KT 10SM FEW070 BKN100 03/M03 A2999 RMK AO2 SLP164 T00331028",2023.03.21-15.55.01
"METAR","KMSP","2023-03-21T20:53:00Z",4.4,-2.8,11,90,"BKN",10,"KMSP 212053Z 09011KT 10SM FEW065 BKN095 04/M03 A2996 RMK AO2 SLP155 T00441028 58019",2023.03.21-16.55.01
"METAR","KMSP","2023-03-21T21:53:00Z",4.4,-2.2,10,100,"BKN",10,"KMSP 212153Z 10010G18KT 10SM BKN095 BKN250 04/M02 A2994 RMK AO2 SLP149 T00441022",2023.03.21-17.55.01
"METAR","KMSP","2023-03-21T22:53:00Z",4.4,-2.8,11,100,"OVC",10,"KMSP 212253Z 10011G21KT 10SM SCT055 BKN095 OVC250 04/M03 A2993 RMK AO2 PK WND 11026/2234 SLP144 T00441028",2023.03.21-18.55.01
"METAR","KMSP","2023-03-21T23:53:00Z",3.9,-2.8,12,90,"OVC",10,"KMSP 212353Z 09012KT 10SM FEW048 SCT060 BKN095 OVC250 04/M03 A2991 RMK AO2 PK WND 07028/2328 SLP139 4/003 T00391028 10050 20022 56016",2023.03.21-19.55.01
"METAR","KMSP","2023-03-22T00:53:00Z",3.3,-2.8,11,100,"BKN",10,"KMSP 220053Z 10011KT 10SM FEW055 SCT075 SCT100 BKN170 OVC250 03/M03 A2990 RMK AO2 SLP134 T00331028",2023.03.21-20.55.01
"METAR","KMSP","2023-03-22T01:53:00Z",3.3,-2.2,13,110,"OVC",10,"KMSP 220153Z 11013G20KT 10SM BKN060 BKN075 OVC100 03/M02 A2988 RMK AO2 SLP128 T00331022",2023.03.21-21.55.01
"METAR","KMSP","2023-03-22T02:53:00Z",3.9,-2.2,10,130,"OVC",10,"KMSP 220253Z 13010KT 10SM OVC055 04/M02 A2986 RMK AO2 PK WND 13026/0227 SLP120 T00391022 58018",2023.03.21-22.55.01
"METAR","KMSP","2023-03-22T03:53:00Z",3.9,-1.7,10,140,"OVC",10,"KMSP 220353Z 14010G21KT 10SM OVC055 04/M02 A2983 RMK AO2 PK WND 14026/0339 SLP110 T00391017",2023.03.21-23.55.01
"METAR","KMSP","2023-03-22T05:02:00Z",3.3,-0.6,11,150,"OVC",6,"KMSP 220502Z 15011KT 6SM RA BKN026 OVC031 03/M01 A2986 RMK AO2 P0002 T00331006",2023.03.22-00.55.01
"METAR","KMSP","2023-03-22T06:49:00Z",3,2,9,150,"OVC",3,"KMSP 220649Z 15009KT 3SM -RASN BR OVC012 03/02 A2982 RMK AO2 P0003",2023.03.22-01.55.01
"METAR","KMSP","2023-03-22T07:27:00Z",3.3,2.2,7,170,"OVC",4,"KMSP 220727Z 17007KT 4SM -RASN BR OVC006 03/02 A2982 RMK AO2 P0000 T00330022",2023.03.22-02.55.01
"METAR","KMSP","2023-03-22T07:53:00Z",3.3,2.2,8,170,"OVC",4,"KMSP 220753Z 17008KT 4SM BR BKN006 OVC009 03/02 A2981 RMK AO2 RAE28SNE28 SLP102 P0001 T00330022",2023.03.22-03.55.01
"METAR","KMSP","2023-03-22T08:53:00Z",4.4,2.8,7,200,"OVC",5,"KMSP 220853Z 20007KT 5SM BR OVC006 04/03 A2980 RMK AO2 SLP097 60005 T00440028 58008",2023.03.22-04.55.01
"METAR","KMSP","2023-03-22T10:48:00Z",4,3,10,230,"OVC",3,"KMSP 221048Z 23010KT 3SM -DZ BR OVC005 04/03 A2979 RMK AO2 SFC VIS 4 RAE42DZB42 P0000",2023.03.22-05.55.01
"METAR","KMSP","2023-03-22T10:53:00Z",3.9,2.8,10,230,"OVC",3,"KMSP 221053Z 23010KT 3SM -DZ BR OVC005 04/03 A2979 RMK AO2 SFC VIS 4 RAE42DZB42 SLP095 P0000 T00390028",2023.03.22-06.55.01
"METAR","KMSP","2023-03-22T12:37:00Z",0.6,-1.7,19,270,"OVC",9,"KMSP 221237Z 27019G30KT 9SM OVC011 01/M02 A2981 RMK AO2 PK WND 27030/1236 DZE10 P0000 T00061017",2023.03.22-07.55.01
"METAR","KMSP","2023-03-22T13:35:00Z",-0.6,-4.4,11,250,"SCT",10,"KMSP 221335Z 25011G25KT 10SM SCT018 M01/M04 A2983 RMK AO2 PK WND 27026/1323 T10061044",2023.03.22-08.55.01
"METAR","KMSP","2023-03-22T13:53:00Z",-1.1,-5.6,14,270,"FEW",10,"KMSP 221353Z 27014G27KT 10SM FEW016 M01/M06 A2984 RMK AO2 PK WND 26027/1348 SLP114 T10111056",2023.03.22-09.55.01
"METAR","KMSP","2023-03-22T14:53:00Z",-1.1,-5.6,14,260,"BKN",10,"KMSP 221453Z 26014G26KT 10SM FEW023 BKN028 M01/M06 A2986 RMK AO2 PK WND 26026/1403 SLP119 60000 T10111056 51022",2023.03.22-10.55.01
"METAR","KMSP","2023-03-22T15:53:00Z",-1.1,-5,12,250,"OVC",10,"KMSP 221553Z 25012G18KT 10SM OVC016 M01/M05 A2989 RMK AO2 PK WND 27027/1522 SLP130 T10111050",2023.03.22-11.55.01
"METAR","KMSP","2023-03-22T17:34:00Z",-0.6,-4.4,14,270,"OVC",10,"KMSP 221734Z 27014KT 10SM OVC014 M01/M04 A2991 RMK AO2 T10061044",2023.03.22-12.55.01
"METAR","KMSP","2023-03-22T17:53:00Z",-0.6,-3.9,13,280,"OVC",10,"KMSP 221753Z 28013KT 10SM OVC014 M01/M04 A2991 RMK AO2 SLP136 4/002 60000 T10061039 10028 21011 51017",2023.03.22-13.55.01
"METAR","KMSP","2023-03-22T19:22:00Z",0,-3.3,13,270,"OVC",10,"KMSP 221922Z 27013G18KT 10SM OVC015 00/M03 A2992 RMK AO2 T00001033",2023.03.22-14.55.01
"METAR","KMSP","2023-03-22T19:53:00Z",0.6,-3.3,13,260,"OVC",10,"KMSP 221953Z 26013KT 10SM OVC015 01/M03 A2992 RMK AO2 SLP139 T00061033",2023.03.22-15.55.01
"METAR","KMSP","2023-03-22T20:53:00Z",0.6,-3.9,12,280,"OVC",10,"KMSP 222053Z 28012KT 10SM OVC019 01/M04 A2994 RMK AO2 SLP145 T00061039 53009",2023.03.22-16.55.01
"METAR","KMSP","2023-03-22T21:53:00Z",1.1,-3.9,12,280,"OVC",10,"KMSP 222153Z 28012KT 10SM OVC021 01/M04 A2992 RMK AO2 SLP141 T00111039",2023.03.22-17.55.01
"METAR","KMSP","2023-03-22T23:21:00Z",0,-3.9,9,320,"OVC",10,"KMSP 222321Z 32009KT 10SM SCT022 OVC150 00/M04 A2994 RMK AO2 T00001039",2023.03.22-18.55.01
"METAR","KMSP","2023-03-22T23:53:00Z",0,-4.4,10,310,"OVC",10,"KMSP 222353Z 31010KT 10SM SCT020 OVC150 00/M04 A2996 RMK AO2 SLP154 4/002 T00001044 10011 21006 53008",2023.03.22-19.55.01
"METAR","KMSP","2023-03-23T00:53:00Z",-0.6,-4.4,10,290,"OVC",10,"KMSP 230053Z 29010KT 10SM BKN150 OVC200 M01/M04 A2998 RMK AO2 SLP163 T10061044",2023.03.22-20.55.01
"METAR","KMSP","2023-03-23T01:53:00Z",-1.1,-5,8,280,"SCT",10,"KMSP 230153Z 28008KT 10SM FEW020 SCT150 SCT200 M01/M05 A3000 RMK AO2 SLP172 T10111050",2023.03.22-21.55.01
"METAR","KMSP","2023-03-23T02:53:00Z",-1.7,-5,9,300,"FEW",10,"KMSP 230253Z 30009KT 10SM FEW020 FEW150 M02/M05 A3002 RMK AO2 SLP175 T10171050 51019",2023.03.22-22.55.01
"METAR","KMSP","2023-03-23T03:53:00Z",-2.2,-5.6,10,310,"FEW",10,"KMSP 230353Z 31010KT 10SM FEW020 FEW150 M02/M06 A3001 RMK AO2 SLP173 T10221056",2023.03.22-23.55.01
"METAR","KMSP","2023-03-23T04:53:00Z",-2.8,-6.1,8,330,"SCT",10,"KMSP 230453Z 33008KT 10SM SCT220 M03/M06 A3000 RMK AO2 SLP169 T10281061",2023.03.23-00.55.01
"METAR","KMSP","2023-03-23T05:53:00Z",-2.8,-6.1,9,330,"BKN",10,"KMSP 230553Z 33009KT 10SM FEW025 BKN210 M03/M06 A3002 RMK AO2 SLP176 4/002 T10281061 10000 21028 400441028 53000",2023.03.23-01.55.01
"METAR","KMSP","2023-03-23T06:53:00Z",-3.3,-7.2,7,350,"BKN",10,"KMSP 230653Z 35007KT 10SM FEW017 BKN200 M03/M07 A3003 RMK AO2 SLP179 T10331072",2023.03.23-02.55.01
"METAR","KMSP","2023-03-23T07:53:00Z",-3.9,-7.2,11,330,"BKN",10,"KMSP 230753Z 33011KT 10SM FEW170 BKN200 M04/M07 A3004 RMK AO2 SLP183 T10391072",2023.03.23-03.55.01
"METAR","KMSP","2023-03-23T08:53:00Z",-3.9,-7.2,4,320,"BKN",10,"KMSP 230853Z 32004KT 10SM BKN200 M04/M07 A3005 RMK AO2 SLP186 T10391072 51010",2023.03.23-04.55.01
"METAR","KMSP","2023-03-23T09:53:00Z",-3.9,-7.2,5,310,"BKN",10,"KMSP 230953Z 31005KT 10SM BKN200 M04/M07 A3006 RMK AO2 SLP191 T10391072",2023.03.23-05.55.01
"METAR","KMSP","2023-03-23T10:53:00Z",-3.9,-7.8,8,340,"OVC",10,"KMSP 231053Z 34008KT 10SM OVC200 M04/M08 A3006 RMK AO2 SLP189 T10391078",2023.03.23-06.55.02
"METAR","KMSP","2023-03-23T11:53:00Z",-4.4,-8.9,10,350,"OVC",10,"KMSP 231153Z 35010G21KT 10SM OVC210 M04/M09 A3006 RMK AO2 SLP192 4/002 T10441089 11028 21044 51006",2023.03.23-07.55.02
"METAR","KMSP","2023-03-23T12:53:00Z",-4.4,-8.9,5,330,"BKN",10,"KMSP 231253Z 33005KT 10SM SCT220 BKN250 M04/M09 A3008 RMK AO2 SLP197 T10441089",2023.03.23-08.55.01
"METAR","KMSP","2023-03-23T13:53:00Z",-4.4,-9.4,9,320,"BKN",10,"KMSP 231353Z 32009KT 10SM FEW220 BKN250 M04/M09 A3011 RMK AO2 SLP210 T10441094",2023.03.23-09.55.01
"METAR","KMSP","2023-03-23T14:53:00Z",-2.8,-8.3,6,330,"BKN",10,"KMSP 231453Z 33006KT 10SM BKN250 M03/M08 A3013 RMK AO2 SLP213 T10281083 51021",2023.03.23-10.55.01
"METAR","KMSP","2023-03-23T15:53:00Z",-2.2,-8.3,6,340,"SCT",10,"KMSP 231553Z 34006KT 10SM SCT250 M02/M08 A3014 RMK AO2 SLP217 T10221083",2023.03.23-11.55.01
"METAR","KMSP","2023-03-23T16:53:00Z",0,-7.8,8,340,"SCT",10,"KMSP 231653Z 34008KT 10SM SCT250 00/M08 A3015 RMK AO2 SLP221 T00001078",2023.03.23-12.55.01
"METAR","KMSP","2023-03-23T17:53:00Z",0.6,-8.9,0,0,"BKN",10,"KMSP 231753Z 00000KT 10SM BKN250 01/M09 A3014 RMK AO2 SLP218 4/002 T00061089 10011 21050 50004",2023.03.23-13.55.02
"METAR","KMSP","2023-03-23T18:53:00Z",1.7,-10,5,350,"BKN",10,"KMSP 231853Z 35005KT 10SM BKN250 02/M10 A3013 RMK AO2 SLP215 T00171100",2023.03.23-14.55.01
"METAR","KMSP","2023-03-23T19:53:00Z",2.2,-10,4,20,"SCT",10,"KMSP 231953Z 02004KT 10SM SCT250 02/M10 A3012 RMK AO2 SLP209 T00221100",2023.03.23-15.55.01
"METAR","KMSP","2023-03-23T20:53:00Z",2.8,-10,0,0,"SCT",10,"KMSP 232053Z 00000KT 10SM FEW150 SCT200 03/M10 A3012 RMK AO2 SLP208 T00281100 56008",2023.03.23-16.55.01
"METAR","KMSP","2023-03-23T21:53:00Z",3.3,-10.6,3,310,"SCT",10,"KMSP 232153Z 31003KT 10SM SCT200 03/M11 A3011 RMK AO2 SLP207 T00331106",2023.03.23-17.55.01
"METAR","KMSP","2023-03-23T22:53:00Z",2.8,-8.3,6,320,"FEW",10,"KMSP 232253Z 32006KT 10SM FEW200 03/M08 A3010 RMK AO2 SLP204 T00281083",2023.03.23-18.55.01
"METAR","KMSP","2023-03-23T23:53:00Z",1.7,-10,8,320,"FEW",10,"KMSP 232353Z 32008KT 10SM FEW200 02/M10 A3010 RMK AO2 SLP206 4/002 T00171100 10033 20000 55003",2023.03.23-19.55.01
"METAR","KMSP","2023-03-24T00:53:00Z",0,-10,7,330,"FEW",10,"KMSP 240053Z 33007KT 10SM FEW200 00/M10 A3010 RMK AO2 SLP205 T00001100",2023.03.23-20.55.01
"METAR","KMSP","2023-03-24T01:53:00Z",-1.1,-10,5,320,"FEW",10,"KMSP 240153Z 32005KT 10SM FEW200 M01/M10 A3011 RMK AO2 SLP207 T10111100",2023.03.23-21.55.01
"METAR","KMSP","2023-03-24T02:53:00Z",-1.7,-10.6,4,310,"CLR",10,"KMSP 240253Z 31004KT 10SM CLR M02/M11 A3011 RMK AO2 SLP208 T10171106 53003",2023.03.23-22.55.01
"METAR","KMSP","2023-03-24T03:53:00Z",-1.1,-11.1,0,0,"CLR",10,"KMSP 240353Z 00000KT 10SM CLR M01/M11 A3011 RMK AO2 SLP209 T10111111",2023.03.23-23.55.01
"METAR","KMSP","2023-03-24T04:53:00Z",-2.2,-10,3,280,"CLR",10,"KMSP 240453Z 28003KT 10SM CLR M02/M10 A3011 RMK AO2 SLP207 T10221100",2023.03.24-00.55.01
"METAR","KMSP","2023-03-24T05:53:00Z",-3.3,-9.4,3,280,"CLR",10,"KMSP 240553Z 28003KT 10SM CLR M03/M09 A3010 RMK AO2 SLP204 4/002 T10331094 10017 21039 400331050 58004",2023.03.24-01.55.01
"METAR","KMSP","2023-03-24T06:53:00Z",-4.4,-8.9,3,290,"CLR",10,"KMSP 240653Z 29003KT 10SM CLR M04/M09 A3010 RMK AO2 SLP205 T10441089",2023.03.24-02.55.01
"METAR","KMSP","2023-03-24T07:53:00Z",-5,-8.9,4,330,"CLR",10,"KMSP 240753Z 33004KT 10SM CLR M05/M09 A3009 RMK AO2 SLP202 T10501089",2023.03.24-03.55.01
"METAR","KMSP","2023-03-24T08:53:00Z",-5,-8.9,0,0,"CLR",10,"KMSP 240853Z 00000KT 10SM CLR M05/M09 A3008 RMK AO2 SLP196 T10501089 58008",2023.03.24-04.55.01
"METAR","KMSP","2023-03-24T09:53:00Z",-4.4,-9.4,0,0,"CLR",10,"KMSP 240953Z 00000KT 10SM CLR M04/M09 A3008 RMK AO2 SLP195 T10441094",2023.03.24-05.55.01
"METAR","KMSP","2023-03-24T10:53:00Z",-5,-8.9,0,0,"CLR",9,"KMSP 241053Z 00000KT 9SM CLR M05/M09 A3007 RMK AO2 SLP195 T10501089",2023.03.24-06.55.01
"METAR","KMSP","2023-03-24T11:53:00Z",-5.6,-9.4,0,0,"CLR",8,"KMSP 241153Z 00000KT 8SM CLR M06/M09 A3008 RMK AO2 SLP197 4/002 T10561094 11033 21061 53001",2023.03.24-07.55.01
"METAR","KMSP","2023-03-24T12:53:00Z",-5,-8.9,3,10,"CLR",7,"KMSP 241253Z 01003KT 7SM CLR M05/M09 A3009 RMK AO2 SLP199 T10501089",2023.03.24-08.55.01
"METAR","KMSP","2023-03-24T13:53:00Z",-3.9,-8.3,0,0,"CLR",9,"KMSP 241353Z 00000KT 9SM CLR M04/M08 A3008 RMK AO2 SLP197 T10391083",2023.03.24-09.55.01
"METAR","KMSP","2023-03-24T14:53:00Z",-2.2,-8.9,4,140,"CLR",10,"KMSP 241453Z 14004KT 10SM CLR M02/M09 A3007 RMK AO2 SLP193 T10221089 58004",2023.03.24-10.55.01
"METAR","KMSP","2023-03-24T15:53:00Z",0.6,-9.4,0,0,"CLR",10,"KMSP 241553Z 00000KT 10SM CLR 01/M09 A3004 RMK AO2 SLP182 T00061094",2023.03.24-11.55.01
"METAR","KMSP","2023-03-24T16:53:00Z",1.7,-10.6,3,0,"CLR",10,"KMSP 241653Z VRB03KT 10SM CLR 02/M11 A3003 RMK AO2 SLP180 T00171106",2023.03.24-12.55.01
"METAR","KMSP","2023-03-24T17:53:00Z",3.3,-10.6,6,150,"CLR",10,"KMSP 241753Z 15006KT 10SM CLR 03/M11 A3001 RMK AO2 SLP173 4/002 T00331106 10033 21061 56019",2023.03.24-13.55.01
"METAR","KMSP","2023-03-24T18:53:00Z",3.3,-11.7,7,160,"CLR",10,"KMSP 241853Z 16007KT 10SM CLR 03/M12 A2998 RMK AO2 SLP162 T00331117",2023.03.24-14.55.01
"METAR","KMSP","2023-03-24T19:53:00Z",5,-12.2,7,170,"CLR",10,"KMSP 241953Z 17007KT 10SM CLR 05/M12 A2997 RMK AO2 SLP158 T00501122",2023.03.24-15.55.01
"METAR","KMSP","2023-03-24T20:53:00Z",5,-13.9,10,150,"CLR",10,"KMSP 242053Z 15010KT 10SM CLR 05/M14 A2994 RMK AO2 SLP148 T00501139 56025",2023.03.24-16.55.01
"METAR","KMSP","2023-03-24T21:53:00Z",5.6,-10.6,7,160,"CLR",10,"KMSP 242153Z 16007KT 10SM CLR 06/M11 A2990 RMK AO2 SLP135 T00561106",2023.03.24-17.55.01
"METAR","KMSP","2023-03-24T22:53:00Z",5.6,-10.6,3,100,"CLR",10,"KMSP 242253Z 10003KT 10SM CLR 06/M11 A2987 RMK AO2 SLP125 T00561106",2023.03.24-18.55.01
"METAR","KMSP","2023-03-24T23:53:00Z",5.6,-10.6,4,140,"CLR",10,"KMSP 242353Z 14004KT 10SM CLR 06/M11 A2987 RMK AO2 SLP125 4/002 T00561106 10067 20028 56022",2023.03.24-19.55.01
"METAR","KMSP","2023-03-25T00:53:00Z",4.4,-8.3,6,100,"FEW",10,"KMSP 250053Z 10006KT 10SM FEW200 04/M08 A2988 RMK AO2 SLP127 T00441083",2023.03.24-20.55.01
"METAR","KMSP","2023-03-25T01:53:00Z",4.4,-8.9,4,100,"FEW",10,"KMSP 250153Z 10004KT 10SM FEW200 04/M09 A2988 RMK AO2 SLP126 T00441089",2023.03.24-21.55.01
"METAR","KMSP","2023-03-25T02:53:00Z",3.3,-8.9,6,60,"FEW",10,"KMSP 250253Z 06006KT 10SM FEW200 03/M09 A2984 RMK AO2 SLP112 T00331089 58012",2023.03.24-22.55.01
"METAR","KMSP","2023-03-25T03:53:00Z",2.2,-8.9,5,50,"FEW",10,"KMSP 250353Z 05005KT 10SM FEW075 FEW200 02/M09 A2980 RMK AO2 SLP099 T00221089",2023.03.24-23.55.01
"METAR","KMSP","2023-03-25T04:53:00Z",1.7,-8.9,4,60,"FEW",10,"KMSP 250453Z 06004KT 10SM FEW250 02/M09 A2978 RMK AO2 SLP094 T00171089",2023.03.25-00.55.02
"METAR","KMSP","2023-03-25T05:53:00Z",0.6,-8.3,4,360,"FEW",10,"KMSP 250553Z 36004KT 10SM FEW080 01/M08 A2977 RMK AO2 SLP088 4/001 T00061083 10056 20006 400671061 56023",2023.03.25-01.55.01
"METAR","KMSP","2023-03-25T06:53:00Z",0.6,-8.3,0,0,"BKN",10,"KMSP 250653Z 00000KT 10SM BKN085 01/M08 A2976 RMK AO2 SLP087 T00061083",2023.03.25-02.55.01
"METAR","KMSP","2023-03-25T07:53:00Z",0.6,-6.1,4,10,"OVC",10,"KMSP 250753Z 01004KT 10SM OVC085 01/M06 A2974 RMK AO2 SLP078 T00061061",2023.03.25-03.55.01
"METAR","KMSP","2023-03-25T08:53:00Z",0.6,-5.6,3,20,"OVC",10,"KMSP 250853Z 02003KT 10SM OVC090 01/M06 A2973 RMK AO2 SLP076 T00061056 58012",2023.03.25-04.55.01
"METAR","KMSP","2023-03-25T09:53:00Z",0.6,-5.6,5,10,"OVC",10,"KMSP 250953Z 01005KT 10SM OVC090 01/M06 A2972 RMK AO2 SLP070 T00061056",2023.03.25-05.55.02
"METAR","KMSP","2023-03-25T10:53:00Z",0,-6.1,6,10,"OVC",10,"KMSP 251053Z 01006KT 10SM OVC090 00/M06 A2970 RMK AO2 SLP066 T00001061",2023.03.25-06.55.01
"METAR","KMSP","2023-03-25T11:53:00Z",0,-6.1,5,360,"OVC",10,"KMSP 251153Z 36005KT 10SM OVC090 00/M06 A2970 RMK AO2 SLP066 4/001 T00001061 10011 21006 55009",2023.03.25-07.55.01
"METAR","KMSP","2023-03-25T12:53:00Z",0,-6.1,5,10,"OVC",10,"KMSP 251253Z 01005KT 10SM OVC090 00/M06 A2971 RMK AO2 SLP069 T00001061",2023.03.25-08.55.01
"METAR","KMSP","2023-03-25T13:53:00Z",0.6,-5,5,10,"OVC",10,"KMSP 251353Z 01005KT 10SM OVC090 01/M05 A2972 RMK AO2 SLP071 T00061050",2023.03.25-09.55.01
"METAR","KMSP","2023-03-25T14:53:00Z",2.2,-4.4,7,340,"OVC",10,"KMSP 251453Z 34007KT 310V020 10SM OVC090 02/M04 A2972 RMK AO2 SLP073 T00221044 51007",2023.03.25-10.55.01
"METAR","KMSP","2023-03-25T15:53:00Z",3.3,-4.4,10,340,"BKN",10,"KMSP 251553Z 34010KT 10SM BKN090 03/M04 A2973 RMK AO2 SLP075 T00331044",2023.03.25-11.55.01
"METAR","KMSP","2023-03-25T16:53:00Z",4.4,-5.6,10,330,"SCT",10,"KMSP 251653Z 33010G21KT 10SM FEW090 SCT250 04/M06 A2974 RMK AO2 SLP077 T00441056",2023.03.25-12.55.01
"METAR","KMSP","2023-03-25T17:53:00Z",6.1,-7.2,9,340,"FEW",10,"KMSP 251753Z 34009KT 10SM FEW090 FEW250 06/M07 A2974 RMK AO2 SLP077 4/001 T00611072 10061 21006 51005",2023.03.25-13.55.01
"METAR","KMSP","2023-03-25T18:53:00Z",6.7,-8.3,10,350,"BKN",10,"KMSP 251853Z 35010KT 10SM FEW070 SCT090 BKN250 07/M08 A2974 RMK AO2 SLP078 T00671083",2023.03.25-14.55.01
"METAR","KMSP","2023-03-25T19:53:00Z",6.1,-8.3,12,330,"BKN",10,"KMSP 251953Z 33012KT 10SM BKN075 06/M08 A2975 RMK AO2 SLP081 T00611083",2023.03.25-15.55.01
"METAR","KMSP","2023-03-25T20:53:00Z",6.1,-6.7,12,310,"BKN",10,"KMSP 252053Z 31012KT 10SM BKN070 06/M07 A2976 RMK AO2 SLP084 T00611067 53007",2023.03.25-16.55.01
"METAR","KMSP","2023-03-25T21:53:00Z",7.2,-6.7,12,320,"SCT",10,"KMSP 252153Z 32012KT 10SM SCT070 07/M07 A2978 RMK AO2 PK WND 31026/2117 SLP091 T00721067",2023.03.25-17.55.01
"METAR","KMSP","2023-03-25T22:53:00Z",6.7,-7.2,13,310,"SCT",10,"KMSP 252253Z 31013KT 10SM FEW070 SCT220 07/M07 A2980 RMK AO2 SLP096 T00671072",2023.03.25-18.55.01
"METAR","KMSP","2023-03-25T23:53:00Z",5.6,-7.2,10,310,"FEW",10,"KMSP 252353Z 31010KT 10SM FEW065 FEW220 06/M07 A2981 RMK AO2 SLP104 4/001 T00561072 10072 20056 53018",2023.03.25-19.55.01
"METAR","KMSP","2023-03-26T00:53:00Z",3.3,-6.7,6,300,"FEW",10,"KMSP 260053Z 30006KT 10SM FEW060 FEW220 03/M07 A2983 RMK AO2 SLP111 T00331067",2023.03.25-20.55.01
"METAR","KMSP","2023-03-26T01:53:00Z",3.3,-6.1,7,280,"FEW",10,"KMSP 260153Z 28007KT 10SM FEW060 03/M06 A2986 RMK AO2 SLP118 T00331061",2023.03.25-21.55.01
"METAR","KMSP","2023-03-26T02:53:00Z",1.7,-6.1,6,300,"CLR",10,"KMSP 260253Z 30006KT 10SM CLR 02/M06 A2987 RMK AO2 SLP123 T00171061 51018",2023.03.25-22.55.01
"METAR","KMSP","2023-03-26T03:53:00Z",1.1,-5.6,6,270,"CLR",10,"KMSP 260353Z 27006KT 10SM CLR 01/M06 A2990 RMK AO2 SLP131 T00111056",2023.03.25-23.55.01
"METAR","KMSP","2023-03-26T04:53:00Z",0.6,-5.6,4,270,"CLR",10,"KMSP 260453Z 27004KT 10SM CLR 01/M06 A2991 RMK AO2 SLP136 T00061056",2023.03.26-00.55.01
"METAR","KMSP","2023-03-26T05:53:00Z",0,-5.6,5,240,"CLR",10,"KMSP 260553Z 24005KT 10SM CLR 00/M06 A2992 RMK AO2 SLP140 T00001056 10056 20000 400721006 51018",2023.03.26-01.55.01
"METAR","KMSP","2023-03-26T06:53:00Z",-1.1,-5,4,280,"CLR",10,"KMSP 260653Z 28004KT 10SM CLR M01/M05 A2993 RMK AO2 SLP145 T10111050",2023.03.26-02.55.01
"METAR","KMSP","2023-03-26T07:53:00Z",-1.7,-5,6,310,"CLR",10,"KMSP 260753Z 31006KT 10SM CLR M02/M05 A2994 RMK AO2 SLP147 T10171050",2023.03.26-03.55.01
"METAR","KMSP","2023-03-26T08:53:00Z",-2.8,-5.6,4,310,"CLR",10,"KMSP 260853Z 31004KT 10SM CLR M03/M06 A2994 RMK AO2 SLP148 T10281056 51006",2023.03.26-04.55.01
"METAR","KMSP","2023-03-26T09:53:00Z",-3.3,-6.1,4,320,"CLR",10,"KMSP 260953Z 32004KT 10SM CLR M03/M06 A2995 RMK AO2 SLP149 T10331061",2023.03.26-05.55.01
"METAR","KMSP","2023-03-26T10:53:00Z",-3.3,-6.1,5,310,"CLR",10,"KMSP 261053Z 31005KT 10SM CLR M03/M06 A2996 RMK AO2 SLP155 T10331061",2023.03.26-06.55.01
"METAR","KMSP","2023-03-26T11:53:00Z",-3.9,-6.7,4,300,"CLR",10,"KMSP 261153Z 30004KT 10SM CLR M04/M07 A2998 RMK AO2 SLP161 T10391067 10000 21039 53013",2023.03.26-07.55.01
"METAR","KMSP","2023-03-26T12:53:00Z",-3.3,-6.7,7,330,"FEW",9,"KMSP 261253Z 33007KT 9SM FEW150 M03/M07 A3000 RMK AO2 SLP168 T10331067",2023.03.26-08.55.01
"METAR","KMSP","2023-03-26T13:53:00Z",-1.7,-6.7,8,360,"CLR",9,"KMSP 261353Z 36008KT 9SM CLR M02/M07 A3001 RMK AO2 SLP173 T10171067",2023.03.26-09.55.01
"METAR","KMSP","2023-03-26T14:53:00Z",-0.6,-6.1,7,350,"SCT",10,"KMSP 261453Z 35007KT 300V020 10SM SCT044 M01/M06 A3002 RMK AO2 SLP176 T10061061 51015",2023.03.26-10.55.01
"METAR","KMSP","2023-03-26T15:53:00Z",1.7,-5.6,6,10,"FEW",10,"KMSP 261553Z 01006KT 10SM FEW044 02/M06 A3003 RMK AO2 SLP177 T00171056",2023.03.26-11.55.01
"METAR","KMSP","2023-03-26T16:53:00Z",3.9,-4.4,5,20,"FEW",10,"KMSP 261653Z 02005KT 10SM FEW044 04/M04 A3003 RMK AO2 SLP177 T00391044",2023.03.26-12.55.01
"METAR","KMSP","2023-03-26T17:53:00Z",3.9,-5,5,330,"FEW",10,"KMSP 261753Z 33005KT 10SM FEW040 04/M05 A3003 RMK AO2 SLP177 T00391050 10050 21044 51001",2023.03.26-13.55.01
"METAR","KMSP","2023-03-26T18:53:00Z",5.6,-5.6,6,0,"SCT",10,"KMSP 261853Z VRB06KT 10SM SCT044 06/M06 A3003 RMK AO2 SLP178 T00561056",2023.03.26-14.55.01
"METAR","KMSP","2023-03-26T19:53:00Z",5.6,-6.7,5,0,"SCT",10,"KMSP 261953Z VRB05KT 10SM SCT047 06/M07 A3003 RMK AO2 SLP178 T00561067",2023.03.26-15.55.01
"METAR","KMSP","2023-03-26T20:53:00Z",6.1,-6.1,10,330,"SCT",10,"KMSP 262053Z 33010G17KT 10SM FEW046 SCT250 06/M06 A3003 RMK AO2 SLP179 T00611061 52002",2023.03.26-16.55.01
"METAR","KMSP","2023-03-26T21:53:00Z",5.6,-6.1,11,320,"FEW",10,"KMSP 262153Z 32011KT 10SM FEW250 06/M06 A3004 RMK AO2 SLP182 T00561061",2023.03.26-17.55.01
"METAR","KMSP","2023-03-26T22:53:00Z",5,-7.8,11,320,"FEW",10,"KMSP 262253Z 32011KT 10SM FEW250 05/M08 A3005 RMK AO2 SLP185 T00501078",2023.03.26-18.55.01
"METAR","KMSP","2023-03-26T23:53:00Z",3.9,-7.8,9,330,"FEW",10,"KMSP 262353Z 33009KT 10SM FEW250 04/M08 A3006 RMK AO2 SLP189 T00391078 10067 20039 53008",2023.03.26-19.55.01
"METAR","KMSP","2023-03-27T00:53:00Z",2.2,-8.3,8,320,"FEW",10,"KMSP 270053Z 32008KT 10SM FEW250 02/M08 A3008 RMK AO2 SLP197 T00221083",2023.03.26-20.55.01
"METAR","KMSP","2023-03-27T01:53:00Z",1.7,-8.9,8,330,"FEW",10,"KMSP 270153Z 33008KT 10SM FEW250 02/M09 A3011 RMK AO2 SLP205 T00171089",2023.03.26-21.55.02
"METAR","KMSP","2023-03-27T02:53:00Z",0.6,-8.3,7,330,"FEW",10,"KMSP 270253Z 33007KT 10SM FEW250 01/M08 A3012 RMK AO2 SLP211 T00061083 51022",2023.03.26-22.55.01
"METAR","KMSP","2023-03-27T03:53:00Z",0,-8.9,8,330,"FEW",10,"KMSP 270353Z 33008KT 10SM FEW250 00/M09 A3013 RMK AO2 SLP212 T00001089",2023.03.26-23.55.01
"METAR","KMSP","2023-03-27T04:53:00Z",-1.1,-8.9,6,310,"CLR",10,"KMSP 270453Z 31006KT 10SM CLR M01/M09 A3014 RMK AO2 SLP216 T10111089",2023.03.27-00.55.02
"METAR","KMSP","2023-03-27T05:53:00Z",-1.7,-9.4,7,330,"CLR",10,"KMSP 270553Z 33007KT 10SM CLR M02/M09 A3014 RMK AO2 SLP217 T10171094 10039 21017 400671044 51007",2023.03.27-01.55.01
"METAR","KMSP","2023-03-27T06:53:00Z",-2.2,-10,4,330,"CLR",10,"KMSP 270653Z 33004KT 10SM CLR M02/M10 A3015 RMK AO2 SLP221 T10221100",2023.03.27-02.55.01
"METAR","KMSP","2023-03-27T07:53:00Z",-2.2,-10,4,280,"CLR",10,"KMSP 270753Z 28004KT 10SM CLR M02/M10 A3018 RMK AO2 SLP228 T10221100",2023.03.27-03.55.01
"METAR","KMSP","2023-03-27T08:53:00Z",-3.3,-10,5,310,"FEW",10,"KMSP 270853Z 31005KT 10SM FEW250 M03/M10 A3018 RMK AO2 SLP229 T10331100 51011",2023.03.27-04.55.01
"METAR","KMSP","2023-03-27T09:53:00Z",-3.9,-10.6,4,320,"FEW",10,"KMSP 270953Z 32004KT 10SM FEW250 M04/M11 A3019 RMK AO2 SLP231 T10391106",2023.03.27-05.55.01
"METAR","KMSP","2023-03-27T10:53:00Z",-3.9,-10.6,0,0,"FEW",10,"KMSP 271053Z 00000KT 10SM FEW250 M04/M11 A3021 RMK AO2 SLP239 T10391106",2023.03.27-06.55.02
"METAR","KMSP","2023-03-27T11:53:00Z",-4.4,-11.1,3,310,"FEW",10,"KMSP 271153Z 31003KT 10SM FEW250 M04/M11 A3022 RMK AO2 SLP245 T10441111 11017 21044 53015",2023.03.27-07.55.02
"METAR","KMSP","2023-03-27T12:53:00Z",-3.9,-10,4,310,"BKN",10,"KMSP 271253Z 31004KT 10SM BKN250 M04/M10 A3024 RMK AO2 SLP251 T10391100",2023.03.27-08.55.01
"METAR","KMSP","2023-03-27T13:53:00Z",-1.7,-11.1,5,30,"BKN",10,"KMSP 271353Z 03005KT 10SM BKN250 M02/M11 A3024 RMK AO2 SLP251 T10171111",2023.03.27-09.55.01
"METAR","KMSP","2023-03-27T14:53:00Z",-0.6,-10.6,5,0,"OVC",10,"KMSP 271453Z VRB05KT 10SM OVC250 M01/M11 A3025 RMK AO2 SLP255 T10061106 51010",2023.03.27-10.55.01
"METAR","KMSP","2023-03-27T15:53:00Z",0.6,-10.6,4,310,"BKN",10,"KMSP 271553Z 31004KT 10SM BKN250 01/M11 A3025 RMK AO2 SLP255 T00061106",2023.03.27-11.55.01
"METAR","KMSP","2023-03-27T16:53:00Z",2.2,-10,6,320,"BKN",10,"KMSP 271653Z 32006KT 10SM BKN250 02/M10 A3027 RMK AO2 SLP260 T00221100",2023.03.27-12.55.01
"METAR","KMSP","2023-03-27T17:53:00Z",3.9,-10.6,7,310,"OVC",10,"KMSP 271753Z 31007KT 10SM OVC250 04/M11 A3028 RMK AO2 SLP262 T00391106 10039 21044 53008",2023.03.27-13.55.01
"METAR","KMSP","2023-03-27T18:53:00Z",4.4,-11.7,8,330,"BKN",10,"KMSP 271853Z 33008KT 10SM BKN250 04/M12 A3028 RMK AO2 SLP265 T00441117",2023.03.27-14.55.01
"METAR","KMSP","2023-03-27T19:53:00Z",4.4,-12.2,9,320,"BKN",10,"KMSP 271953Z 32009KT 10SM BKN250 04/M12 A3027 RMK AO2 SLP260 T00441122",2023.03.27-15.55.01
"METAR","KMSP","2023-03-27T20:53:00Z",4.4,-11.7,9,310,"BKN",10,"KMSP 272053Z 31009KT 10SM BKN250 04/M12 A3027 RMK AO2 SLP260 T00441117 58002",2023.03.27-16.55.02
"METAR","KMSP","2023-03-27T21:53:00Z",4.4,-11.1,7,340,"SCT",10,"KMSP 272153Z 34007KT 10SM SCT250 04/M11 A3027 RMK AO2 SLP259 T00441111",2023.03.27-17.55.01
"METAR","KMSP","2023-03-27T22:53:00Z",3.9,-11.7,10,290,"FEW",10,"KMSP 272253Z 29010KT 10SM FEW220 FEW250 04/M12 A3027 RMK AO2 SLP260 T00391117",2023.03.27-18.55.01
"METAR","KMSP","2023-03-27T23:53:00Z",2.2,-10.6,8,300,"FEW",10,"KMSP 272353Z 30008KT 10SM FEW220 FEW250 02/M11 A3027 RMK AO2 SLP264 T00221106 10050 20022 53001",2023.03.27-19.55.01
"METAR","KMSP","2023-03-28T00:53:00Z",0,-10,10,320,"FEW",10,"KMSP 280053Z 32010KT 10SM FEW250 00/M10 A3029 RMK AO2 SLP269 T00001100",2023.03.27-20.55.01
"METAR","KMSP","2023-03-28T01:53:00Z",-0.6,-10,9,290,"FEW",10,"KMSP 280153Z 29009KT 10SM FEW250 M01/M10 A3031 RMK AO2 SLP277 T10061100",2023.03.27-21.55.01
"METAR","KMSP","2023-03-28T02:53:00Z",-1.7,-7.8,12,310,"FEW",10,"KMSP 280253Z 31012KT 10SM FEW250 M02/M08 A3033 RMK AO2 SLP283 T10171078 53019",2023.03.27-22.55.01
"METAR","KMSP","2023-03-28T03:53:00Z",-2.2,-7.8,11,320,"FEW",10,"KMSP 280353Z 32011KT 10SM FEW250 M02/M08 A3034 RMK AO2 SLP285 T10221078",2023.03.27-23.55.01
"METAR","KMSP","2023-03-28T04:53:00Z",-2.8,-8.9,9,310,"CLR",10,"KMSP 280453Z 31009KT 10SM CLR M03/M09 A3035 RMK AO2 SLP287 T10281089",2023.03.28-00.55.01
"METAR","KMSP","2023-03-28T05:53:00Z",-3.9,-10.6,12,330,"CLR",10,"KMSP 280553Z 33012G17KT 10SM CLR M04/M11 A3036 RMK AO2 SLP291 T10391106 10022 21039 400501044 53008",2023.03.28-01.55.01
"METAR","KMSP","2023-03-28T06:53:00Z",-5,-11.1,11,310,"CLR",10,"KMSP 280653Z 31011KT 10SM CLR M05/M11 A3036 RMK AO2 SLP292 T10501111",2023.03.28-02.55.01
"METAR","KMSP","2023-03-28T07:53:00Z",-6.1,-12.2,8,310,"CLR",10,"KMSP 280753Z 31008KT 10SM CLR M06/M12 A3037 RMK AO2 SLP296 T10611122",2023.03.28-03.55.01
"METAR","KMSP","2023-03-28T08:53:00Z",-7.2,-13.3,10,310,"CLR",10,"KMSP 280853Z 31010KT 10SM CLR M07/M13 A3038 RMK AO2 SLP299 T10721133 51007",2023.03.28-04.55.01
"METAR","KMSP","2023-03-28T09:53:00Z",-7.8,-14.4,8,310,"CLR",10,"KMSP 280953Z 31008KT 10SM CLR M08/M14 A3037 RMK AO2 SLP296 T10781144",2023.03.28-05.55.01
"METAR","KMSP","2023-03-28T10:53:00Z",-8.9,-15.6,7,310,"CLR",10,"KMSP 281053Z 31007KT 10SM CLR M09/M16 A3038 RMK AO2 SLP298 T10891156",2023.03.28-06.55.01
"METAR","KMSP","2023-03-28T11:53:00Z",-9.4,-16.1,7,310,"FEW",10,"KMSP 281153Z 31007KT 10SM FEW200 M09/M16 A3037 RMK AO2 SLP298 T10941161 11039 21094 56002",2023.03.28-07.55.01
"METAR","KMSP","2023-03-28T12:53:00Z",-8.9,-16.1,5,290,"FEW",10,"KMSP 281253Z 29005KT 10SM FEW200 M09/M16 A3036 RMK AO2 SLP296 T10891161",2023.03.28-08.55.01
"METAR","KMSP","2023-03-28T13:53:00Z",-7.2,-16.1,4,290,"FEW",10,"KMSP 281353Z 29004KT 10SM FEW100 M07/M16 A3035 RMK AO2 SLP293 T10721161",2023.03.28-09.55.01
"METAR","KMSP","2023-03-28T14:53:00Z",-6.1,-16.1,4,240,"FEW",10,"KMSP 281453Z 24004KT 10SM FEW100 M06/M16 A3034 RMK AO2 SLP288 T10611161 58010",2023.03.28-10.55.01
"METAR","KMSP","2023-03-28T15:53:00Z",-3.9,-16.7,5,210,"CLR",10,"KMSP 281553Z 21005KT 10SM CLR M04/M17 A3033 RMK AO2 SLP283 T10391167",2023.03.28-11.55.01
"METAR","KMSP","2023-03-28T16:53:00Z",-2.8,-16.7,7,220,"CLR",10,"KMSP 281653Z 22007KT 10SM CLR M03/M17 A3032 RMK AO2 SLP279 T10281167",2023.03.28-12.55.01
"METAR","KMSP","2023-03-28T17:53:00Z",-1.7,-16.7,9,230,"FEW",10,"KMSP 281753Z 23009KT 10SM FEW250 M02/M17 A3030 RMK AO2 SLP273 T10171167 11011 21094 58014",2023.03.28-13.55.01
"METAR","KMSP","2023-03-28T18:53:00Z",0,-14.4,13,230,"FEW",10,"KMSP 281853Z 23013G23KT 10SM FEW100 FEW250 00/M14 A3027 RMK AO2 SLP263 T00001144",2023.03.28-14.55.01
"METAR","KMSP","2023-03-28T19:53:00Z",1.7,-12.8,17,230,"FEW",10,"KMSP 281953Z 23017G27KT 10SM FEW050 FEW070 02/M13 A3023 RMK AO2 PK WND 26027/1948 SLP249 T00171128",2023.03.28-15.55.01
"METAR","KMSP","2023-03-28T20:53:00Z",1.7,-11.1,15,240,"BKN",10,"KMSP 282053Z 24015G29KT 10SM BKN050 02/M11 A3020 RMK AO2 PK WND 25031/1957 SLP239 T00171111 58033",2023.03.28-16.55.01
"METAR","KMSP","2023-03-28T21:53:00Z",1.1,-7.8,12,260,"OVC",10,"KMSP 282153Z 26012G32KT 10SM OVC035 01/M08 A3019 RMK AO2 PK WND 26033/2131 SLP237 T00111078",2023.03.28-17.55.01
"METAR","KMSP","2023-03-28T23:39:00Z",0,-5.6,13,260,"OVC",9,"KMSP 282339Z 26013G25KT 9SM OVC022 00/M06 A3018 RMK AO2 PK WND 27034/2256 SNB28E39 P0000 T00001056",2023.03.28-18.55.01
"METAR","KMSP","2023-03-28T23:53:00Z",0,-5.6,13,280,"OVC",10,"KMSP 282353Z 28013G29KT 10SM OVC022 00/M06 A3018 RMK AO2 PK WND 27034/2256 SNB28E39 SLP233 P0000 60000 T00001056 10022 21017 56007",2023.03.28-19.55.01
"METAR","KMSP","2023-03-29T01:44:00Z",-1.7,-6.7,13,290,"BKN",10,"KMSP 290144Z 29013KT 10SM FEW024 BKN032 M02/M07 A3017 RMK AO2 SNE15 P0000 T10171067",2023.03.28-20.55.01
"METAR","KMSP","2023-03-29T01:53:00Z",-2.2,-7.2,15,300,"BKN",10,"KMSP 290153Z 30015KT 10SM FEW024 BKN032 M02/M07 A3017 RMK AO2 SNE15 SLP231 P0000 T10221072",2023.03.28-21.55.01
"METAR","KMSP","2023-03-29T02:53:00Z",-4.4,-10,12,310,"BKN",10,"KMSP 290253Z 31012KT 10SM FEW032 SCT200 BKN250 M04/M10 A3020 RMK AO2 SLP240 60000 T10441100 53007",2023.03.28-22.55.01
"METAR","KMSP","2023-03-29T03:53:00Z",-5,-10.6,15,310,"BKN",10,"KMSP 290353Z 31015KT 10SM FEW021 BKN180 BKN250 M05/M11 A3021 RMK AO2 SLP242 T10501106",2023.03.28-23.55.01
"METAR","KMSP","2023-03-29T04:53:00Z",-6.1,-11.1,11,310,"BKN",10,"KMSP 290453Z 31011KT 10SM FEW021 BKN180 M06/M11 A3022 RMK AO2 SLP247 T10611111",2023.03.29-00.55.02
"METAR","KMSP","2023-03-29T05:53:00Z",-7.8,-12.2,13,310,"BKN",10,"KMSP 290553Z 31013KT 10SM FEW022 BKN120 M08/M12 A3024 RMK AO2 SLP252 60000 T10781122 10000 21078 400221094 53012",2023.03.29-01.55.01
"METAR","KMSP","2023-03-29T06:53:00Z",-8.9,-13.3,12,310,"SCT",10,"KMSP 290653Z 31012KT 10SM FEW022 SCT140 M09/M13 A3026 RMK AO2 SLP260 T10891133",2023.03.29-02.55.01
"METAR","KMSP","2023-03-29T07:53:00Z",-9.4,-13.9,9,310,"FEW",10,"KMSP 290753Z 31009KT 10SM FEW022 M09/M14 A3028 RMK AO2 SLP267 T10941139",2023.03.29-03.55.01
"METAR","KMSP","2023-03-29T08:53:00Z",-10,-15,12,330,"CLR",10,"KMSP 290853Z 33012KT 10SM CLR M10/M15 A3030 RMK AO2 SLP273 T11001150 51020",2023.03.29-04.55.01
"METAR","KMSP","2023-03-29T09:53:00Z",-10.6,-16.1,10,340,"CLR",10,"KMSP 290953Z 34010KT 10SM CLR M11/M16 A3032 RMK AO2 SLP280 T11061161",2023.03.29-05.55.01
"METAR","KMSP","2023-03-29T10:53:00Z",-11.1,-16.1,8,330,"CLR",10,"KMSP 291053Z 33008KT 10SM CLR M11/M16 A3034 RMK AO2 SLP287 T11111161",2023.03.29-06.55.01
"METAR","KMSP","2023-03-29T11:53:00Z",-11.7,-16.1,7,320,"CLR",10,"KMSP 291153Z 32007KT 10SM CLR M12/M16 A3036 RMK AO2 SLP295 T11171161 11078 21117 53021",2023.03.29-07.55.01
"METAR","KMSP","2023-03-29T12:53:00Z",-11.7,-15.6,7,310,"CLR",10,"KMSP 291253Z 31007KT 10SM CLR M12/M16 A3038 RMK AO2 SLP303 T11171156",2023.03.29-08.55.01
"METAR","KMSP","2023-03-29T13:53:00Z",-10,-15,3,330,"CLR",10,"KMSP 291353Z 33003KT 10SM CLR M10/M15 A3038 RMK AO2 SLP304 T11001150",2023.03.29-09.55.01
"METAR","KMSP","2023-03-29T14:53:00Z",-7.8,-15.6,6,330,"CLR",10,"KMSP 291453Z 33006KT 10SM CLR M08/M16 A3040 RMK AO2 SLP310 T10781156 51015",2023.03.29-10.55.01
"METAR","KMSP","2023-03-29T15:53:00Z",-6.7,-16.7,4,350,"CLR",10,"KMSP 291553Z 35004KT 10SM CLR M07/M17 A3041 RMK AO2 SLP312 T10671167",2023.03.29-11.55.01
"METAR","KMSP","2023-03-29T16:53:00Z",-5,-17.8,5,330,"FEW",10,"KMSP 291653Z 33005KT 10SM FEW250 M05/M18 A3039 RMK AO2 SLP306 T10501178",2023.03.29-12.55.01
"METAR","KMSP","2023-03-29T17:53:00Z",-3.3,-17.2,6,10,"FEW",10,"KMSP 291753Z 01006KT 10SM FEW250 M03/M17 A3036 RMK AO2 SLP296 T10331172 11033 21117 58014",2023.03.29-13.55.01
"METAR","KMSP","2023-03-29T18:53:00Z",-3.3,-18.3,3,320,"FEW",10,"KMSP 291853Z 32003KT 10SM FEW250 M03/M18 A3035 RMK AO2 SLP292 T10331183",2023.03.29-14.55.01
"METAR","KMSP","2023-03-29T19:53:00Z",-2.2,-19.4,8,310,"FEW",10,"KMSP 291953Z 31008G16KT 10SM FEW250 M02/M19 A3034 RMK AO2 SLP290 T10221194",2023.03.29-15.55.01
"METAR","KMSP","2023-03-29T20:53:00Z",-1.7,-17.2,8,310,"FEW",10,"KMSP 292053Z 31008KT 10SM FEW250 M02/M17 A3033 RMK AO2 SLP287 T10171172 56009",2023.03.29-16.55.01
"METAR","KMSP","2023-03-29T21:53:00Z",-2.2,-16.1,9,290,"CLR",10,"KMSP 292153Z 29009KT 10SM CLR M02/M16 A3032 RMK AO2 SLP283 T10221161",2023.03.29-17.55.01
"METAR","KMSP","2023-03-29T22:53:00Z",-2.8,-16.1,5,300,"CLR",10,"KMSP 292253Z 30005KT 10SM CLR M03/M16 A3031 RMK AO2 SLP279 T10281161",2023.03.29-18.55.01
"METAR","KMSP","2023-03-29T23:53:00Z",-3.3,-16.1,6,330,"CLR",10,"KMSP 292353Z 33006KT 10SM CLR M03/M16 A3030 RMK AO2 SLP278 T10331161 11017 21039 56010",2023.03.29-19.55.01
"METAR","KMSP","2023-03-30T00:53:00Z",-4.4,-15,7,260,"CLR",10,"KMSP 300053Z 26007KT 10SM CLR M04/M15 A3030 RMK AO2 SLP277 T10441150",2023.03.29-20.55.01
"METAR","KMSP","2023-03-30T01:53:00Z",-5,-13.9,6,250,"CLR",10,"KMSP 300153Z 25006KT 10SM CLR M05/M14 A3030 RMK AO2 SLP276 T10501139",2023.03.29-21.55.01
"METAR","KMSP","2023-03-30T02:53:00Z",-6.1,-14.4,5,270,"CLR",10,"KMSP 300253Z 27005KT 10SM CLR M06/M14 A3031 RMK AO2 SLP278 T10611144 53000",2023.03.29-22.55.01
"METAR","KMSP","2023-03-30T03:53:00Z",-6.7,-14.4,4,280,"CLR",10,"KMSP 300353Z 28004KT 10SM CLR M07/M14 A3030 RMK AO2 SLP276 T10671144",2023.03.29-23.55.01
"METAR","KMSP","2023-03-30T04:53:00Z",-7.2,-15,3,280,"CLR",10,"KMSP 300453Z 28003KT 10SM CLR M07/M15 A3029 RMK AO2 SLP271 T10721150",2023.03.30-00.55.01
"METAR","KMSP","2023-03-30T05:53:00Z",-7.2,-15,3,260,"CLR",10,"KMSP 300553Z 26003KT 10SM CLR M07/M15 A3028 RMK AO2 SLP268 T10721150 11033 21072 410171117 58007",2023.03.30-01.55.01
"METAR","KMSP","2023-03-30T06:53:00Z",-7.8,-14.4,3,230,"FEW",10,"KMSP 300653Z 23003KT 10SM FEW200 M08/M14 A3027 RMK AO2 SLP266 T10781144",2023.03.30-02.55.01
"METAR","KMSP","2023-03-30T07:53:00Z",-7.8,-13.9,0,0,"SCT",10,"KMSP 300753Z 00000KT 10SM SCT220 M08/M14 A3025 RMK AO2 SLP257 T10781139",2023.03.30-03.55.01
"METAR","KMSP","2023-03-30T08:53:00Z",-7.8,-12.8,0,0,"SCT",10,"KMSP 300853Z 00000KT 10SM SCT230 M08/M13 A3024 RMK AO2 SLP254 T10781128 56014",2023.03.30-04.55.01
"METAR","KMSP","2023-03-30T09:53:00Z",-8.3,-12.8,0,0,"SCT",10,"KMSP 300953Z 00000KT 10SM SCT230 M08/M13 A3024 RMK AO2 SLP253 T10831128",2023.03.30-05.55.01
"METAR","KMSP","2023-03-30T10:53:00Z",-7.8,-12.8,5,140,"SCT",10,"KMSP 301053Z 14005KT 10SM SCT230 M08/M13 A3023 RMK AO2 SLP250 T10781128",2023.03.30-06.55.01
"METAR","KMSP","2023-03-30T11:53:00Z",-7.8,-12.2,6,120,"BKN",10,"KMSP 301153Z 12006KT 10SM BKN130 M08/M12 A3021 RMK AO2 SLP245 T10781122 11072 21083 58010",2023.03.30-07.55.01
"METAR","KMSP","2023-03-30T12:53:00Z",-6.7,-12.2,10,130,"OVC",10,"KMSP 301253Z 13010KT 10SM BKN070 OVC100 M07/M12 A3019 RMK AO2 SLP237 T10671122",2023.03.30-08.55.01
"METAR","KMSP","2023-03-30T13:53:00Z",-5,-11.1,9,130,"OVC",10,"KMSP 301353Z 13009KT 10SM FEW070 FEW090 SCT100 OVC250 M05/M11 A3015 RMK AO2 SLP224 T10501111",2023.03.30-09.55.01
"METAR","KMSP","2023-03-30T14:53:00Z",-2.8,-11.1,7,120,"OVC",10,"KMSP 301453Z 12007KT 10SM FEW140 OVC250 M03/M11 A3012 RMK AO2 SLP214 T10281111 58028",2023.03.30-10.55.01
"METAR","KMSP","2023-03-30T15:53:00Z",-1.1,-11.1,8,120,"BKN",10,"KMSP 301553Z 12008KT 10SM FEW085 FEW140 BKN250 M01/M11 A3010 RMK AO2 SLP206 T10111111",2023.03.30-11.55.01
"METAR","KMSP","2023-03-30T16:53:00Z",0.6,-10.6,8,110,"OVC",10,"KMSP 301653Z 11008KT 10SM BKN090 OVC250 01/M11 A3007 RMK AO2 SLP196 T00061106",2023.03.30-12.55.01
"METAR","KMSP","2023-03-30T17:53:00Z",1.1,-9.4,10,110,"OVC",10,"KMSP 301753Z 11010KT 10SM OVC060 01/M09 A3004 RMK AO2 SLP185 VIRGA T00111094 10011 21078 58028",2023.03.30-13.55.01
"METAR","KMSP","2023-03-30T19:18:00Z",1.1,-6.1,12,90,"OVC",6,"KMSP 301918Z 09012KT 6SM -RA OVC045 01/M06 A2996 RMK AO2 RAB13SNB04E13 P0000 T00111061",2023.03.30-14.55.01
"METAR","KMSP","2023-03-30T19:53:00Z",1.1,-4.4,13,80,"OVC",10,"KMSP 301953Z 08013G22KT 10SM FEW046 BKN070 OVC100 01/M04 A2992 RMK AO2 RAB13E42SNB04E13 SLP142 P0000 T00111044",2023.03.30-15.55.01
"METAR","KMSP","2023-03-30T20:53:00Z",2.2,-5,8,120,"BKN",10,"KMSP 302053Z 12008KT 10SM BKN060 BKN095 02/M05 A2992 RMK AO2 PK WND 06026/2005 SLP144 60000 T00221050 55039",2023.03.30-16.55.01
"METAR","KMSP","2023-03-30T21:53:00Z",2.8,-5,11,90,"OVC",10,"KMSP 302153Z 09011KT 10SM BKN048 OVC080 03/M05 A2986 RMK AO2 PK WND 08029/2123 SLP124 T00281050",2023.03.30-17.55.01
"METAR","KMSP","2023-03-30T22:53:00Z",2.8,-3.3,14,100,"OVC",10,"KMSP 302253Z 10014KT 10SM FEW025 OVC036 03/M03 A2985 RMK AO2 SLP119 T00281033",2023.03.30-18.55.01
"METAR","KMSP","2023-03-30T23:53:00Z",2.2,-2.8,9,70,"OVC",10,"KMSP 302353Z 07009KT 10SM OVC043 02/M03 A2984 RMK AO2 SLP118 60000 T00221028 10028 20006 56026",2023.03.30-19.55.01
"METAR","KMSP","2023-03-31T01:49:00Z",2,-2,13,80,"OVC",8,"KMSP 310149Z 08013KT 8SM -RA SCT017 OVC050 02/M02 A2978 RMK AO2 PK WND 07026/0137 RAB41 P0000",2023.03.30-20.55.01
"METAR","KMSP","2023-03-31T01:53:00Z",2.2,-1.7,11,70,"OVC",10,"KMSP 310153Z 07011G19KT 10SM -RA SCT017 OVC050 02/M02 A2978 RMK AO2 PK WND 07026/0137 RAB41 SLP096 P0000 T00221017",2023.03.30-21.55.01
"METAR","KMSP","2023-03-31T02:53:00Z",1.7,-1.7,10,80,"OVC",9,"KMSP 310253Z 08010G25KT 9SM -RA OVC050 02/M02 A2976 RMK AO2 RAE0154B22 SLP087 P0000 60000 T00171017 56020",2023.03.30-22.55.01
"METAR","KMSP","2023-03-31T04:35:00Z",1.7,-0.6,11,60,"OVC",7,"KMSP 310435Z 06011G18KT 7SM -RA OVC043 02/M01 A2971 RMK AO2 LTG DSNT N P0003 T00171006",2023.03.30-23.55.01
"METAR","KMSP","2023-03-31T05:22:00Z",1.1,-1.1,11,60,"OVC",7,"KMSP 310522Z 06011G19KT 7SM -RA BKN013 BKN044 OVC095 01/M01 A2969 RMK AO2 LTG DSNT ALQDS P0000 T00111011",2023.03.31-00.55.01
"METAR","KMSP","2023-03-31T05:53:00Z",1.1,-1.1,12,70,"OVC",6,"KMSP 310553Z 07012G19KT 6SM -RA BR OVC012 01/M01 A2966 RMK AO2 LTG DSNT ALQDS PRESFR SLP051 P0000 60004 T00111011 10028 20011 400281083 58034",2023.03.31-01.55.01
"METAR","KMSP","2023-03-31T07:46:00Z",1.1,-0.6,11,60,"OVC",5,"KMSP 310746Z 06011KT 5SM -RA OVC009 01/M01 A2960 RMK AO2 LTG DSNT S-W RAB038 P0000 T00111006",2023.03.31-02.55.01
"METAR","KMSP","2023-03-31T08:50:00Z",1,0,10,40,"OVC",4,"KMSP 310850Z 04010KT 4SM RA BR BKN007 BKN028 OVC043 01/00 A2960 RMK AO2 LTG DSNT SE TSB13TSE29 P0032",2023.03.31-03.55.01
"METAR","KMSP","2023-03-31T09:46:00Z",1.7,0,11,20,"OVC",10,"KMSP 310946Z 02011KT 10SM OVC008 02/00 A2958 RMK AO2 PK WND 07028/0925 WSHFT 0926 RAE24 P0007 T00170000",2023.03.31-04.55.01
"METAR","KMSP","2023-03-31T10:33:00Z",1.7,0,7,60,"OVC",10,"KMSP 311033Z 06007KT 10SM OVC010 02/00 A2960 RMK AO2 T00170000",2023.03.31-05.55.01
"METAR","KMSP","2023-03-31T11:36:00Z",1.7,0,10,60,"OVC",9,"KMSP 311136Z 06010KT 9SM OVC010 02/00 A2959 RMK AO2 T00170000",2023.03.31-06.55.02
"METAR","KMSP","2023-03-31T12:33:00Z",1.7,0,17,70,"OVC",9,"KMSP 311233Z 07017G28KT 9SM -RA OVC007 02/00 A2947 RMK AO2 PK WND 09028/1217 DZE14RAB14 PRESFR P0000 T00170000",2023.03.31-07.55.01
"METAR","KMSP","2023-03-31T13:33:00Z",2.8,0.6,9,20,"OVC",5,"KMSP 311333Z 02009G21KT 5SM RA BR OVC008 03/01 A2960 RMK AO2 RAB12 P0001 T00280006",2023.03.31-08.55.01
"METAR","KMSP","2023-03-31T13:53:00Z",2.2,0,16,90,"OVC",5,"KMSP 311353Z 09016KT 5SM -RA BR BKN008 OVC070 02/00 A2952 RMK AO2 SLP003 RAB12 P0004 T00220000",2023.03.31-09.55.01
"METAR","KMSP","2023-03-31T14:53:00Z",2.2,0.6,14,60,"OVC",10,"KMSP 311453Z 06014G22KT 10SM -RA OVC008 02/01 A2952 RMK AO2 PK WND 09027/1403 SLP005 RAE22B43 P0001 60005 T00220006 55018",2023.03.31-10.55.01
"METAR","KMSP","2023-03-31T15:53:00Z",2.8,0.6,13,40,"OVC",10,"KMSP 311553Z 04013KT 10SM -RA OVC009 03/01 A2953 RMK AO2 SLP007 RAE01B26 P0000 T00280006",2023.03.31-11.55.01
"METAR","KMSP","2023-03-31T16:53:00Z",2.8,1.1,11,50,"OVC",10,"KMSP 311653Z 05011G23KT 10SM OVC009 03/01 A2952 RMK AO2 PK WND 05028/1630 SLP003 RAE1555B24E36 P0000 T00280011",2023.03.31-12.55.01
"METAR","KMSP","2023-03-31T18:27:00Z",3.3,1.1,14,60,"OVC",10,"KMSP 311827Z 06014G24KT 10SM OVC010 03/01 A2950 RMK AO2 PK WND 04026/1800 T00330011",2023.03.31-13.55.01
"METAR","KMSP","2023-03-31T18:53:00Z",3.3,0.6,18,50,"OVC",10,"KMSP 311853Z 05018G25KT 10SM OVC010 03/01 A2949 RMK AO2 PK WND 03032/1837 SLP993 T00330006",2023.03.31-14.55.01
"METAR","KMSP","2023-03-31T20:44:00Z",2.8,0.6,16,50,"OVC",10,"KMSP 312044Z COR 05016G31KT 10SM -RA OVC009 03/01 A2941 RMK AO2 PK WND 08032/2034 LTG DSNT E RAB30 T00280006 PNO $",2023.03.31-15.55.01
"METAR","KMSP","2023-03-31T21:35:00Z",2.8,0.6,16,50,"OVC",5,"KMSP 312135Z 05016G28KT 5SM VCTS -RA BR OVC009CB 03/01 A2935 RMK AO2 PK WND 04031/2115 LTG DSNT W VCTS W-N MOV N RAB30 P0003 T00280006",2023.03.31-16.55.01
"METAR","KMSP","2023-03-31T22:37:00Z",2.2,0.6,13,40,"OVC",1.25,"KMSP 312237Z 04013G26KT 1 1/4SM -RA BR OVC008 02/01 A2932 RMK AO2 PK WND 06034/2213 TWR VIS 2 LTG DSNT ALQDS PRESFR P0001 T00220006",2023.03.31-17.55.01
"METAR","KMSP","2023-03-31T23:46:00Z",2.2,0.6,10,40,"OVC",6,"KMSP 312346Z 04010G17KT 6SM VCTS -RA BR SCT009 OVC012CB 02/01 A2941 RMK AO2 PK WND 04029/2254 LTG DSNT ALQDS PLB27E31 PRESRR VCTS ALQDS MOV N P0008 T00220006",2023.03.31-18.55.01
"METAR","KMSP","2023-04-01T00:32:00Z",1.7,0,11,20,"OVC",7,"KMSP 010032Z 02011KT 7SM -PLRASN BKN013 OVC019 02/00 A2941 RMK AO2 PLB15SNB32 P0005 T00170000 $",2023.03.31-19.55.01
"METAR","KMSP","2023-04-01T01:32:00Z",1.1,-0.6,13,60,"OVX",1,"KMSP 010132Z 06013G24KT 1SM R30L/6000VP6000FT -SN BR VV007 01/M01 A2936 RMK AO2 TWR VIS 2 RAE0058PLE0055 P0008 T00111006 $",2023.03.31-20.55.01
"METAR","KMSP","2023-04-01T02:35:00Z",0.6,-0.6,12,30,"OVX",0.75,"KMSP 010235Z 03012G19KT 3/4SM R30L/5500VP6000FT -SN BR VV007 01/M01 A2936 RMK AO2 P0014 T00061006 $",2023.03.31-21.55.01
"METAR","KMSP","2023-04-01T03:41:00Z",0.6,-0.6,13,10,"OVX",1,"KMSP 010341Z 01013KT 1SM R30L/5500VP6000FT -SN BR VV005 01/M01 A2935 RMK AO2 P0016 T00061006 $",2023.03.31-22.55.01
"METAR","KMSP","2023-04-01T04:15:00Z",0.6,-0.6,18,20,"OVX",0.5,"KMSP 010415Z 02018G31KT 1/2SM R30L/5500VP6000FT SN FG VV007 01/M01 A2935 RMK AO2 PK WND 04031/0410 P0003 T00061006 $",2023.03.31-23.55.01
"METAR","KMSP","2023-04-01T05:20:00Z",0,0,16,10,"OVX",0.25,"KMSP 010520Z 01016G24KT 1/4SM R30L/3000VP6000FT +SN FG VV004 00/00 A2941 RMK AO2 P0005 T00000000 $",2023.04.01-00.55.01
"METAR","KMSP","2023-04-01T06:13:00Z",-0.6,-1.1,15,10,"OVX",0.25,"KMSP 010613Z 01015G25KT 1/4SM R30L/4000V5500FT +SN VV005 M01/M01 A2943 RMK AO2 PK WND 01026/0601 P0003 T10061011 $",2023.04.01-01.55.01
"METAR","KMSP","2023-04-01T07:31:00Z",-1.1,-1.7,20,10,"OVC",0.5,"KMSP 010731Z 01020G27KT 1/2SM R30L/P6000FT -SN BKN011 OVC016 M01/M02 A2947 RMK AO2 PK WND 01033/0706 P0002 T10111017 $",2023.04.01-02.55.01
"METAR","KMSP","2023-04-01T07:53:00Z",-1.1,-1.7,16,360,"OVC",0.25,"KMSP 010753Z COR 36016G28KT 1/4SM SN R30L/5500VP6000FT BKN009 OVC013 M01/M02 A2948 RMK AO2 PK WND 01033/0706 SLP991 P0002 T10111017 $",2023.04.01-03.55.01
"METAR","KMSP","2023-04-01T09:48:00Z",-2,-3,17,10,"OVX",0.5,"KMSP 010948Z 01017G27KT 1/2SM R30L/6000VP6000FT SN VV009 M02/M03 A2958 RMK AO2 PK WND 35031/0922 P0002 $",2023.04.01-04.55.01
"METAR","KMSP","2023-04-01T10:22:00Z",-1.7,-5,17,350,"OVC",6,"KMSP 011022Z 35017G26KT 6SM HZ SCT016 OVC035 M02/M05 A2961 RMK AO2 PK WND 01026/1022 SNE16 P0001 T10171050 $",2023.04.01-05.55.01
"METAR","KMSP","2023-04-01T10:53:00Z",-2.2,-6.7,21,360,"SCT",10,"KMSP 011053Z 36021G34KT 10SM FEW047 SCT075 SCT200 M02/M07 A2965 RMK AO2 PK WND 35034/1052 SNE16 PRESRR SLP050 P0001 T10221067 $",2023.04.01-06.55.01
"METAR","KMSP","2023-04-01T11:53:00Z",-3.3,-8.3,17,350,"SCT",10,"KMSP 011153Z 35017G27KT 10SM FEW075 SCT200 M03/M08 A2972 RMK AO2 PK WND 35032/1102 PRESRR SLP075 4/008 60015 70114 T10331083 11006 21033 53047 $",2023.04.01-07.55.01
"METAR","KMSP","2023-04-01T12:53:00Z",-3.9,-9.4,16,350,"SCT",10,"KMSP 011253Z 35016G25KT 10SM FEW075 SCT200 M04/M09 A2979 RMK AO2 PK WND 36028/1207 SLP100 T10391094 $",2023.04.01-08.55.01
"METAR","KMSP","2023-04-01T13:53:00Z",-3.3,-8.9,16,350,"FEW",10,"KMSP 011353Z 35016G24KT 10SM FEW250 M03/M09 A2985 RMK AO2 PK WND 35027/1317 SLP120 T10331089 $",2023.04.01-09.55.02
"METAR","KMSP","2023-04-01T14:53:00Z",-2.2,-8.9,9,350,"FEW",9,"KMSP 011453Z 35009G20KT 9SM FEW250 M02/M09 A2991 RMK AO2 SLP137 T10221089 51060 $",2023.04.01-10.55.02
"METAR","KMSP","2023-04-01T15:53:00Z",-1.1,-8.3,13,350,"FEW",10,"KMSP 011553Z 35013KT 10SM FEW250 M01/M08 A2995 RMK AO2 SLP151 T10111083 $",2023.04.01-11.55.01
"METAR","KMSP","2023-04-01T16:53:00Z",0,-7.2,8,340,"FEW",10,"KMSP 011653Z 34008G18KT 270V360 10SM FEW250 00/M07 A2998 RMK AO2 SLP163 T00001072 $",2023.04.01-12.55.01
"METAR","KMSP","2023-04-01T17:53:00Z",1.1,-7.2,8,330,"FEW",10,"KMSP 011753Z 33008KT 10SM FEW250 01/M07 A2999 RMK AO2 SLP166 4/008 60000 T00111072 10011 21039 51029 $",2023.04.01-13.55.01
"METAR","KMSP","2023-04-01T18:53:00Z",2.2,-6.1,6,320,"FEW",10,"KMSP 011853Z 32006KT 10SM FEW250 02/M06 A3002 RMK AO2 SLP173 T00221061 $",2023.04.01-14.55.01
"METAR","KMSP","2023-04-01T19:53:00Z",3.3,-7.2,5,330,"CLR",10,"KMSP 011953Z 33005KT 10SM CLR 03/M07 A3001 RMK AO2 SLP171 T00331072",2023.04.01-15.55.01
"METAR","KMSP","2023-04-01T20:53:00Z",4.4,-7.8,3,320,"CLR",10,"KMSP 012053Z 32003KT 10SM CLR 04/M08 A3003 RMK AO2 SLP179 T00441078 52013",2023.04.01-16.55.01
"METAR","KMSP","2023-04-01T21:53:00Z",3.9,-7.2,6,240,"CLR",10,"KMSP 012153Z 24006KT 10SM CLR 04/M07 A3004 RMK AO2 SLP181 T00391072",2023.04.01-17.55.01
"METAR","KMSP","2023-04-01T22:53:00Z",2.8,-5.6,6,240,"CLR",10,"KMSP 012253Z 24006KT 10SM CLR 03/M06 A3003 RMK AO2 SLP179 T00281056",2023.04.01-18.55.01
"METAR","KMSP","2023-04-01T23:53:00Z",2.2,-6.1,5,220,"FEW",10,"KMSP 012353Z 22005KT 10SM FEW250 02/M06 A3003 RMK AO2 SLP178 4/006 T00221061 10050 20011 58002",2023.04.01-19.55.01
"METAR","KMSP","2023-04-02T00:53:00Z",1.7,-6.1,4,210,"FEW",10,"KMSP 020053Z 21004KT 10SM FEW220 FEW250 02/M06 A3001 RMK AO2 SLP174 T00171061",2023.04.01-20.55.01
"METAR","KMSP","2023-04-02T01:53:00Z",0,-6.1,6,230,"FEW",10,"KMSP 020153Z 23006KT 10SM FEW220 FEW250 00/M06 A3003 RMK AO2 SLP180 T00001061",2023.04.01-21.55.01
"METAR","KMSP","2023-04-02T02:53:00Z",-1.1,-6.1,4,220,"FEW",10,"KMSP 020253Z 22004KT 10SM FEW250 M01/M06 A3003 RMK AO2 SLP180 T10111061 53001",2023.04.01-22.55.01
"METAR","KMSP","2023-04-02T03:53:00Z",-1.7,-6.1,4,180,"FEW",10,"KMSP 020353Z 18004KT 10SM FEW250 M02/M06 A3001 RMK AO2 SLP175 T10171061",2023.04.01-23.55.01
"METAR","KMSP","2023-04-02T04:53:00Z",-2.2,-6.1,5,140,"CLR",10,"KMSP 020453Z 14005KT 10SM CLR M02/M06 A2999 RMK AO2 SLP166 T10221061",2023.04.02-00.55.01
"METAR","KMSP","2023-04-02T05:53:00Z",-3.3,-6.1,5,140,"CLR",10,"KMSP 020553Z 14005KT 10SM CLR M03/M06 A2996 RMK AO2 SLP157 4/006 T10331061 10022 21033 400501039 58022",2023.04.02-01.55.01
"METAR","KMSP","2023-04-02T06:53:00Z",-3.9,-6.1,4,140,"CLR",10,"KMSP 020653Z 14004KT 10SM CLR M04/M06 A2994 RMK AO2 SLP147 T10391061",2023.04.02-02.55.02
"METAR","KMSP","2023-04-02T07:53:00Z",-3.3,-6.1,7,160,"CLR",10,"KMSP 020753Z 16007KT 10SM CLR M03/M06 A2990 RMK AO2 SLP136 T10331061",2023.04.02-03.55.01
"METAR","KMSP","2023-04-02T08:53:00Z",-2.8,-6.1,7,150,"OVC",10,"KMSP 020853Z 15007KT 10SM OVC110 M03/M06 A2989 RMK AO2 SLP131 T10281061 56023",2023.04.02-04.55.01
"METAR","KMSP","2023-04-02T09:53:00Z",-2.2,-5,5,130,"OVC",10,"KMSP 020953Z 13005KT 10SM OVC095 M02/M05 A2986 RMK AO2 SLP119 T10221050",2023.04.02-05.55.02
"METAR","KMSP","2023-04-02T10:53:00Z",-1.1,-4.4,8,140,"OVC",10,"KMSP 021053Z 14008KT 10SM OVC060 M01/M04 A2981 RMK AO2 SLP105 T10111044",2023.04.02-06.55.01
"METAR","KMSP","2023-04-02T12:26:00Z",1.1,-2.8,14,140,"OVC",10,"KMSP 021226Z 14014G27KT 10SM BKN055 OVC070 01/M03 A2975 RMK AO2 PK WND 13027/1217 T00111028",2023.04.02-07.55.01
"METAR","KMSP","2023-04-02T12:53:00Z",2.2,-3.3,17,150,"OVC",10,"KMSP 021253Z 15017G27KT 10SM FEW055 SCT070 OVC090 02/M03 A2972 RMK AO2 PK WND 14030/1227 SLP072 T00221033",2023.04.02-08.55.01
"METAR","KMSP","2023-04-02T13:53:00Z",2.8,-2.8,15,140,"OVC",10,"KMSP 021353Z 14015KT 10SM FEW055 BKN110 OVC250 03/M03 A2967 RMK AO2 PK WND 14031/1343 SLP056 T00281028",2023.04.02-09.55.01
"METAR","KMSP","2023-04-02T14:53:00Z",3.9,-3.3,12,170,"BKN",10,"KMSP 021453Z 17012G23KT 10SM SCT110 BKN250 04/M03 A2965 RMK AO2 PK WND 14029/1400 SLP050 T00391033 56047",2023.04.02-10.55.01
"METAR","KMSP","2023-04-02T15:53:00Z",5,-2.8,12,170,"BKN",10,"KMSP 021553Z 17012KT 10SM SCT110 BKN250 05/M03 A2963 RMK AO2 SLP042 T00501028",2023.04.02-11.55.01
"METAR","KMSP","2023-04-02T16:53:00Z",6.7,-2.8,11,180,"BKN",10,"KMSP 021653Z 18011KT 10SM FEW110 BKN250 07/M03 A2961 RMK AO2 SLP033 T00671028",2023.04.02-12.55.01
"METAR","KMSP","2023-04-02T17:53:00Z",8.9,-2.2,13,200,"BKN",10,"KMSP 021753Z 20013G29KT 10SM FEW110 BKN250 09/M02 A2958 RMK AO2 PK WND 19029/1744 SLP024 4/006 T00891022 10089 20000 58024",2023.04.02-13.55.02
"METAR","KMSP","2023-04-02T18:53:00Z",10,-1.1,12,200,"BKN",10,"KMSP 021853Z 20012G21KT 10SM FEW100 BKN210 10/M01 A2956 RMK AO2 SLP017 T01001011",2023.04.02-14.55.02
"METAR","KMSP","2023-04-02T19:53:00Z",10.6,0,15,240,"SCT",10,"KMSP 021953Z 24015G31KT 10SM SCT210 11/00 A2955 RMK AO2 PK WND 25031/1933 SLP014 T01060000",2023.04.02-15.55.01
"METAR","KMSP","2023-04-02T20:53:00Z",8.9,-0.6,15,240,"SCT",10,"KMSP 022053Z 24015G29KT 10SM SCT210 09/M01 A2958 RMK AO2 PK WND 27034/2030 SLP022 T00891006 55001",2023.04.02-16.55.01
"METAR","KMSP","2023-04-02T21:53:00Z",7.8,-0.6,14,260,"FEW",10,"KMSP 022153Z 26014G28KT 10SM FEW200 08/M01 A2959 RMK AO2 PK WND 26028/2147 SLP026 T00781006",2023.04.02-17.55.01
"METAR","KMSP","2023-04-02T22:53:00Z",7.8,-0.6,13,280,"FEW",10,"KMSP 022253Z 28013KT 10SM FEW200 08/M01 A2961 RMK AO2 PK WND 25029/2206 SLP032 T00781006",2023.04.02-18.55.01
"METAR","KMSP","2023-04-02T23:53:00Z",6.7,-0.6,11,260,"FEW",10,"KMSP 022353Z 26011KT 10SM FEW200 07/M01 A2964 RMK AO2 PK WND 27026/2258 SLP044 4/002 T00671006 10106 20067 53022",2023.04.02-19.55.01
"METAR","KMSP","2023-04-03T00:53:00Z",5.6,-0.6,9,250,"FEW",10,"KMSP 030053Z 25009KT 10SM FEW200 06/M01 A2968 RMK AO2 SLP056 T00561006",2023.04.02-20.55.01
"METAR","KMSP","2023-04-03T01:53:00Z",3.9,-0.6,6,240,"FEW",10,"KMSP 030153Z 24006KT 10SM FEW200 04/M01 A2970 RMK AO2 SLP064 T00391006",2023.04.02-21.55.01
"METAR","KMSP","2023-04-03T02:53:00Z",2.8,-0.6,8,230,"FEW",10,"KMSP 030253Z 23008KT 10SM FEW200 03/M01 A2971 RMK AO2 SLP067 T00281006 51022",2023.04.02-22.55.01
"METAR","KMSP","2023-04-03T03:53:00Z",2.8,-1.1,8,230,"FEW",10,"KMSP 030353Z 23008KT 10SM FEW200 03/M01 A2971 RMK AO2 SLP068 T00281011",2023.04.02-23.55.01
"METAR","KMSP","2023-04-03T04:53:00Z",2.8,-1.1,7,230,"FEW",10,"KMSP 030453Z 23007KT 10SM FEW200 03/M01 A2971 RMK AO2 SLP066 T00281011",2023.04.03-00.55.01
"METAR","KMSP","2023-04-03T05:53:00Z",2.2,-1.7,7,230,"FEW",10,"KMSP 030553Z 23007KT 10SM FEW200 02/M02 A2970 RMK AO2 SLP061 4/002 T00221017 10067 20022 401061039 58004",2023.04.03-01.55.01
"METAR","KMSP","2023-04-03T06:53:00Z",2.2,-1.7,9,230,"SCT",10,"KMSP 030653Z 23009KT 10SM SCT160 02/M02 A2970 RMK AO2 SLP063 T00221017",2023.04.03-02.55.01
"METAR","KMSP","2023-04-03T07:53:00Z",1.7,-2.2,7,230,"SCT",10,"KMSP 030753Z 23007KT 10SM SCT160 02/M02 A2970 RMK AO2 SLP063 T00171022 $",2023.04.03-03.55.01
"METAR","KMSP","2023-04-03T08:53:00Z",2.2,-2.2,9,230,"FEW",10,"KMSP 030853Z 23009KT 10SM FEW160 02/M02 A2969 RMK AO2 SLP059 T00221022 58003 $",2023.04.03-04.55.01
"METAR","KMSP","2023-04-03T09:53:00Z",2.2,-2.2,9,240,"FEW",10,"KMSP 030953Z 24009KT 10SM FEW160 02/M02 A2970 RMK AO2 SLP062 T00221022 $",2023.04.03-05.55.01
"METAR","KMSP","2023-04-03T10:53:00Z",1.7,-2.8,7,240,"FEW",10,"KMSP 031053Z 24007KT 10SM FEW160 02/M03 A2971 RMK AO2 SLP068 T00171028 $",2023.04.03-06.55.01
"METAR","KMSP","2023-04-03T11:53:00Z",2.2,-2.8,6,240,"SCT",10,"KMSP 031153Z 24006KT 10SM SCT190 02/M03 A2974 RMK AO2 SLP078 4/002 T00221028 10022 20017 53018",2023.04.03-07.55.01
"METAR","KMSP","2023-04-03T12:53:00Z",1.7,-2.8,7,280,"BKN",10,"KMSP 031253Z 28007KT 10SM BKN180 BKN250 02/M03 A2976 RMK AO2 SLP083 T00171028",2023.04.03-08.55.01
"METAR","KMSP","2023-04-03T13:53:00Z",2.8,-2.8,8,300,"BKN",10,"KMSP 031353Z 30008KT 10SM FEW150 SCT180 BKN250 03/M03 A2978 RMK AO2 SLP090 T00281028",2023.04.03-09.55.01
"METAR","KMSP","2023-04-03T14:53:00Z",3.3,-2.2,13,310,"OVC",10,"KMSP 031453Z 31013KT 10SM BKN150 OVC180 03/M02 A2978 RMK AO2 SLP091 T00331022 51012",2023.04.03-10.55.02
"METAR","KMSP","2023-04-03T15:53:00Z",4.4,-2.2,7,300,"OVC",10,"KMSP 031553Z 30007KT 10SM BKN140 OVC180 04/M02 A2980 RMK AO2 SLP098 T00441022",2023.04.03-11.55.01
"METAR","KMSP","2023-04-03T16:53:00Z",5,-2.8,7,290,"OVC",10,"KMSP 031653Z 29007KT 10SM BKN140 OVC250 05/M03 A2982 RMK AO2 SLP105 T00501028",2023.04.03-12.55.01
"METAR","KMSP","2023-04-03T17:53:00Z",6.1,-2.2,7,270,"BKN",10,"KMSP 031753Z 27007KT 10SM FEW030 SCT140 BKN250 06/M02 A2983 RMK AO2 SLP109 4/001 T00611022 10061 20017 51018",2023.04.03-13.55.01
"METAR","KMSP","2023-04-03T18:53:00Z",6.1,-2.2,6,290,"BKN",10,"KMSP 031853Z 29006KT 10SM FEW035 SCT140 BKN250 06/M02 A2984 RMK AO2 SLP111 T00611022",2023.04.03-14.55.01
"METAR","KMSP","2023-04-03T19:53:00Z",6.1,-2.2,7,290,"BKN",10,"KMSP 031953Z 29007KT 10SM FEW035 SCT130 BKN250 06/M02 A2984 RMK AO2 SLP111 T00611022",2023.04.03-15.55.01
"METAR","KMSP","2023-04-03T20:53:00Z",6.7,-2.8,8,300,"BKN",10,"KMSP 032053Z 30008KT 10SM SCT120 BKN250 07/M03 A2984 RMK AO2 SLP110 T00671028 50001",2023.04.03-16.55.01
"METAR","KMSP","2023-04-03T21:53:00Z",5.6,-2.2,8,280,"BKN",10,"KMSP 032153Z 28008KT 10SM BKN110 BKN250 06/M02 A2985 RMK AO2 SLP114 T00561022",2023.04.03-17.55.01
"METAR","KMSP","2023-04-03T22:53:00Z",5,-2.2,7,290,"OVC",10,"KMSP 032253Z 29007KT 10SM BKN100 OVC250 05/M02 A2985 RMK AO2 SLP114 VIRGA T00501022",2023.04.03-18.55.01
"METAR","KMSP","2023-04-03T23:53:00Z",5,-2.2,8,320,"BKN",10,"KMSP 032353Z 32008KT 10SM SCT100 BKN120 BKN250 05/M02 A2986 RMK AO2 SLP119 T00501022 10067 20044 53008",2023.04.03-19.55.01
"METAR","KMSP","2023-04-04T00:53:00Z",3.3,-2.2,5,310,"BKN",10,"KMSP 040053Z 31005KT 10SM BKN120 BKN250 03/M02 A2987 RMK AO2 SLP123 T00331022",2023.04.03-20.55.01
"METAR","KMSP","2023-04-04T01:53:00Z",3.3,-2.2,6,330,"OVC",10,"KMSP 040153Z 33006KT 10SM BKN100 BKN120 OVC250 03/M02 A2989 RMK AO2 SLP127 VIRGA T00331022",2023.04.03-21.55.01
"METAR","KMSP","2023-04-04T02:53:00Z",3.3,-2.2,7,350,"OVC",10,"KMSP 040253Z 35007KT 10SM FEW080 OVC120 03/M02 A2990 RMK AO2 SLP131 T00331022 51012",2023.04.03-22.55.01
"METAR","KMSP","2023-04-04T03:53:00Z",3.3,-2.8,5,350,"OVC",10,"KMSP 040353Z 35005KT 10SM OVC090 03/M03 A2992 RMK AO2 SLP138 T00331028",2023.04.03-23.55.01
"METAR","KMSP","2023-04-04T04:53:00Z",2.8,-2.8,7,350,"OVC",10,"KMSP 040453Z 35007KT 10SM OVC090 03/M03 A2993 RMK AO2 SLP143 T00281028",2023.04.04-00.55.01
"METAR","KMSP","2023-04-04T05:53:00Z",2.8,-2.8,5,30,"OVC",10,"KMSP 040553Z 03005KT 10SM OVC110 03/M03 A2990 RMK AO2 SLP134 T00281028 10044 20028 400670017 50003",2023.04.04-01.55.01
"METAR","KMSP","2023-04-04T06:53:00Z",1.7,-3.3,6,10,"SCT",10,"KMSP 040653Z 01006KT 10SM SCT130 02/M03 A2990 RMK AO2 SLP133 T00171033",2023.04.04-02.55.01
"METAR","KMSP","2023-04-04T07:53:00Z",1.1,-3.3,6,40,"SCT",10,"KMSP 040753Z 04006KT 10SM FEW035 SCT130 01/M03 A2986 RMK AO2 SLP119 T00111033",2023.04.04-03.55.01
"METAR","KMSP","2023-04-04T08:53:00Z",1.1,-2.8,7,50,"SCT",10,"KMSP 040853Z 05007KT 10SM FEW035 SCT130 01/M03 A2984 RMK AO2 SLP112 T00111028 58021",2023.04.04-04.55.01
"METAR","KMSP","2023-04-04T09:53:00Z",1.7,-2.2,8,40,"OVC",10,"KMSP 040953Z 04008KT 10SM OVC070 02/M02 A2985 RMK AO2 SLP114 T00171022",2023.04.04-05.55.01
"METAR","KMSP","2023-04-04T10:53:00Z",1.7,-2.2,10,40,"OVC",10,"KMSP 041053Z 04010KT 10SM OVC070 02/M02 A2986 RMK AO2 SLP120 T00171022",2023.04.04-06.55.01
"METAR","KMSP","2023-04-04T11:53:00Z",1.1,-2.2,11,40,"OVC",10,"KMSP 041153Z 04011KT 10SM FEW025 OVC070 01/M02 A2984 RMK AO2 SLP110 T00111022 10028 20011 58002",2023.04.04-07.55.01
"METAR","KMSP","2023-04-04T13:36:00Z",1.7,-2.2,12,70,"OVC",10,"KMSP 041336Z 07012G20KT 10SM SCT018 OVC070 02/M02 A2987 RMK AO2 PK WND 08027/1308 PRESRR T00171022",2023.04.04-08.55.01
"METAR","KMSP","2023-04-04T14:09:00Z",2.2,-2.2,16,60,"OVC",10,"KMSP 041409Z 06016G33KT 10SM OVC070 02/M02 A2981 RMK AO2 PK WND 05033/1407 PRESFR T00221022",2023.04.04-09.55.01
"METAR","KMSP","2023-04-04T15:34:00Z",2.2,-2.2,14,60,"OVC",9,"KMSP 041534Z 06014G25KT 9SM OVC065 02/M02 A2976 RMK AO2 PK WND 06033/1518 SNB22E33 P0000 T00221022",2023.04.04-10.55.01
"METAR","KMSP","2023-04-04T16:23:00Z",2.8,-1.7,17,70,"OVC",9,"KMSP 041623Z 07017G30KT 9SM OVC065 03/M02 A2975 RMK AO2 PK WND 09039/1613 SNB10E21 P0000 T00281017",2023.04.04-11.55.01
"METAR","KMSP","2023-04-04T17:47:00Z",2,-2,18,70,"OVC",9,"KMSP 041747Z 07018G33KT 9SM -RA BKN024 OVC029 02/M02 A2968 RMK AO2 PK WND 05034/1729 LTG DSNT W RAB15PLB15E25B43E47 PRESFR PNO $",2023.04.04-12.55.01
"METAR","KMSP","2023-04-04T17:53:00Z",2.2,-1.7,18,80,"OVC",10,"KMSP 041753Z 08018G33KT 10SM -RA BKN024 OVC029 02/M02 A2967 RMK AO2 PK WND 05034/1729 RAB15PLB15E25B43E47 PRESFR SLP053 P0001 60001 T00221017 10033 20011 58044 $",2023.04.04-13.55.01
"METAR","KMSP","2023-04-04T19:40:00Z",1.7,0,16,70,"OVC",4,"KMSP 041940Z 07016G28KT 4SM -DZ BR BKN010 OVC016 02/00 A2964 RMK AO2 PK WND 08033/1903 RAE33DZB33 P0002 T00170000",2023.04.04-14.55.01
"METAR","KMSP","2023-04-04T20:15:00Z",2.2,0.6,14,70,"OVC",5,"KMSP 042015Z 07014G24KT 5SM -DZ BR OVC009 02/01 A2964 RMK AO2 RAE02DZB02 P0001 T00220006",2023.04.04-15.55.01
"METAR","KMSP","2023-04-04T20:53:00Z",2.2,0.6,14,70,"OVC",2.5,"KMSP 042053Z 07014KT 2 1/2SM -DZ BR OVC009 02/01 A2962 RMK AO2 RAE02B24E49DZB02E24B49 SLP037 P0001 60004 T00220006 58016",2023.04.04-16.55.01
"METAR","KMSP","2023-04-04T21:53:00Z",2.2,1.1,15,80,"OVC",2,"KMSP 042153Z 08015G29KT 2SM -DZ BR OVC009 02/01 A2959 RMK AO2 PK WND 08029/2153 SFC VIS 2 1/2 SLP027 P0001 T00220011",2023.04.04-17.55.01
"METAR","KMSP","2023-04-04T23:38:00Z",2.2,1.1,13,80,"OVC",3,"KMSP 042338Z 08013G22KT 3SM -DZ BR OVC007 02/01 A2954 RMK AO2 PK WND 07028/2303 SFC VIS 4 P0000 T00220011",2023.04.04-18.55.01
"METAR","KMSP","2023-04-04T23:53:00Z",2.2,1.1,15,70,"OVC",3,"KMSP 042353Z 07015G27KT 3SM -DZ BR OVC007 02/01 A2953 RMK AO2 PK WND 07034/2343 SFC VIS 4 SLP009 P0000 60005 T00220011 10028 20017 56027",2023.04.04-19.55.01
"METAR","KMSP","2023-04-05T01:51:00Z",2,1,13,80,"OVC",2.5,"KMSP 050151Z 08013G26KT 2 1/2SM -DZ BR OVC007 02/01 A2952 RMK AO2 PK WND 08026/0148 FRQ LTGICCG DSNT S CB DSNT S MOV NE P0000",2023.04.04-20.55.01
"METAR","KMSP","2023-04-05T02:28:00Z",2.8,1.1,13,70,"OVC",10,"KMSP 050228Z 07013G20KT 10SM -TSRA OVC007CB 03/01 A2951 RMK AO2 DZE03RAB28 TSB28 OCNL LTGIC E TS E MOV NE P0000 T00280011",2023.04.04-21.55.01
"METAR","KMSP","2023-04-05T02:53:00Z",2.8,1.1,13,70,"OVC",10,"KMSP 050253Z 07013G22KT 10SM OVC007 03/01 A2950 RMK AO2 PK WND 11029/0237 LTG DSNT E DZE03RAB28E44 TSB28E51 SLP997 OCNL LTGIC DSNT NE TS MOV NE CB DSNT NE MOV NE P0000 60000 T00280011 56016",2023.04.04-22.55.01
"METAR","KMSP","2023-04-05T03:53:00Z",2.2,1.1,15,70,"OVC",10,"KMSP 050353Z 07015G20KT 10SM OVC008 02/01 A2948 RMK AO2 PRESFR SLP989 T00220011",2023.04.04-23.55.01
"METAR","KMSP","2023-04-05T04:53:00Z",2.2,1.1,null,null,"OVC",9,"KMSP 050453Z 9SM -DZ OVC007 02/01 A2943 RMK AO2 PK WND 07030/0400 PRESFR SLP974 DZB29 P0000 T00220011",2023.04.05-00.55.01
"METAR","KMSP","2023-04-05T05:53:00Z",2.8,1.7,7,50,"OVC",10,"KMSP 050553Z 05007KT 10SM OVC008 03/02 A2946 RMK AO2 DZE26 SLP983 P0000 60000 T00280017 10028 20022 400330011 55014",2023.04.05-01.55.01
"METAR","KMSP","2023-04-05T07:49:00Z",2,2,6,30,"OVC",4,"KMSP 050749Z 03006KT 4SM -DZ BR SCT004 OVC012 02/02 A2942 RMK AO2 P0001",2023.04.05-02.55.01
"METAR","KMSP","2023-04-05T08:00:00Z",2.2,1.7,3,0,"OVC",4,"KMSP 050800Z VRB03KT 4SM -DZ BR BKN005 OVC011 02/02 A2942 RMK AO2 P0000 T00220017",2023.04.05-03.55.01
"METAR","KMSP","2023-04-05T09:46:00Z",2.2,1.7,0,0,"OVC",2.5,"KMSP 050946Z 00000KT 2 1/2SM -DZ BR OVC005 02/02 A2945 RMK AO2 PRESRR P0000 T00220017",2023.04.05-04.55.01
"METAR","KMSP","2023-04-05T10:23:00Z",2.2,1.7,3,170,"OVC",1.75,"KMSP 051023Z 17003KT 1 3/4SM -DZ BR OVC004 02/02 A2944 RMK AO2 P0000 T00220017",2023.04.05-05.55.01
"METAR","KMSP","2023-04-05T11:43:00Z",2.2,1.1,9,240,"OVC",2.5,"KMSP 051143Z 24009KT 2 1/2SM -DZ BR OVC002 02/01 A2948 RMK AO2 P0000 T00220011",2023.04.05-06.55.01
"METAR","KMSP","2023-04-05T12:44:00Z",1.1,0,11,270,"OVC",10,"KMSP 051244Z 27011G26KT 10SM OVC010 01/00 A2947 RMK AO2 PK WND 26031/1222 DZE36 P0000 T00110000",2023.04.05-07.55.01
"METAR","KMSP","2023-04-05T12:53:00Z",1.1,0,12,270,"OVC",10,"KMSP 051253Z 27012G18KT 10SM OVC010 01/00 A2947 RMK AO2 PK WND 26031/1222 DZE36 SLP986 P0000 T00110000",2023.04.05-08.55.01
"METAR","KMSP","2023-04-05T14:25:00Z",-1.1,-4.4,21,270,"OVC",10,"KMSP 051425Z 27021G34KT 10SM OVC017 M01/M04 A2953 RMK AO2 PK WND 26037/1356 T10111044",2023.04.05-09.55.01
"METAR","KMSP","2023-04-05T14:53:00Z",-1.1,-5,12,270,"OVC",10,"KMSP 051453Z 27012G30KT 10SM OVC017 M01/M05 A2955 RMK AO2 PK WND 27037/1426 SLP014 60000 T10111050 53027",2023.04.05-10.55.01
"METAR","KMSP","2023-04-05T15:53:00Z",-1.1,-6.1,20,270,"OVC",10,"KMSP 051553Z 27020G36KT 10SM OVC021 M01/M06 A2959 RMK AO2 PK WND 26039/1535 SLP029 T10111061",2023.04.05-11.55.01
"METAR","KMSP","2023-04-05T16:53:00Z",-1.7,-6.7,16,250,"OVC",10,"KMSP 051653Z 25016G37KT 10SM OVC021 M02/M07 A2963 RMK AO2 PK WND 27038/1614 SLP041 T10171067",2023.04.05-12.55.01
"METAR","KMSP","2023-04-05T18:28:00Z",-1.7,-8.9,24,260,"OVC",10,"KMSP 051828Z 26024G40KT 10SM OVC028 M02/M09 A2968 RMK AO2 PK WND 27041/1818 T10171089",2023.04.05-13.55.01
"METAR","KMSP","2023-04-05T19:07:00Z",-1.1,-8.9,24,280,"OVC",10,"KMSP 051907Z 28024G36KT 10SM BKN030 OVC037 M01/M09 A2971 RMK AO2 PK WND 25036/1906 T10111089",2023.04.05-14.55.01
"METAR","KMSP","2023-04-05T19:53:00Z",-1.7,-9.4,22,270,"OVC",10,"KMSP 051953Z 27022G41KT 10SM OVC035 M02/M09 A2973 RMK AO2 PK WND 27041/1944 SLP075 T10171094",2023.04.05-15.55.01
"METAR","KMSP","2023-04-05T21:12:00Z",-1.7,-8.9,27,270,"OVC",10,"KMSP 052112Z 27027G41KT 10SM OVC030 M02/M09 A2977 RMK AO2 PK WND 27041/2110 T10171089",2023.04.05-16.55.01
"METAR","KMSP","2023-04-05T21:53:00Z",-1.7,-8.3,22,260,"OVC",8,"KMSP 052153Z 26022G37KT 8SM -SN OVC033 M02/M08 A2980 RMK AO2 PK WND 27041/2110 SNB13 SLP101 P0000 T10171083",2023.04.05-17.55.01
"METAR","KMSP","2023-04-05T22:53:00Z",-2.2,-8.9,20,260,"OVC",5,"KMSP 052253Z 26020G38KT 5SM -SN FEW028 OVC038 M02/M09 A2985 RMK AO2 PK WND 27041/2210 SLP118 P0000 T10221089",2023.04.05-18.55.01
"METAR","KMSP","2023-04-06T00:43:00Z",-2.8,-8.9,24,270,"OVC",10,"KMSP 060043Z 27024G37KT 10SM -SN OVC033 M03/M09 A2991 RMK AO2 PK WND 27037/0040 SNE13B29 P0000 T10281089",2023.04.05-19.55.01
"METAR","KMSP","2023-04-06T01:23:00Z",-2.8,-8.3,17,260,"OVC",8,"KMSP 060123Z 26017G38KT 8SM -SN BKN027 OVC034 M03/M08 A2994 RMK AO2 PK WND 27038/0115 P0000 T10281083",2023.04.05-20.55.01
"METAR","KMSP","2023-04-06T02:48:00Z",-3,-8,14,260,"OVC",6,"KMSP 060248Z 26014G29KT 6SM -SN SCT023 BKN030 OVC036 M03/M08 A3000 RMK AO2 PK WND 26041/0154 SNE13B24 P0000 $",2023.04.05-21.55.01
"METAR","KMSP","2023-04-06T03:42:00Z",-3.3,-9.4,17,280,"OVC",9,"KMSP 060342Z 28017G33KT 9SM OVC032 M03/M09 A3001 RMK AO2 PK WND 27035/0326 SNE37 P0000 T10331094 $",2023.04.05-22.55.01
"METAR","KMSP","2023-04-06T04:30:00Z",-3.3,-8.3,16,260,"OVC",10,"KMSP 060430Z 26016G29KT 10SM -SN OVC028 M03/M08 A3002 RMK AO2 PK WND 26037/0406 SNB26 P0000 T10331083 $",2023.04.05-23.55.01
"METAR","KMSP","2023-04-06T04:53:00Z",-3.3,-8.3,16,260,"OVC",9,"KMSP 060453Z 26016G30KT 9SM OVC027 M03/M08 A3003 RMK AO2 PK WND 26037/0406 SNB26E52 SLP180 P0000 T10331083 $",2023.04.06-00.55.01
"METAR","KMSP","2023-04-06T06:26:00Z",-3.9,-9.4,16,270,"FEW",10,"KMSP 060626Z 27016G31KT 10SM FEW026 M04/M09 A3007 RMK AO2 PK WND 27031/0623 T10391094 $",2023.04.06-01.55.01
"METAR","KMSP","2023-04-06T06:53:00Z",-3.9,-9.4,16,270,"FEW",10,"KMSP 060653Z 27016G30KT 10SM FEW026 M04/M09 A3008 RMK AO2 PK WND 27031/0623 SLP198 T10391094 $",2023.04.06-02.55.01
"METAR","KMSP","2023-04-06T07:53:00Z",-4.4,-10,13,270,"FEW",10,"KMSP 060753Z 27013G24KT 10SM FEW026 M04/M10 A3010 RMK AO2 PK WND 27029/0702 SLP206 T10441100 $",2023.04.06-03.55.01
"METAR","KMSP","2023-04-06T08:53:00Z",-5,-10.6,10,260,"CLR",10,"KMSP 060853Z 26010KT 10SM CLR M05/M11 A3012 RMK AO2 PK WND 25026/0804 SLP211 T10501106 51020 $",2023.04.06-04.55.01
"METAR","KMSP","2023-04-06T09:53:00Z",-5,-11.1,10,250,"CLR",10,"KMSP 060953Z 25010G25KT 10SM CLR M05/M11 A3014 RMK AO2 SLP218 T10501111 $",2023.04.06-05.55.01
"METAR","KMSP","2023-04-06T10:53:00Z",-5.6,-11.1,11,250,"CLR",10,"KMSP 061053Z 25011KT 10SM CLR M06/M11 A3016 RMK AO2 SLP227 T10561111 $",2023.04.06-06.55.01
"METAR","KMSP","2023-04-06T11:53:00Z",-5.6,-11.7,11,270,"CLR",10,"KMSP 061153Z 27011KT 10SM CLR M06/M12 A3019 RMK AO2 SLP236 T10561117 11033 21056 53023",2023.04.06-07.55.01
"METAR","KMSP","2023-04-06T12:53:00Z",-5.6,-11.7,10,260,"CLR",10,"KMSP 061253Z 26010G17KT 10SM CLR M06/M12 A3022 RMK AO2 SLP247 T10561117",2023.04.06-08.55.01
"METAR","KMSP","2023-04-06T13:53:00Z",-4.4,-11.7,11,270,"CLR",10,"KMSP 061353Z 27011KT 10SM CLR M04/M12 A3025 RMK AO2 PK WND 26026/1325 SLP256 T10441117",2023.04.06-09.55.01
"METAR","KMSP","2023-04-06T14:53:00Z",-2.8,-11.7,13,270,"CLR",10,"KMSP 061453Z 27013G24KT 10SM CLR M03/M12 A3027 RMK AO2 PK WND 26026/1434 SLP264 T10281117 51028",2023.04.06-10.55.01
"METAR","KMSP","2023-04-06T15:53:00Z",-1.1,-10.6,11,260,"FEW",10,"KMSP 061553Z 26011G24KT 10SM FEW060 M01/M11 A3030 RMK AO2 PK WND 26028/1508 SLP273 T10111106",2023.04.06-11.55.02
"METAR","KMSP","2023-04-06T16:53:00Z",0,-10,15,270,"FEW",10,"KMSP 061653Z 27015G31KT 10SM FEW030 00/M10 A3033 RMK AO2 PK WND 24031/1649 SLP282 T00001100",2023.04.06-12.55.02
"METAR","KMSP","2023-04-06T17:53:00Z",0.6,-10.6,16,280,"FEW",10,"KMSP 061753Z 28016G28KT 10SM FEW020 FEW250 01/M11 A3035 RMK AO2 PK WND 26028/1749 SLP288 T00061106 10011 21056 51025",2023.04.06-13.55.01
"METAR","KMSP","2023-04-06T18:53:00Z",1.7,-9.4,15,270,"FEW",10,"KMSP 061853Z 27015G26KT 10SM FEW250 02/M09 A3036 RMK AO2 PK WND 27032/1829 SLP292 T00171094",2023.04.06-14.55.01
"METAR","KMSP","2023-04-06T19:53:00Z",2.8,-9.4,10,260,"FEW",10,"KMSP 061953Z 26010G21KT 10SM FEW250 03/M09 A3037 RMK AO2 PK WND 27030/1927 SLP295 T00281094",2023.04.06-15.55.01
"METAR","KMSP","2023-04-06T20:53:00Z",2.2,-10.6,14,270,"FEW",10,"KMSP 062053Z 27014G27KT 10SM FEW250 02/M11 A3038 RMK AO2 PK WND 27027/2044 SLP301 T00221106 53012",2023.04.06-16.55.01
"METAR","KMSP","2023-04-06T21:53:00Z",2.2,-9.4,7,270,"FEW",10,"KMSP 062153Z 27007G21KT 10SM FEW250 02/M09 A3038 RMK AO2 SLP300 T00221094",2023.04.06-17.55.01
"METAR","KMSP","2023-04-06T22:53:00Z",2.2,-8.9,9,280,"FEW",10,"KMSP 062253Z 28009KT 10SM FEW250 02/M09 A3039 RMK AO2 SLP303 T00221089",2023.04.06-18.55.01
"METAR","KMSP","2023-04-06T23:53:00Z",1.7,-8.9,8,280,"FEW",10,"KMSP 062353Z 28008KT 10SM FEW250 02/M09 A3042 RMK AO2 SLP312 T00171089 10033 20006 53012",2023.04.06-19.55.01
"METAR","KMSP","2023-04-07T00:53:00Z",0.6,-8.9,5,290,"FEW",10,"KMSP 070053Z 29005KT 10SM FEW090 FEW250 01/M09 A3042 RMK AO2 SLP315 T00061089",2023.04.06-20.55.01
"METAR","KMSP","2023-04-07T01:53:00Z",0,-8.3,4,270,"FEW",10,"KMSP 070153Z 27004KT 10SM FEW090 00/M08 A3043 RMK AO2 SLP317 T00001083",2023.04.06-21.55.01
"METAR","KMSP","2023-04-07T02:53:00Z",-1.1,-7.8,3,310,"FEW",10,"KMSP 070253Z 31003KT 10SM FEW090 M01/M08 A3045 RMK AO2 SLP322 T10111078 53009",2023.04.06-22.55.01
"METAR","KMSP","2023-04-07T03:53:00Z",-1.1,-7.8,3,270,"FEW",10,"KMSP 070353Z 27003KT 10SM FEW090 M01/M08 A3046 RMK AO2 SLP326 T10111078",2023.04.06-23.55.01
"METAR","KMSP","2023-04-07T04:53:00Z",-2.2,-7.8,5,360,"FEW",10,"KMSP 070453Z 36005KT 10SM FEW090 M02/M08 A3045 RMK AO2 SLP325 T10221078",2023.04.07-00.55.01
"METAR","KMSP","2023-04-07T05:53:00Z",-2.8,-7.8,3,40,"FEW",10,"KMSP 070553Z 04003KT 10SM FEW100 M03/M08 A3046 RMK AO2 SLP326 T10281078 10017 21028 400331056 51004",2023.04.07-01.55.01
"METAR","KMSP","2023-04-07T06:53:00Z",-2.2,-8.3,4,40,"FEW",10,"KMSP 070653Z 04004KT 10SM FEW100 M02/M08 A3046 RMK AO2 SLP327 T10221083",2023.04.07-02.55.01
"METAR","KMSP","2023-04-07T07:53:00Z",-2.8,-8.3,0,0,"CLR",10,"KMSP 070753Z 00000KT 10SM CLR M03/M08 A3047 RMK AO2 SLP328 T10281083",2023.04.07-03.55.01
"METAR","KMSP","2023-04-07T08:53:00Z",-2.8,-8.9,6,120,"CLR",10,"KMSP 070853Z 12006KT 10SM CLR M03/M09 A3048 RMK AO2 SLP332 T10281089 53006",2023.04.07-04.55.01
"METAR","KMSP","2023-04-07T09:53:00Z",-2.8,-8.9,5,90,"BKN",10,"KMSP 070953Z 09005KT 10SM BKN070 M03/M09 A3048 RMK AO2 SLP333 T10281089",2023.04.07-05.55.01
"METAR","KMSP","2023-04-07T10:53:00Z",-2.8,-8.9,7,80,"SCT",10,"KMSP 071053Z 08007KT 10SM SCT065 M03/M09 A3047 RMK AO2 SLP330 T10281089",2023.04.07-06.55.01
"METAR","KMSP","2023-04-07T11:53:00Z",-2.2,-8.3,5,90,"BKN",10,"KMSP 071153Z 09005KT 10SM BKN060 BKN250 M02/M08 A3048 RMK AO2 SLP333 T10221083 11022 21033 53001",2023.04.07-07.55.01
"METAR","KMSP","2023-04-07T12:53:00Z",-1.1,-8.3,9,110,"BKN",10,"KMSP 071253Z 11009KT 10SM BKN060 M01/M08 A3048 RMK AO2 SLP334 T10111083",2023.04.07-08.55.01
"METAR","KMSP","2023-04-07T13:53:00Z",0.6,-7.2,10,100,"FEW",10,"KMSP 071353Z 10010KT 10SM FEW060 01/M07 A3048 RMK AO2 SLP332 T00061072",2023.04.07-09.55.01
"METAR","KMSP","2023-04-07T14:53:00Z",1.7,-6.1,10,130,"FEW",10,"KMSP 071453Z 13010KT 10SM FEW200 02/M06 A3047 RMK AO2 SLP328 T00171061 58004",2023.04.07-10.55.01
"METAR","KMSP","2023-04-07T15:53:00Z",3.9,-5,11,120,"FEW",10,"KMSP 071553Z 12011KT 10SM FEW200 04/M05 A3047 RMK AO2 SLP330 T00391050",2023.04.07-11.55.01
"METAR","KMSP","2023-04-07T16:53:00Z",6.1,-3.9,12,110,"FEW",10,"KMSP 071653Z 11012G16KT 10SM FEW200 06/M04 A3044 RMK AO2 SLP318 T00611039",2023.04.07-12.55.01
"METAR","KMSP","2023-04-07T17:53:00Z",7.2,-4.4,12,120,"FEW",10,"KMSP 071753Z 12012KT 10SM FEW200 07/M04 A3042 RMK AO2 SLP311 T00721044 10072 21022 58016",2023.04.07-13.55.01
"METAR","KMSP","2023-04-07T18:53:00Z",8.3,-5,9,110,"FEW",10,"KMSP 071853Z 11009G19KT 10SM FEW200 08/M05 A3040 RMK AO2 SLP301 T00831050",2023.04.07-14.55.01
"METAR","KMSP","2023-04-07T19:53:00Z",8.3,-4.4,10,140,"FEW",10,"KMSP 071953Z 14010G19KT 10SM FEW200 08/M04 A3038 RMK AO2 SLP295 T00831044",2023.04.07-15.55.01
"METAR","KMSP","2023-04-07T20:53:00Z",9.4,-4.4,13,120,"FEW",10,"KMSP 072053Z 12013G18KT 10SM FEW250 09/M04 A3035 RMK AO2 SLP286 T00941044 56023",2023.04.07-16.55.01
"METAR","KMSP","2023-04-07T21:53:00Z",10,-3.3,8,90,"FEW",10,"KMSP 072153Z 09008KT 10SM FEW250 10/M03 A3033 RMK AO2 SLP277 T01001033",2023.04.07-17.55.02
"METAR","KMSP","2023-04-07T22:53:00Z",9.4,-2.8,12,80,"FEW",10,"KMSP 072253Z 08012KT 10SM FEW250 09/M03 A3031 RMK AO2 PK WND 11027/2223 SLP273 T00941028",2023.04.07-18.55.01
"METAR","KMSP","2023-04-07T23:53:00Z",8.3,-3.3,11,60,"FEW",10,"KMSP 072353Z 06011KT 10SM FEW200 08/M03 A3031 RMK AO2 SLP270 T00831033 10106 20072 56015",2023.04.07-19.55.01
"METAR","KMSP","2023-04-08T00:53:00Z",6.7,-4.4,13,70,"SCT",10,"KMSP 080053Z 07013G20KT 10SM SCT180 07/M04 A3030 RMK AO2 SLP269 T00671044",2023.04.07-20.55.01
"METAR","KMSP","2023-04-08T01:53:00Z",6.1,-4.4,11,60,"SCT",10,"KMSP 080153Z 06011KT 10SM SCT130 06/M04 A3029 RMK AO2 SLP266 T00611044",2023.04.07-21.55.02
"METAR","KMSP","2023-04-08T02:53:00Z",5.6,-3.9,11,60,"BKN",10,"KMSP 080253Z 06011G22KT 10SM BKN130 06/M04 A3029 RMK AO2 SLP264 T00561039 56006",2023.04.07-22.55.01
"METAR","KMSP","2023-04-08T03:53:00Z",5.6,-3.9,10,60,"OVC",10,"KMSP 080353Z 06010KT 10SM BKN095 OVC110 06/M04 A3029 RMK AO2 SLP263 T00561039",2023.04.07-23.55.01
"METAR","KMSP","2023-04-08T04:53:00Z",5,-3.3,6,40,"OVC",10,"KMSP 080453Z 04006G16KT 10SM OVC085 05/M03 A3027 RMK AO2 SLP257 T00501033",2023.04.08-00.55.01
"METAR","KMSP","2023-04-08T05:53:00Z",4.4,-2.8,4,70,"OVC",10,"KMSP 080553Z 07004KT 10SM OVC080 04/M03 A3027 RMK AO2 SLP258 T00441028 10083 20044 401061033 55006",2023.04.08-01.55.01
"METAR","KMSP","2023-04-08T06:53:00Z",4.4,-2.2,8,70,"OVC",10,"KMSP 080653Z 07008KT 10SM OVC070 04/M02 A3026 RMK AO2 SLP252 T00441022",2023.04.08-02.55.01
"METAR","KMSP","2023-04-08T07:53:00Z",4.4,-2.2,7,30,"OVC",10,"KMSP 080753Z 03007KT 10SM OVC080 04/M02 A3025 RMK AO2 SLP249 T00441022",2023.04.08-03.55.01
"METAR","KMSP","2023-04-08T08:53:00Z",3.9,-1.7,4,50,"OVC",10,"KMSP 080853Z 05004KT 10SM BKN095 OVC110 04/M02 A3025 RMK AO2 SLP249 T00391017 56007",2023.04.08-04.55.01
"METAR","KMSP","2023-04-08T09:53:00Z",3.9,-1.1,7,80,"CLR",10,"KMSP 080953Z 08007KT 10SM CLR 04/M01 A3024 RMK AO2 SLP245 T00391011",2023.04.08-05.55.01
"METAR","KMSP","2023-04-08T10:53:00Z",3.9,-1.1,8,100,"SCT",10,"KMSP 081053Z 10008KT 10SM FEW060 SCT150 04/M01 A3024 RMK AO2 SLP246 T00391011",2023.04.08-06.55.01
"METAR","KMSP","2023-04-08T11:53:00Z",3.3,-1.7,9,100,"SCT",10,"KMSP 081153Z 10009KT 10SM SCT120 03/M02 A3024 RMK AO2 SLP248 T00331017 10050 20033 55001",2023.04.08-07.55.01
"METAR","KMSP","2023-04-08T12:53:00Z",3.3,-1.7,8,90,"SCT",10,"KMSP 081253Z 09008KT 10SM SCT150 03/M02 A3025 RMK AO2 SLP251 T00331017",2023.04.08-08.55.01
"METAR","KMSP","2023-04-08T13:53:00Z",5.6,-0.6,8,110,"SCT",10,"KMSP 081353Z 11008KT 10SM FEW150 SCT250 06/M01 A3026 RMK AO2 SLP252 T00561006",2023.04.08-09.55.01
"METAR","KMSP","2023-04-08T14:53:00Z",7.2,0,8,120,"SCT",10,"KMSP 081453Z 12008KT 10SM FEW150 SCT250 07/00 A3025 RMK AO2 SLP249 T00720000 50002",2023.04.08-10.55.01
"METAR","KMSP","2023-04-08T15:53:00Z",10,-0.6,9,140,"SCT",10,"KMSP 081553Z 14009KT 10SM SCT200 10/M01 A3025 RMK AO2 SLP248 T01001006",2023.04.08-11.55.01
"METAR","KMSP","2023-04-08T16:53:00Z",11.7,-2.2,13,160,"SCT",10,"KMSP 081653Z 16013KT 10SM SCT200 12/M02 A3024 RMK AO2 SLP245 T01171022",2023.04.08-12.55.01
"METAR","KMSP","2023-04-08T17:53:00Z",12.8,-1.1,10,150,"FEW",10,"KMSP 081753Z 15010G18KT 10SM FEW200 13/M01 A3023 RMK AO2 SLP240 T01281011 10133 20028 58008",2023.04.08-13.55.01
"METAR","KMSP","2023-04-08T18:53:00Z",14.4,0,14,140,"FEW",10,"KMSP 081853Z 14014G18KT 10SM FEW250 14/00 A3021 RMK AO2 SLP234 T01440000",2023.04.08-14.55.01
"METAR","KMSP","2023-04-08T19:53:00Z",16.1,0.6,12,140,"FEW",10,"KMSP 081953Z 14012G27KT 10SM FEW250 16/01 A3019 RMK AO2 PK WND 14027/1945 SLP226 T01610006",2023.04.08-15.55.01
"METAR","KMSP","2023-04-08T20:53:00Z",17.8,1.1,13,170,"FEW",10,"KMSP 082053Z 17013KT 10SM FEW250 18/01 A3017 RMK AO2 PK WND 14029/2027 SLP219 T01780011 58020",2023.04.08-16.55.01
"METAR","KMSP","2023-04-08T21:53:00Z",18.9,0.6,13,150,"FEW",10,"KMSP 082153Z 15013KT 10SM FEW250 19/01 A3015 RMK AO2 PK WND 14027/2113 SLP211 T01890006",2023.04.08-17.55.01
"METAR","KMSP","2023-04-08T22:53:00Z",18.9,-1.1,15,150,"FEW",10,"KMSP 082253Z 15015G18KT 10SM FEW250 19/M01 A3014 RMK AO2 PK WND 14028/2220 SLP208 T01891011",2023.04.08-18.55.01
"METAR","KMSP","2023-04-08T23:53:00Z",17.8,-1.1,10,150,"FEW",10,"KMSP 082353Z 15010KT 10SM FEW250 18/M01 A3013 RMK AO2 SLP206 T01781011 10194 20128 56013",2023.04.08-19.55.01
"METAR","KMSP","2023-04-09T00:53:00Z",15,-1.1,8,150,"FEW",10,"KMSP 090053Z 15008KT 10SM FEW250 15/M01 A3013 RMK AO2 SLP206 T01501011",2023.04.08-20.55.01
"METAR","KMSP","2023-04-09T01:53:00Z",13.9,-1.1,8,150,"FEW",10,"KMSP 090153Z 15008KT 10SM FEW250 14/M01 A3013 RMK AO2 SLP207 T01391011",2023.04.08-21.55.01
"METAR","KMSP","2023-04-09T02:53:00Z",13.9,-2.2,12,150,"FEW",10,"KMSP 090253Z 15012KT 10SM FEW250 14/M02 A3015 RMK AO2 SLP212 T01391022 53006",2023.04.08-22.55.01
"METAR","KMSP","2023-04-09T03:53:00Z",12.2,-2.8,11,150,"FEW",10,"KMSP 090353Z 15011KT 10SM FEW250 12/M03 A3016 RMK AO2 SLP215 T01221028",2023.04.08-23.55.01
"METAR","KMSP","2023-04-09T04:53:00Z",12.2,-3.3,11,160,"FEW",10,"KMSP 090453Z 16011KT 10SM FEW250 12/M03 A3016 RMK AO2 SLP215 T01221033",2023.04.09-00.55.01
"METAR","KMSP","2023-04-09T05:53:00Z",11.1,-3.3,12,160,"FEW",10,"KMSP 090553Z 16012KT 10SM FEW250 11/M03 A3017 RMK AO2 SLP218 T01111033 10178 20111 401940028 53007",2023.04.09-01.55.02
"METAR","KMSP","2023-04-09T06:53:00Z",11.1,-3.3,9,170,"SCT",10,"KMSP 090653Z 17009KT 10SM FEW120 FEW150 SCT250 11/M03 A3018 RMK AO2 SLP221 T01111033",2023.04.09-02.55.01
"METAR","KMSP","2023-04-09T07:53:00Z",10.6,-3.3,8,150,"SCT",10,"KMSP 090753Z 15008KT 10SM FEW150 SCT250 11/M03 A3018 RMK AO2 SLP220 T01061033",2023.04.09-03.55.01
"METAR","KMSP","2023-04-09T08:53:00Z",8.9,-2.8,5,130,"SCT",10,"KMSP 090853Z COR 13005KT 10SM FEW160 SCT250 09/M03 A3018 RMK AO2 SLP221 T00891028 51004",2023.04.09-04.55.01
"METAR","KMSP","2023-04-09T09:53:00Z",11.7,-3.9,9,180,"SCT",10,"KMSP 090953Z 18009KT 10SM FEW160 SCT250 12/M04 A3019 RMK AO2 SLP222 T01171039",2023.04.09-05.55.01
"METAR","KMSP","2023-04-09T10:53:00Z",11.1,-3.9,9,180,"SCT",10,"KMSP 091053Z 18009KT 10SM SCT140 SCT250 11/M04 A3019 RMK AO2 SLP225 T01111039",2023.04.09-06.55.02
"METAR","KMSP","2023-04-09T11:53:00Z",10,-3.3,7,170,"SCT",10,"KMSP 091153Z 17007KT 10SM FEW140 SCT250 10/M03 A3020 RMK AO2 SLP227 T01001033 10117 20083 51006",2023.04.09-07.55.01
"METAR","KMSP","2023-04-09T12:53:00Z",10.6,-3.3,7,170,"BKN",10,"KMSP 091253Z 17007KT 10SM FEW140 BKN250 11/M03 A3021 RMK AO2 SLP233 T01061033",2023.04.09-08.55.01
"METAR","KMSP","2023-04-09T13:53:00Z",12.2,-3.3,9,170,"BKN",10,"KMSP 091353Z 17009KT 10SM FEW150 BKN250 12/M03 A3022 RMK AO2 SLP234 T01221033",2023.04.09-09.55.01
"METAR","KMSP","2023-04-09T14:53:00Z",14.4,-3.3,13,200,"BKN",10,"KMSP 091453Z 20013G21KT 10SM BKN250 14/M03 A3022 RMK AO2 SLP234 T01441033 51007",2023.04.09-10.55.01
"METAR","KMSP","2023-04-09T15:53:00Z",15.6,-2.2,14,200,"BKN",10,"KMSP 091553Z 20014G22KT 10SM BKN250 16/M02 A3023 RMK AO2 PK WND 24027/1523 SLP238 T01561022",2023.04.09-11.55.02
"METAR","KMSP","2023-04-09T16:53:00Z",17.2,-2.2,15,210,"BKN",10,"KMSP 091653Z 21015G23KT 10SM BKN250 17/M02 A3024 RMK AO2 PK WND 23027/1626 SLP240 T01721022",2023.04.09-12.55.01
"METAR","KMSP","2023-04-09T17:53:00Z",18.3,-2.8,15,230,"BKN",10,"KMSP 091753Z 23015G30KT 10SM BKN180 BKN230 18/M03 A3023 RMK AO2 PK WND 25030/1751 SLP238 T01831028 10183 20094 50005",2023.04.09-13.55.01
"METAR","KMSP","2023-04-09T18:53:00Z",18.3,-1.7,13,260,"OVC",10,"KMSP 091853Z 26013KT 10SM BKN180 OVC230 18/M02 A3024 RMK AO2 PK WND 24026/1800 SLP240 T01831017",2023.04.09-14.55.01
"METAR","KMSP","2023-04-09T19:53:00Z",18.3,-1.7,7,240,"OVC",10,"KMSP 091953Z 24007KT 10SM BKN150 OVC230 18/M02 A3022 RMK AO2 PK WND 27026/1859 SLP236 T01831017",2023.04.09-15.55.01
"METAR","KMSP","2023-04-09T20:53:00Z",18.9,-1.7,8,210,"OVC",10,"KMSP 092053Z 21008G14KT 10SM SCT140 OVC250 19/M02 A3021 RMK AO2 SLP231 T01891017 58008",2023.04.09-16.55.01
"METAR","KMSP","2023-04-09T21:53:00Z",18.3,0.6,6,210,"OVC",10,"KMSP 092153Z 21006KT 10SM -RA FEW055 BKN075 BKN090 OVC140 18/01 A3018 RMK AO2 RAB45 SLP222 P0000 T01830006",2023.04.09-17.55.01
"METAR","KMSP","2023-04-09T22:53:00Z",18.3,-0.6,12,190,"OVC",10,"KMSP 092253Z 19012G17KT 10SM FEW055 OVC085 18/M01 A3017 RMK AO2 RAE2155B11E23 SLP218 PRESENT WX VCSH P0000 T01831006",2023.04.09-18.55.01
"METAR","KMSP","2023-04-09T23:53:00Z",17.8,0.6,11,170,"OVC",10,"KMSP 092353Z 17011KT 10SM FEW070 OVC085 18/01 A3016 RMK AO2 SLP214 PRESENT WX VCSH 60000 T01780006 10189 20172 56017",2023.04.09-19.55.01
"METAR","KMSP","2023-04-10T00:53:00Z",17.8,0,5,190,"OVC",10,"KMSP 100053Z 19005KT 10SM OVC090 18/00 A3016 RMK AO2 SLP214 T01780000",2023.04.09-20.55.01
"METAR","KMSP","2023-04-10T01:53:00Z",18.3,0,10,200,"OVC",10,"KMSP 100153Z 20010G19KT 10SM BKN090 OVC110 18/00 A3016 RMK AO2 SLP213 T01830000",2023.04.09-21.55.01
"METAR","KMSP","2023-04-10T02:53:00Z",17.2,1.7,11,210,"OVC",10,"KMSP 100253Z 21011G19KT 10SM FEW050 SCT065 OVC080 17/02 A3018 RMK AO2 SLP219 T01720017 53007",2023.04.09-22.55.01
"METAR","KMSP","2023-04-10T03:53:00Z",15.6,3.3,5,160,"BKN",10,"KMSP 100353Z 16005KT 10SM BKN080 BKN100 16/03 A3016 RMK AO2 SLP214 T01560033",2023.04.09-23.55.01
"METAR","KMSP","2023-04-10T04:53:00Z",16.1,1.7,10,170,"OVC",10,"KMSP 100453Z 17010KT 10SM OVC080 16/02 A3016 RMK AO2 SLP212 T01610017",2023.04.10-00.55.01
"METAR","KMSP","2023-04-10T05:53:00Z",15.6,0,7,180,"OVC",10,"KMSP 100553Z 18007KT 10SM OVC080 16/00 A3016 RMK AO2 SLP211 T01560000 10183 20150 401890083 56007",2023.04.10-01.55.01
"METAR","KMSP","2023-04-10T06:53:00Z",14.4,0.6,3,210,"BKN",10,"KMSP 100653Z 21003KT 10SM BKN080 14/01 A3016 RMK AO2 SLP212 T01440006",2023.04.10-02.55.01
"METAR","KMSP","2023-04-10T07:53:00Z",13.3,1.1,4,220,"FEW",10,"KMSP 100753Z 22004KT 10SM FEW080 13/01 A3015 RMK AO2 SLP211 T01330011",2023.04.10-03.55.01
"METAR","KMSP","2023-04-10T08:53:00Z",11.1,1.1,6,170,"FEW",10,"KMSP 100853Z 17006KT 10SM FEW080 11/01 A3015 RMK AO2 SLP210 T01110011 58002",2023.04.10-04.55.01
"METAR","KMSP","2023-04-10T09:53:00Z",11.1,1.7,5,210,"FEW",10,"KMSP 100953Z 21005KT 10SM FEW080 11/02 A3016 RMK AO2 SLP213 T01110017",2023.04.10-05.55.01
"METAR","KMSP","2023-04-10T10:53:00Z",9.4,1.7,4,250,"CLR",10,"KMSP 101053Z 25004KT 10SM CLR 09/02 A3018 RMK AO2 SLP221 T00940017",2023.04.10-06.55.01
"METAR","KMSP","2023-04-10T11:53:00Z",8.9,2.2,3,230,"FEW",10,"KMSP 101153Z 23003KT 10SM FEW080 09/02 A3020 RMK AO2 SLP227 T00890022 10156 20078 53016",2023.04.10-07.55.01
"METAR","KMSP","2023-04-10T12:53:00Z",9.4,3.3,3,230,"FEW",10,"KMSP 101253Z 23003KT 10SM FEW080 09/03 A3021 RMK AO2 SLP230 T00940033",2023.04.10-08.55.01
"METAR","KMSP","2023-04-10T13:53:00Z",10.6,3.3,4,210,"CLR",10,"KMSP 101353Z 21004KT 10SM CLR 11/03 A3022 RMK AO2 SLP234 T01060033",2023.04.10-09.55.01
"METAR","KMSP","2023-04-10T14:53:00Z",12.8,3.9,4,0,"CLR",10,"KMSP 101453Z VRB04KT 10SM CLR 13/04 A3022 RMK AO2 SLP233 T01280039 50006",2023.04.10-10.55.01
"METAR","KMSP","2023-04-10T15:53:00Z",15.6,3.9,7,270,"FEW",10,"KMSP 101553Z 27007KT 10SM FEW250 16/04 A3023 RMK AO2 SLP237 T01560039",2023.04.10-11.55.01
"METAR","KMSP","2023-04-10T16:53:00Z",17.2,1.7,8,240,"FEW",10,"KMSP 101653Z 24008KT 10SM FEW250 17/02 A3022 RMK AO2 SLP235 T01720017",2023.04.10-12.55.01
"METAR","KMSP","2023-04-10T17:53:00Z",18.9,1.7,5,340,"SCT",10,"KMSP 101753Z COR 34005KT 10SM SCT250 19/02 A3022 RMK AO2 SLP232 T01890017 10194 20083 50001",2023.04.10-13.55.01
"METAR","KMSP","2023-04-10T18:53:00Z",20.6,1.7,0,0,"SCT",10,"KMSP 101853Z 00000KT 10SM SCT250 21/02 A3021 RMK AO2 SLP230 T02060017",2023.04.10-14.55.01
"METAR","KMSP","2023-04-10T19:53:00Z",21.7,-1.1,5,0,"SCT",10,"KMSP 101953Z VRB05KT 10SM SCT250 22/M01 A3020 RMK AO2 SLP226 T02171011",2023.04.10-15.55.01
"METAR","KMSP","2023-04-10T20:53:00Z",22.2,-2.2,3,290,"SCT",10,"KMSP 102053Z 29003KT 10SM SCT250 22/M02 A3018 RMK AO2 SLP221 T02221022 58011",2023.04.10-16.55.01
"METAR","KMSP","2023-04-10T21:53:00Z",22.2,-1.1,9,290,"SCT",10,"KMSP 102153Z 29009KT 10SM SCT250 22/M01 A3017 RMK AO2 SLP217 T02221011",2023.04.10-17.55.01
"METAR","KMSP","2023-04-10T22:53:00Z",21.1,-2.8,10,260,"SCT",10,"KMSP 102253Z 26010KT 10SM SCT250 21/M03 A3018 RMK AO2 SLP219 T02111028",2023.04.10-18.55.01
"METAR","KMSP","2023-04-10T23:53:00Z",20.6,-4.4,9,240,"SCT",10,"KMSP 102353Z 24009KT 10SM FEW180 SCT250 21/M04 A3017 RMK AO2 SLP215 T02061044 10222 20183 56006",2023.04.10-19.55.01
"METAR","KMSP","2023-04-11T00:53:00Z",18.3,-2.2,5,250,"SCT",10,"KMSP 110053Z 25005KT 10SM FEW180 SCT250 18/M02 A3016 RMK AO2 SLP216 T01831022",2023.04.10-20.55.01
"METAR","KMSP","2023-04-11T01:53:00Z",17.8,-1.7,3,250,"SCT",10,"KMSP 110153Z 25003KT 10SM FEW180 SCT250 18/M02 A3018 RMK AO2 SLP220 T01781017",2023.04.10-21.55.01
"METAR","KMSP","2023-04-11T02:53:00Z",16.7,-1.7,3,230,"FEW",10,"KMSP 110253Z 23003KT 10SM FEW250 17/M02 A3017 RMK AO2 SLP218 T01671017 50002",2023.04.10-22.55.01
"METAR","KMSP","2023-04-11T03:53:00Z",15,-1.1,4,200,"FEW",10,"KMSP 110353Z 20004KT 10SM FEW250 15/M01 A3016 RMK AO2 SLP212 T01501011",2023.04.10-23.55.01
"METAR","KMSP","2023-04-11T04:53:00Z",13.9,0,3,200,"FEW",10,"KMSP 110453Z 20003KT 10SM FEW250 14/00 A3014 RMK AO2 SLP206 T01390000",2023.04.11-00.55.01
"METAR","KMSP","2023-04-11T05:53:00Z",12.2,0.6,3,170,"SCT",10,"KMSP 110553Z 17003KT 10SM SCT250 12/01 A3013 RMK AO2 SLP202 T01220006 10206 20122 402220078 56015",2023.04.11-01.55.01
"METAR","KMSP","2023-04-11T06:53:00Z",11.1,1.1,0,0,"BKN",10,"KMSP 110653Z 00000KT 10SM BKN250 11/01 A3012 RMK AO2 SLP200 T01110011",2023.04.11-02.55.01
"METAR","KMSP","2023-04-11T07:53:00Z",12.2,2.2,3,190,"BKN",10,"KMSP 110753Z 19003KT 10SM BKN250 12/02 A3011 RMK AO2 SLP196 T01220022",2023.04.11-03.55.01
"METAR","KMSP","2023-04-11T08:53:00Z",15,3.3,7,220,"BKN",10,"KMSP 110853Z 22007KT 10SM BKN200 15/03 A3010 RMK AO2 SLP191 T01500033 58009",2023.04.11-04.55.01
"METAR","KMSP","2023-04-11T09:53:00Z",15.6,5.6,10,220,"BKN",10,"KMSP 110953Z 22010KT 10SM BKN210 16/06 A3009 RMK AO2 SLP189 T01560056",2023.04.11-05.55.01
"METAR","KMSP","2023-04-11T10:53:00Z",14.4,6.1,9,230,"BKN",10,"KMSP 111053Z 23009KT 10SM BKN210 14/06 A3009 RMK AO2 SLP188 T01440061",2023.04.11-06.55.01
"METAR","KMSP","2023-04-11T11:53:00Z",13.9,6.1,7,230,"BKN",10,"KMSP 111153Z 23007G16KT 10SM BKN250 14/06 A3009 RMK AO2 SLP189 T01390061 10156 20100 56003",2023.04.11-07.55.01
"METAR","KMSP","2023-04-11T12:53:00Z",13.9,6.7,8,220,"OVC",10,"KMSP 111253Z 22008KT 10SM BKN250 OVC300 14/07 A3009 RMK AO2 SLP189 T01390067",2023.04.11-08.55.01
"METAR","KMSP","2023-04-11T13:53:00Z",15,7.2,10,230,"OVC",10,"KMSP 111353Z 23010KT 10SM SCT250 OVC300 15/07 A3008 RMK AO2 SLP186 T01500072",2023.04.11-09.55.01
"METAR","KMSP","2023-04-11T14:53:00Z",18.3,7.8,10,220,"BKN",10,"KMSP 111453Z 22010KT 10SM BKN250 18/08 A3006 RMK AO2 SLP178 T01830078 58010",2023.04.11-10.55.01
"METAR","KMSP","2023-04-11T15:53:00Z",21.1,7.2,8,220,"BKN",10,"KMSP 111553Z 22008KT 10SM BKN250 21/07 A3005 RMK AO2 PK WND 25027/1530 SLP173 T02110072",2023.04.11-11.55.01
"METAR","KMSP","2023-04-11T16:53:00Z",22.8,5.6,12,210,"BKN",10,"KMSP 111653Z 21012G26KT 10SM BKN250 23/06 A3003 RMK AO2 PK WND 24026/1557 SLP169 T02280056",2023.04.11-12.55.01
"METAR","KMSP","2023-04-11T17:53:00Z",23.9,5.6,10,220,"OVC",10,"KMSP 111753Z 22010G20KT 10SM BKN250 OVC300 24/06 A3001 RMK AO2 PK WND 25028/1716 SLP161 T02390056 10239 20133 58017",2023.04.11-13.55.01
"METAR","KMSP","2023-04-11T18:53:00Z",25,5,11,230,"OVC",10,"KMSP 111853Z 23011G18KT 10SM BKN250 OVC300 25/05 A2997 RMK AO2 PK WND 25027/1814 SLP147 T02500050",2023.04.11-14.55.01
"METAR","KMSP","2023-04-11T19:53:00Z",26.1,3.9,13,190,"OVC",10,"KMSP 111953Z 19013G19KT 10SM BKN250 OVC300 26/04 A2994 RMK AO2 SLP137 T02610039",2023.04.11-15.55.01
"METAR","KMSP","2023-04-11T20:53:00Z",26.7,5,12,220,"SCT",10,"KMSP 112053Z 22012G22KT 10SM SCT250 SCT300 27/05 A2991 RMK AO2 PK WND 23028/2002 SLP127 T02670050 56032",2023.04.11-16.55.01
"METAR","KMSP","2023-04-11T21:53:00Z",27.2,3.9,16,220,"SCT",10,"KMSP 112153Z 22016G29KT 10SM SCT250 SCT300 27/04 A2991 RMK AO2 PK WND 24029/2153 SLP123 T02720039",2023.04.11-17.55.01
"METAR","KMSP","2023-04-11T22:53:00Z",26.7,2.2,15,200,"SCT",10,"KMSP 112253Z 20015G24KT 10SM SCT250 SCT300 27/02 A2988 RMK AO2 PK WND 23031/2215 SLP115 T02670022",2023.04.11-18.55.01
"METAR","KMSP","2023-04-11T23:53:00Z",26.7,1.7,11,200,"FEW",10,"KMSP 112353Z 20011KT 10SM FEW250 FEW300 27/02 A2985 RMK AO2 PK WND 24028/2324 SLP106 T02670017 10272 20239 58021",2023.04.11-19.55.01
"METAR","KMSP","2023-04-12T00:53:00Z",25,2.2,7,200,"FEW",10,"KMSP 120053Z 20007KT 10SM FEW250 25/02 A2983 RMK AO2 SLP098 T02500022",2023.04.11-20.55.01
"METAR","KMSP","2023-04-12T01:53:00Z",23.9,2.2,7,190,"CLR",10,"KMSP 120153Z 19007KT 10SM CLR 24/02 A2981 RMK AO2 SLP093 T02390022",2023.04.11-21.55.01
"METAR","KMSP","2023-04-12T02:53:00Z",23.3,2.8,10,190,"CLR",10,"KMSP 120253Z 19010G16KT 10SM CLR 23/03 A2982 RMK AO2 SLP093 T02330028 56012",2023.04.11-22.55.01
"METAR","KMSP","2023-04-12T03:53:00Z",22.8,3.9,11,200,"CLR",10,"KMSP 120353Z 20011G19KT 10SM CLR 23/04 A2981 RMK AO2 SLP090 T02280039",2023.04.11-23.55.01
"METAR","KMSP","2023-04-12T04:53:00Z",21.7,5,11,210,"CLR",10,"KMSP 120453Z 21011G19KT 10SM CLR 22/05 A2978 RMK AO2 SLP081 T02170050",2023.04.12-00.55.01
"METAR","KMSP","2023-04-12T05:53:00Z",21.7,5.6,12,210,"CLR",10,"KMSP 120553Z 21012G24KT 10SM CLR 22/06 A2977 RMK AO2 SLP075 T02170056 10267 20217 402720100 58016",2023.04.12-01.55.01
"METAR","KMSP","2023-04-12T06:53:00Z",21.1,6.1,13,210,"CLR",10,"KMSP 120653Z 21013G25KT 10SM CLR 21/06 A2975 RMK AO2 SLP069 T02110061",2023.04.12-02.55.01
"METAR","KMSP","2023-04-12T07:53:00Z",20,6.7,15,220,"CLR",10,"KMSP 120753Z 22015G29KT 10SM CLR 20/07 A2973 RMK AO2 PK WND 23029/0751 SLP064 T02000067",2023.04.12-03.55.01
"METAR","KMSP","2023-04-12T08:53:00Z",19.4,6.7,16,230,"CLR",10,"KMSP 120853Z 23016G28KT 10SM CLR 19/07 A2972 RMK AO2 PK WND 23030/0831 SLP060 T01940067 56014",2023.04.12-04.55.01
"METAR","KMSP","2023-04-12T09:53:00Z",18.9,7.2,16,220,"CLR",10,"KMSP 120953Z 22016G29KT 10SM CLR 19/07 A2971 RMK AO2 PK WND 24030/0910 SLP055 T01890072",2023.04.12-05.55.01
"METAR","KMSP","2023-04-12T10:53:00Z",18.3,7.2,14,220,"CLR",10,"KMSP 121053Z 22014G30KT 10SM CLR 18/07 A2970 RMK AO2 PK WND 24031/0956 SLP051 T01830072",2023.04.12-06.55.01
"METAR","KMSP","2023-04-12T11:53:00Z",17.2,7.8,12,220,"CLR",10,"KMSP 121153Z 22012G26KT 10SM CLR 17/08 A2970 RMK AO2 PK WND 22030/1100 SLP052 T01720078 10217 20172 56009",2023.04.12-07.55.01
"METAR","KMSP","2023-04-12T12:53:00Z",17.2,7.8,12,220,"CLR",10,"KMSP 121253Z 22012G21KT 10SM CLR 17/08 A2970 RMK AO2 PK WND 22027/1159 SLP054 T01720078",2023.04.12-08.55.01
"METAR","KMSP","2023-04-12T13:53:00Z",18.9,8.3,14,220,"CLR",10,"KMSP 121353Z 22014G25KT 10SM CLR 19/08 A2970 RMK AO2 SLP052 T01890083",2023.04.12-09.55.01
"METAR","KMSP","2023-04-12T14:53:00Z",20.6,8.9,8,220,"CLR",10,"KMSP 121453Z 22008G17KT 10SM CLR 21/09 A2969 RMK AO2 SLP049 T02060089 58002",2023.04.12-10.55.01
"METAR","KMSP","2023-04-12T15:53:00Z",23.3,8.9,14,220,"CLR",10,"KMSP 121553Z 22014G27KT 10SM CLR 23/09 A2969 RMK AO2 PK WND 24028/1518 SLP047 T02330089",2023.04.12-11.55.01
"METAR","KMSP","2023-04-12T16:53:00Z",25,8.9,11,210,"CLR",10,"KMSP 121653Z 21011G26KT 10SM CLR 25/09 A2969 RMK AO2 PK WND 22027/1608 SLP048 T02500089",2023.04.12-12.55.01
"METAR","KMSP","2023-04-12T17:53:00Z",26.7,9.4,12,220,"CLR",10,"KMSP 121753Z 22012G21KT 10SM CLR 27/09 A2967 RMK AO2 PK WND 22026/1715 SLP043 T02670094 10267 20172 58005",2023.04.12-13.55.01
"METAR","KMSP","2023-04-12T18:53:00Z",28.3,8.9,12,210,"CLR",10,"KMSP 121853Z 21012G20KT 10SM CLR 28/09 A2965 RMK AO2 PK WND 24027/1821 SLP033 T02830089",2023.04.12-14.55.01
"METAR","KMSP","2023-04-12T19:53:00Z",29.4,8.3,10,220,"CLR",10,"KMSP 121953Z 22010G25KT 10SM CLR 29/08 A2964 RMK AO2 PK WND 26029/1939 SLP029 T02940083",2023.04.12-15.55.01
"METAR","KMSP","2023-04-12T20:53:00Z",30.6,8.3,17,240,"CLR",10,"KMSP 122053Z 24017G30KT 10SM CLR 31/08 A2962 RMK AO2 PK WND 25030/2051 SLP024 T03060083 56018",2023.04.12-16.55.01
"METAR","KMSP","2023-04-12T21:53:00Z",31.1,8.9,12,240,"CLR",10,"KMSP 122153Z 24012G29KT 10SM CLR 31/09 A2962 RMK AO2 PK WND 24029/2101 SLP023 T03110089",2023.04.12-17.55.01
"METAR","KMSP","2023-04-12T22:53:00Z",31.1,8.9,10,240,"CLR",10,"KMSP 122253Z 24010G18KT 10SM CLR 31/09 A2962 RMK AO2 PK WND 26028/2210 SLP023 T03110089",2023.04.12-18.55.01
"METAR","KMSP","2023-04-12T23:53:00Z",30,10,8,280,"CLR",10,"KMSP 122353Z 28008KT 10SM CLR 30/10 A2962 RMK AO2 SLP025 T03000100 10311 20267 55000",2023.04.12-19.55.01
"METAR","KMSP","2023-04-13T00:53:00Z",26.1,11.7,6,310,"CLR",10,"KMSP 130053Z 31006KT 10SM CLR 26/12 A2963 RMK AO2 SLP030 T02610117",2023.04.12-20.55.01
"METAR","KMSP","2023-04-13T01:53:00Z",25,12.2,0,0,"CLR",10,"KMSP 130153Z 00000KT 10SM CLR 25/12 A2964 RMK AO2 SLP033 T02500122",2023.04.12-21.55.01
"METAR","KMSP","2023-04-13T02:53:00Z",23.3,12.2,0,0,"CLR",10,"KMSP 130253Z 00000KT 10SM CLR 23/12 A2965 RMK AO2 SLP037 T02330122 52011",2023.04.12-22.55.01
"METAR","KMSP","2023-04-13T03:53:00Z",22.8,12.2,3,140,"CLR",10,"KMSP 130353Z 14003KT 10SM CLR 23/12 A2967 RMK AO2 SLP040 T02280122",2023.04.12-23.55.01
"METAR","KMSP","2023-04-13T04:53:00Z",23.9,8.3,8,210,"CLR",10,"KMSP 130453Z 21008KT 10SM CLR 24/08 A2968 RMK AO2 SLP044 T02390083",2023.04.13-00.55.01
"METAR","KMSP","2023-04-13T05:53:00Z",22.8,7.2,10,210,"CLR",10,"KMSP 130553Z 21010G17KT 10SM CLR 23/07 A2968 RMK AO2 SLP044 T02280072 10300 20217 403110172 51008",2023.04.13-01.55.01
"METAR","KMSP","2023-04-13T06:53:00Z",21.7,6.7,10,220,"CLR",10,"KMSP 130653Z 22010G21KT 10SM CLR 22/07 A2967 RMK AO2 SLP041 T02170067",2023.04.13-02.55.01
"METAR","KMSP","2023-04-13T07:53:00Z",20.6,6.7,11,220,"CLR",10,"KMSP 130753Z 22011G19KT 10SM CLR 21/07 A2967 RMK AO2 SLP040 T02060067",2023.04.13-03.55.01
"METAR","KMSP","2023-04-13T08:53:00Z",19.4,6.7,8,210,"CLR",10,"KMSP 130853Z 21008KT 10SM CLR 19/07 A2967 RMK AO2 SLP040 T01940067 56004",2023.04.13-04.55.01
"METAR","KMSP","2023-04-13T09:53:00Z",18.9,6.1,8,210,"CLR",10,"KMSP 130953Z 21008KT 10SM CLR 19/06 A2967 RMK AO2 SLP041 T01890061",2023.04.13-05.55.01
"METAR","KMSP","2023-04-13T10:53:00Z",18.3,5.6,7,190,"CLR",10,"KMSP 131053Z 19007KT 10SM CLR 18/06 A2967 RMK AO2 SLP040 T01830056",2023.04.13-06.55.01
"METAR","KMSP","2023-04-13T11:53:00Z",18.3,5.6,7,200,"CLR",10,"KMSP 131153Z 20007KT 10SM CLR 18/06 A2967 RMK AO2 SLP041 T01830056 10228 20183 54000",2023.04.13-07.55.01
"METAR","KMSP","2023-04-13T12:53:00Z",19.4,5,9,200,"FEW",10,"KMSP 131253Z 20009KT 10SM FEW250 19/05 A2967 RMK AO2 SLP042 T01940050",2023.04.13-08.55.01
"METAR","KMSP","2023-04-13T13:53:00Z",20.6,5.6,11,170,"FEW",10,"KMSP 131353Z 17011KT 10SM FEW250 21/06 A2966 RMK AO2 SLP040 T02060056",2023.04.13-09.55.01
"METAR","KMSP","2023-04-13T14:53:00Z",21.7,6.1,8,180,"FEW",10,"KMSP 131453Z 18008KT 10SM FEW250 22/06 A2967 RMK AO2 SLP042 T02170061 55000",2023.04.13-10.55.01
"METAR","KMSP","2023-04-13T15:53:00Z",22.8,6.7,11,180,"FEW",10,"KMSP 131553Z 18011KT 10SM FEW250 23/07 A2967 RMK AO2 SLP042 T02280067",2023.04.13-11.55.01
"METAR","KMSP","2023-04-13T16:53:00Z",24.4,7.2,12,170,"FEW",10,"KMSP 131653Z 17012KT 10SM FEW250 24/07 A2965 RMK AO2 SLP035 T02440072",2023.04.13-12.55.01
"METAR","KMSP","2023-04-13T17:53:00Z",26.7,7.2,13,170,"FEW",10,"KMSP 131753Z 17013KT 10SM FEW250 27/07 A2962 RMK AO2 SLP024 T02670072 10267 20183 58016",2023.04.13-13.55.01
"METAR","KMSP","2023-04-13T18:53:00Z",28.3,7.2,13,190,"FEW",10,"KMSP 131853Z 19013G23KT 10SM FEW250 28/07 A2959 RMK AO2 PK WND 20026/1836 SLP012 T02830072",2023.04.13-14.55.01
"METAR","KMSP","2023-04-13T19:53:00Z",30,6.1,19,180,"FEW",10,"KMSP 131953Z 18019G28KT 10SM FEW250 30/06 A2956 RMK AO2 PK WND 17029/1938 SLP002 T03000061",2023.04.13-15.55.01
"METAR","KMSP","2023-04-13T20:53:00Z",30.6,3.9,18,180,"FEW",10,"KMSP 132053Z 18018G30KT 10SM FEW250 31/04 A2953 RMK AO2 PK WND 18032/2041 SLP994 T03060039 56028",2023.04.13-16.55.01
"METAR","KMSP","2023-04-13T21:53:00Z",30.6,1.7,19,180,"FEW",10,"KMSP 132153Z 18019G31KT 10SM FEW250 31/02 A2952 RMK AO2 PK WND 18035/2055 SLP991 T03060017",2023.04.13-17.55.01
"METAR","KMSP","2023-04-13T22:53:00Z",30,0,19,180,"FEW",10,"KMSP 132253Z 18019G30KT 10SM FEW250 30/00 A2952 RMK AO2 PK WND 18037/2221 SLP992 T03000000",2023.04.13-18.55.01
"METAR","KMSP","2023-04-13T23:53:00Z",28.9,0,15,180,"FEW",10,"KMSP 132353Z 18015G27KT 10SM FEW250 29/00 A2953 RMK AO2 PK WND 18033/2306 SLP993 T02890000 10306 20267 55002",2023.04.13-19.55.01
"METAR","KMSP","2023-04-14T00:53:00Z",27.2,0,13,170,"FEW",10,"KMSP 140053Z 17013G19KT 10SM FEW250 27/00 A2953 RMK AO2 PK WND 16028/2355 SLP995 T02720000",2023.04.13-20.55.01
"METAR","KMSP","2023-04-14T01:53:00Z",25,0.6,9,160,"FEW",10,"KMSP 140153Z 16009KT 10SM FEW250 25/01 A2954 RMK AO2 SLP999 T02500006",2023.04.13-21.55.01
"METAR","KMSP","2023-04-14T02:53:00Z",22.8,2.2,8,160,"FEW",10,"KMSP 140253Z 16008KT 10SM FEW250 23/02 A2956 RMK AO2 SLP004 T02280022 53009",2023.04.13-22.55.01
"METAR","KMSP","2023-04-14T03:53:00Z",21.7,2.8,7,160,"FEW",10,"KMSP 140353Z 16007G17KT 10SM FEW250 22/03 A2957 RMK AO2 SLP010 T02170028 $",2023.04.13-23.55.01
"METAR","KMSP","2023-04-14T04:53:00Z",18.9,3.3,7,130,"CLR",10,"KMSP 140453Z 13007KT 10SM CLR 19/03 A2959 RMK AO2 SLP015 T01890033 $",2023.04.14-00.55.01
"METAR","KMSP","2023-04-14T05:53:00Z",17.8,3.9,6,140,"CLR",10,"KMSP 140553Z 14006KT 10SM CLR 18/04 A2962 RMK AO2 SLP027 T01780039 10289 20178 403060178 53023 $",2023.04.14-01.55.01
"METAR","KMSP","2023-04-14T06:53:00Z",16.7,5,6,120,"CLR",10,"KMSP 140653Z 12006KT 10SM CLR 17/05 A2963 RMK AO2 SLP028 T01670050 $",2023.04.14-02.55.01
"METAR","KMSP","2023-04-14T07:53:00Z",18.9,5.6,11,170,"CLR",10,"KMSP 140753Z 17011KT 10SM CLR 19/06 A2961 RMK AO2 SLP022 T01890056 $",2023.04.14-03.55.01
"METAR","KMSP","2023-04-14T08:53:00Z",18.3,5.6,8,200,"CLR",10,"KMSP 140853Z 20008KT 10SM CLR 18/06 A2962 RMK AO2 SLP024 T01830056 55002 $",2023.04.14-04.55.01
"METAR","KMSP","2023-04-14T09:53:00Z",17.8,5.6,9,180,"CLR",10,"KMSP 140953Z 18009KT 10SM CLR 18/06 A2961 RMK AO2 SLP023 T01780056 $",2023.04.14-05.55.01
"METAR","KMSP","2023-04-14T10:53:00Z",17.2,5.6,10,180,"FEW",10,"KMSP 141053Z 18010KT 10SM FEW250 17/06 A2961 RMK AO2 SLP022 T01720056 $",2023.04.14-06.55.01
"METAR","KMSP","2023-04-14T11:53:00Z",15.6,6.1,6,180,"FEW",10,"KMSP 141153Z 18006KT 10SM FEW250 16/06 A2964 RMK AO2 SLP032 T01560061 10189 20144 53007",2023.04.14-07.55.01
"METAR","KMSP","2023-04-14T12:53:00Z",17.2,6.1,9,170,"FEW",10,"KMSP 141253Z 17009KT 10SM FEW250 17/06 A2964 RMK AO2 SLP031 T01720061",2023.04.14-08.55.01
"METAR","KMSP","2023-04-14T13:53:00Z",18.9,6.7,7,180,"FEW",10,"KMSP 141353Z 18007KT 10SM FEW250 19/07 A2963 RMK AO2 SLP031 T01890067",2023.04.14-09.55.01
"METAR","KMSP","2023-04-14T14:53:00Z",21.7,7.2,12,170,"FEW",10,"KMSP 141453Z 17012KT 10SM FEW250 22/07 A2962 RMK AO2 SLP027 T02170072 58005",2023.04.14-10.55.01
"METAR","KMSP","2023-04-14T15:53:00Z",23.3,7.8,13,170,"FEW",10,"KMSP 141553Z 17013G19KT 10SM FEW250 23/08 A2962 RMK AO2 SLP026 T02330078",2023.04.14-11.55.01
"METAR","KMSP","2023-04-14T16:53:00Z",26.1,7.8,14,210,"FEW",10,"KMSP 141653Z 21014G24KT 10SM FEW250 26/08 A2961 RMK AO2 SLP021 T02610078",2023.04.14-12.55.01
"METAR","KMSP","2023-04-14T17:53:00Z",26.7,7.2,13,200,"FEW",10,"KMSP 141753Z 20013G26KT 10SM FEW250 27/07 A2959 RMK AO2 PK WND 20028/1659 SLP016 T02670072 10267 20156 58010",2023.04.14-13.55.01
"METAR","KMSP","2023-04-14T18:53:00Z",27.2,7.8,20,180,"FEW",10,"KMSP 141853Z 18020G35KT 10SM FEW250 27/08 A2957 RMK AO2 PK WND 18035/1853 SLP008 T02720078",2023.04.14-14.55.01
"METAR","KMSP","2023-04-14T19:53:00Z",27.8,7.2,18,180,"FEW",10,"KMSP 141953Z 18018G30KT 10SM FEW085 FEW250 28/07 A2956 RMK AO2 PK WND 17031/1854 SLP004 T02780072",2023.04.14-15.55.01
"METAR","KMSP","2023-04-14T20:53:00Z",28.3,6.1,16,180,"SCT",10,"KMSP 142053Z 18016G28KT 10SM SCT080 SCT250 28/06 A2955 RMK AO2 PK WND 18030/2040 SLP002 T02830061 56013",2023.04.14-16.55.01
"METAR","KMSP","2023-04-14T22:43:00Z",23.9,10,12,330,"BKN",10,"KMSP 142243Z 33012KT 10SM SCT090 BKN120 BKN200 24/10 A2957 RMK AO2 PK WND 17029/2212 WSHFT 2223 T02390100",2023.04.14-17.55.01
"METAR","KMSP","2023-04-14T22:53:00Z",23.3,10,10,330,"BKN",10,"KMSP 142253Z 33010KT 10SM SCT090 BKN120 BKN200 23/10 A2958 RMK AO2 PK WND 17029/2212 WSHFT 2223 SLP012 T02330100",2023.04.14-18.55.01
"METAR","KMSP","2023-04-15T00:37:00Z",17.8,9.4,14,290,"OVC",10,"KMSP 150037Z 29014G30KT 10SM BKN095 OVC150 18/09 A2966 RMK AO2 PK WND 28030/0033 PRESRR T01780094",2023.04.14-19.55.01
"METAR","KMSP","2023-04-15T00:53:00Z",17.2,9.4,8,300,"OVC",10,"KMSP 150053Z 30008KT 10SM BKN100 OVC150 17/09 A2967 RMK AO2 PK WND 28030/0033 SLP045 T01720094",2023.04.14-20.55.01
"METAR","KMSP","2023-04-15T01:53:00Z",15.6,8.9,10,310,"OVC",10,"KMSP 150153Z 31010KT 10SM FEW065 BKN100 OVC150 16/09 A2970 RMK AO2 SLP057 VIRGA T01560089",2023.04.14-21.55.01
"METAR","KMSP","2023-04-15T02:53:00Z",15.6,8.9,7,20,"OVC",10,"KMSP 150253Z 02007KT 10SM SCT090 BKN130 BKN190 OVC250 16/09 A2964 RMK AO2 RAB08E18 SLP035 P0000 60000 T01560089 50011",2023.04.14-22.55.01
"METAR","KMSP","2023-04-15T03:53:00Z",15.6,9.4,9,290,"BKN",10,"KMSP 150353Z 29009KT 10SM SCT110 BKN130 BKN200 16/09 A2969 RMK AO2 SLP049 T01560094",2023.04.14-23.55.01
"METAR","KMSP","2023-04-15T04:53:00Z",14.4,10,3,250,"BKN",10,"KMSP 150453Z 25003KT 10SM FEW110 BKN130 14/10 A2969 RMK AO2 SLP050 T01440100",2023.04.15-00.55.01
"METAR","KMSP","2023-04-15T05:53:00Z",13.3,9.4,5,260,"BKN",10,"KMSP 150553Z 26005KT 10SM BKN110 13/09 A2970 RMK AO2 SLP053 60000 T01330094 10222 20133 402830133 51018",2023.04.15-01.55.01
"METAR","KMSP","2023-04-15T06:53:00Z",12.8,9.4,3,260,"BKN",10,"KMSP 150653Z 26003KT 10SM SCT110 BKN210 13/09 A2969 RMK AO2 SLP051 T01280094",2023.04.15-02.55.01
"METAR","KMSP","2023-04-15T08:29:00Z",11.7,8.9,10,290,"OVC",10,"KMSP 150829Z 29010KT 10SM OVC009 12/09 A2971 RMK AO2 T01170089",2023.04.15-03.55.01
"METAR","KMSP","2023-04-15T08:53:00Z",11.1,8.9,9,310,"OVC",9,"KMSP 150853Z 31009KT 9SM OVC008 11/09 A2971 RMK AO2 SLP058 T01110089 53005",2023.04.15-04.55.01
"METAR","KMSP","2023-04-15T10:12:00Z",10,7.2,6,340,"OVC",10,"KMSP 151012Z 34006KT 10SM FEW010 SCT110 OVC130 10/07 A2969 RMK AO2 T01000072",2023.04.15-05.55.01
"METAR","KMSP","2023-04-15T11:21:00Z",9.4,7.2,8,300,"OVC",9,"KMSP 151121Z 30008KT 9SM -RA BKN010 OVC100 09/07 A2972 RMK AO2 RAB17 P0000 T00940072",2023.04.15-06.55.01
"METAR","KMSP","2023-04-15T12:37:00Z",8.9,7.2,11,330,"OVC",9,"KMSP 151237Z 33011KT 9SM -RA OVC007 09/07 A2974 RMK AO2 RAB32 P0000 T00890072",2023.04.15-07.55.01
"METAR","KMSP","2023-04-15T13:12:00Z",8.9,6.7,14,360,"OVC",10,"KMSP 151312Z 36014G19KT 10SM -RA BKN009 OVC070 09/07 A2972 RMK AO2 PRESFR P0001 T00890067",2023.04.15-08.55.01
"METAR","KMSP","2023-04-15T13:53:00Z",8.3,6.1,12,340,"OVC",4,"KMSP 151353Z 34012KT 4SM RA BR OVC009 08/06 A2972 RMK AO2 PRESFR SLP064 P0004 T00830061",2023.04.15-09.55.01
"METAR","KMSP","2023-04-15T15:45:00Z",7.2,5.6,9,300,"OVC",10,"KMSP 151545Z 30009KT 10SM -RA OVC009 07/06 A2976 RMK AO2 RAB38 PRESRR P0000 T00720056",2023.04.15-10.55.01
"METAR","KMSP","2023-04-15T16:50:00Z",7,6,9,310,"OVC",8,"KMSP 151650Z 31009KT 8SM -RA SCT008 OVC013 07/06 A2977 RMK AO2 P0005",2023.04.15-11.55.01
"METAR","KMSP","2023-04-15T16:53:00Z",7.2,5,9,310,"OVC",9,"KMSP 151653Z 31009KT 9SM -RA SCT008 OVC013 07/05 A2977 RMK AO2 SLP084 P0005 T00720050",2023.04.15-12.55.01
"METAR","KMSP","2023-04-15T18:45:00Z",6.7,5,9,320,"OVC",3,"KMSP 151845Z 32009KT 3SM -RA BR SCT010 BKN017 OVC025 07/05 A2978 RMK AO2 P0004 T00670050",2023.04.15-13.55.01
"METAR","KMSP","2023-04-15T19:31:00Z",6.1,4.4,11,310,"OVC",10,"KMSP 151931Z 31011KT 10SM -RA OVC010 06/04 A2980 RMK AO2 RAE1857B20 P0000 T00610044",2023.04.15-14.55.01
"METAR","KMSP","2023-04-15T19:53:00Z",6.1,3.9,13,320,"OVC",10,"KMSP 151953Z 32013KT 10SM -RA OVC012 06/04 A2980 RMK AO2 RAE1857B20 SLP094 P0000 T00610039",2023.04.15-15.55.01
"METAR","KMSP","2023-04-15T20:53:00Z",6.1,3.9,13,310,"OVC",10,"KMSP 152053Z 31013KT 10SM BKN012 BKN016 OVC025 06/04 A2981 RMK AO2 RAE21DZB21E45 SLP099 P0001 60006 T00610039 53008",2023.04.15-16.55.01
"METAR","KMSP","2023-04-15T21:53:00Z",6.1,3.3,15,310,"OVC",10,"KMSP 152153Z 31015KT 10SM BKN012 OVC018 06/03 A2982 RMK AO2 RAB18E40 SLP100 P0000 T00610033",2023.04.15-17.55.01
"METAR","KMSP","2023-04-15T22:53:00Z",6.1,2.8,11,320,"OVC",10,"KMSP 152253Z 32011KT 10SM OVC013 06/03 A2983 RMK AO2 SLP104 T00610028",2023.04.15-18.55.01
"METAR","KMSP","2023-04-15T23:53:00Z",5.6,2.8,16,340,"OVC",10,"KMSP 152353Z 34016G23KT 10SM BKN014 OVC025 06/03 A2983 RMK AO2 DZB14E53 SLP105 P0000 60006 T00560028 10072 20056 51006",2023.04.15-19.55.01
"METAR","KMSP","2023-04-16T00:53:00Z",5,2.2,12,330,"OVC",10,"KMSP 160053Z 33012KT 10SM BKN014 OVC018 05/02 A2983 RMK AO2 SLP107 T00500022",2023.04.15-20.55.01
"METAR","KMSP","2023-04-16T01:53:00Z",5,1.7,13,330,"OVC",10,"KMSP 160153Z 33013G21KT 10SM OVC013 05/02 A2981 RMK AO2 SLP100 T00500017",2023.04.15-21.55.01
"METAR","KMSP","2023-04-16T02:53:00Z",5,1.7,11,340,"OVC",10,"KMSP 160253Z 34011KT 10SM OVC014 05/02 A2983 RMK AO2 PK WND 35027/0232 SLP106 T00500017 53001",2023.04.15-22.55.01
"METAR","KMSP","2023-04-16T03:53:00Z",3.9,1.7,10,340,"OVC",10,"KMSP 160353Z 34010KT 10SM -RA OVC014 04/02 A2982 RMK AO2 RAB03 SLP104 P0000 T00390017",2023.04.15-23.55.01
"METAR","KMSP","2023-04-16T05:26:00Z",3.3,1.7,9,330,"OVC",4,"KMSP 160526Z 33009KT 4SM RA BR FEW008 OVC014 03/02 A2981 RMK AO2 P0008 T00330017",2023.04.16-00.55.01
"METAR","KMSP","2023-04-16T06:03:00Z",2.8,1.1,9,310,"OVC",4,"KMSP 160603Z 31009KT 4SM RA BR FEW009 SCT014 OVC030 03/01 A2982 RMK AO2 P0002 T00280011",2023.04.16-01.55.01
"METAR","KMSP","2023-04-16T07:07:00Z",1.1,0,12,320,"OVC",5,"KMSP 160707Z 32012KT 5SM -SN BR BKN007 OVC031 01/00 A2979 RMK AO2 RAE07SNB07 P0003 T00110000",2023.04.16-02.55.02
"METAR","KMSP","2023-04-16T08:21:00Z",1.1,-0.6,15,340,"OVC",10,"KMSP 160821Z 34015G22KT 10SM -SNRA OVC010 01/M01 A2977 RMK AO2 P0000 T00111006",2023.04.16-03.55.01
"METAR","KMSP","2023-04-16T09:19:00Z",0.6,-0.6,12,330,"OVC",3,"KMSP 160919Z 33012KT 3SM -SN BR FEW007 OVC012 01/M01 A2976 RMK AO2 P0003 T00061006",2023.04.16-04.55.02
"METAR","KMSP","2023-04-16T10:34:00Z",0.6,-0.6,14,320,"OVC",4,"KMSP 161034Z 32014G23KT 4SM -SN BR SCT008 OVC014 01/M01 A2974 RMK AO2 P0001 T00061006",2023.04.16-05.55.01
"METAR","KMSP","2023-04-16T10:53:00Z",0.6,-1.1,14,330,"OVC",4,"KMSP 161053Z 33014KT 4SM -SN BR SCT008 OVC014 01/M01 A2974 RMK AO2 SLP077 P0001 T00061011",2023.04.16-06.55.01
"METAR","KMSP","2023-04-16T12:47:00Z",0,-2,16,340,"OVC",1.5,"KMSP 161247Z 34016G27KT 1 1/2SM -SN BR BKN009 OVC017 00/M02 A2975 RMK AO2 PK WND 35028/1205 TWR VIS 2 P0000",2023.04.16-07.55.01
"METAR","KMSP","2023-04-16T13:46:00Z",0,-1.7,16,340,"OVC",1.5,"KMSP 161346Z 34016G22KT 1 1/2SM -SN BR SCT010 OVC015 00/M02 A2974 RMK AO2 TWR VIS 3 UPB29E32SNE01B11E24B32 PRESFR P0000 T00001017",2023.04.16-08.55.01
"METAR","KMSP","2023-04-16T14:41:00Z",0,-2.2,16,340,"OVC",3,"KMSP 161441Z 34016G24KT 3SM BR BKN011 OVC018 00/M02 A2974 RMK AO2 PK WND 33031/1407 SNE22 P0001 T00001022",2023.04.16-09.55.01
"METAR","KMSP","2023-04-16T15:21:00Z",0.6,-2.2,20,350,"OVC",6,"KMSP 161521Z 35020G28KT 6SM HZ BKN016 OVC022 01/M02 A2974 RMK AO2 PK WND 35028/1519 T00061022",2023.04.16-10.55.01
"METAR","KMSP","2023-04-16T15:53:00Z",0.6,-2.8,19,350,"OVC",10,"KMSP 161553Z 35019G29KT 10SM BKN019 OVC024 01/M03 A2975 RMK AO2 PK WND 36029/1549 SLP080 T00061028",2023.04.16-11.55.01
"METAR","KMSP","2023-04-16T16:53:00Z",0,-2.8,15,330,"OVC",9,"KMSP 161653Z 33015G23KT 9SM -SN SCT018 BKN024 OVC029 00/M03 A2975 RMK AO2 PK WND 35029/1615 SNB27 SLP082 P0000 T00001028",2023.04.16-12.55.01
"METAR","KMSP","2023-04-16T18:38:00Z",0,-2.8,17,330,"OVC",4,"KMSP 161838Z 33017G28KT 4SM -SN BKN018 OVC029 00/M03 A2975 RMK AO2 PK WND 32030/1817 SNB34 P0000 T00001028",2023.04.16-13.55.01
"METAR","KMSP","2023-04-16T19:46:00Z",0.6,-1.7,13,330,"OVC",1.25,"KMSP 161946Z 33013KT 1 1/4SM -SN BR BKN011 OVC019 01/M02 A2975 RMK AO2 PK WND 34028/1932 TWR VIS 1 1/2 P0001 T00061017",2023.04.16-14.55.01
"METAR","KMSP","2023-04-16T20:24:00Z",0.6,-1.7,21,330,"OVC",1.5,"KMSP 162024Z 33021G30KT 1 1/2SM -SN BR BKN014 OVC022 01/M02 A2974 RMK AO2 PK WND 31035/2007 SFC VIS 1 3/4 P0001 T00061017",2023.04.16-15.55.01
"METAR","KMSP","2023-04-16T21:32:00Z",0.6,-2.2,21,340,"OVC",2,"KMSP 162132Z 34021G35KT 2SM -SN SCT014 BKN019 OVC034 01/M02 A2973 RMK AO2 PK WND 34035/2123 P0001 T00061022",2023.04.16-16.55.01
"METAR","KMSP","2023-04-16T22:23:00Z",0.6,-2.2,14,340,"OVC",1.75,"KMSP 162223Z 34014G30KT 1 3/4SM -SN SCT018 OVC023 01/M02 A2974 RMK AO2 PK WND 35031/2205 TWR VIS 2 P0001 T00061022",2023.04.16-17.55.01
"METAR","KMSP","2023-04-16T23:21:00Z",0.6,-2.2,16,340,"OVC",2,"KMSP 162321Z 34016G32KT 2SM -SN SCT020 BKN027 OVC035 01/M02 A2976 RMK AO2 PK WND 35032/2313 P0001 T00061022",2023.04.16-18.55.02
"METAR","KMSP","2023-04-16T23:53:00Z",0.6,-1.7,13,350,"OVC",2,"KMSP 162353Z 35013G22KT 2SM R30L/5000VP6000FT -SN BR SCT016 BKN022 OVC029 01/M02 A2976 RMK AO2 PK WND 32034/2329 SFC VIS 3 SLP087 P0001 60005 T00061017 10011 20000 53007",2023.04.16-19.55.01
"METAR","KMSP","2023-04-17T01:13:00Z",0.6,-2.2,19,340,"OVC",4,"KMSP 170113Z 34019G34KT 4SM -SN SCT017 OVC026 01/M02 A2976 RMK AO2 PK WND 35034/0104 P0000 T00061022",2023.04.16-20.55.01
"METAR","KMSP","2023-04-17T02:46:00Z",0.6,-2.2,21,340,"OVC",4,"KMSP 170246Z 34021G34KT 4SM -SN BKN014 OVC022 01/M02 A2976 RMK AO2 PK WND 34035/0154 P0002 T00061022",2023.04.16-21.55.01
"METAR","KMSP","2023-04-17T03:23:00Z",1.1,-2.2,24,330,"OVC",9,"KMSP 170323Z 33024G35KT 9SM BKN016 OVC024 01/M02 A2976 RMK AO2 PK WND 36035/0323 SNE22 P0000 T00111022",2023.04.16-22.55.01
"METAR","KMSP","2023-04-17T03:53:00Z",1.1,-2.8,17,330,"OVC",10,"KMSP 170353Z 33017G34KT 10SM BKN024 OVC028 01/M03 A2975 RMK AO2 PK WND 33036/0343 SNE22 SLP083 P0000 T00111028",2023.04.16-23.55.01
"METAR","KMSP","2023-04-17T05:23:00Z",1.1,-3.9,21,330,"OVC",10,"KMSP 170523Z 33021G32KT 10SM OVC030 01/M04 A2973 RMK AO2 PK WND 33032/0501 T00111039 $",2023.04.17-00.55.01
"METAR","KMSP","2023-04-17T05:53:00Z",1.1,-3.9,22,340,"OVC",10,"KMSP 170553Z 34022G38KT 10SM OVC030 01/M04 A2972 RMK AO2 PK WND 36038/0549 SLP073 60003 T00111039 10011 20000 400280000 58013 $",2023.04.17-01.55.01
"METAR","KMSP","2023-04-17T06:53:00Z",1.1,-3.9,13,330,"OVC",10,"KMSP 170653Z 33013G29KT 10SM OVC032 01/M04 A2972 RMK AO2 PK WND 32033/0603 SLP073 T00111039 $",2023.04.17-02.55.01
"METAR","KMSP","2023-04-17T07:53:00Z",0.6,-4.4,16,330,"OVC",10,"KMSP 170753Z 33016G27KT 10SM OVC034 01/M04 A2973 RMK AO2 PK WND 31029/0656 SLP075 T00061044 $",2023.04.17-03.55.01
"METAR","KMSP","2023-04-17T08:53:00Z",0.6,-5,17,330,"BKN",10,"KMSP 170853Z 33017G24KT 10SM BKN033 01/M05 A2973 RMK AO2 PK WND 34026/0818 SLP076 T00061050 53003 $",2023.04.17-04.55.01
"METAR","KMSP","2023-04-17T09:53:00Z",0,-5,17,320,"SCT",10,"KMSP 170953Z 32017G27KT 10SM SCT035 00/M05 A2973 RMK AO2 PK WND 32027/0951 SLP076 T00001050 $",2023.04.17-05.55.01
"METAR","KMSP","2023-04-17T10:53:00Z",0,-5.6,17,330,"FEW",10,"KMSP 171053Z 33017G36KT 10SM FEW035 00/M06 A2974 RMK AO2 PK WND 31036/1044 SLP078 T00001056 $",2023.04.17-06.55.01
"METAR","KMSP","2023-04-17T11:53:00Z",-0.6,-6.1,18,320,"SCT",10,"KMSP 171153Z 32018G25KT 10SM SCT035 M01/M06 A2975 RMK AO2 PK WND 33028/1110 SLP083 70009 T10061061 10011 21006 53006",2023.04.17-07.55.01
"METAR","KMSP","2023-04-17T12:53:00Z",0.6,-5.6,20,320,"FEW",10,"KMSP 171253Z 32020G30KT 10SM FEW035 FEW250 01/M06 A2977 RMK AO2 PK WND 32032/1202 SLP089 T00061056",2023.04.17-08.55.01
"METAR","KMSP","2023-04-17T13:53:00Z",1.1,-5.6,23,330,"FEW",10,"KMSP 171353Z 33023G34KT 10SM FEW029 FEW250 01/M06 A2978 RMK AO2 PK WND 32034/1329 SLP092 T00111056",2023.04.17-09.55.01
"METAR","KMSP","2023-04-17T17:53:00Z",6.7,-3.9,20,330,"FEW",10,"KMSP 171753Z 33020G28KT 10SM FEW035 07/M04 A2981 RMK AO2 PK WND 31032/1734 SLP103 T00671039 10067 21006 51012",2023.04.17-13.55.01
"METAR","KMSP","2023-04-17T18:53:00Z",7.2,-3.9,21,310,"FEW",10,"KMSP 171853Z 31021G30KT 10SM FEW040 07/M04 A2981 RMK AO2 PK WND 30033/1836 SLP101 T00721039",2023.04.17-14.55.01
"METAR","KMSP","2023-04-17T19:53:00Z",8.3,-4.4,19,310,"FEW",10,"KMSP 171953Z 31019G28KT 10SM FEW045 08/M04 A2980 RMK AO2 PK WND 30032/1902 SLP099 T00831044",2023.04.17-15.55.01
"METAR","KMSP","2023-04-17T20:53:00Z",9.4,-4.4,19,320,"FEW",10,"KMSP 172053Z 32019G29KT 10SM FEW045 09/M04 A2980 RMK AO2 PK WND 30031/2030 SLP096 T00941044 57005",2023.04.17-16.55.01
"METAR","KMSP","2023-04-17T21:53:00Z",10,-4.4,20,310,"FEW",10,"KMSP 172153Z 31020G27KT 10SM FEW045 10/M04 A2981 RMK AO2 PK WND 33029/2116 SLP101 T01001044",2023.04.17-17.55.01
"METAR","KMSP","2023-04-17T22:53:00Z",9.4,-5,18,330,"FEW",10,"KMSP 172253Z 33018G27KT 10SM FEW045 09/M05 A2982 RMK AO2 PK WND 33031/2206 SLP103 T00941050",2023.04.17-18.55.01
"METAR","KMSP","2023-04-17T23:53:00Z",8.9,-4.4,15,330,"FEW",10,"KMSP 172353Z 33015G23KT 10SM FEW045 09/M04 A2984 RMK AO2 PK WND 31028/2257 SLP110 T00891044 10100 20061 53013",2023.04.17-19.55.01
"METAR","KMSP","2023-04-18T00:53:00Z",7.8,-4.4,9,360,"FEW",10,"KMSP 180053Z 36009KT 10SM FEW045 08/M04 A2984 RMK AO2 SLP112 T00781044",2023.04.17-20.55.01
"METAR","KMSP","2023-04-18T01:53:00Z",6.7,-5,9,10,"CLR",10,"KMSP 180153Z 01009KT 10SM CLR 07/M05 A2986 RMK AO2 SLP119 T00671050",2023.04.17-21.55.01
"METAR","KMSP","2023-04-18T02:53:00Z",5.6,-5,6,360,"CLR",10,"KMSP 180253Z 36006KT 10SM CLR 06/M05 A2988 RMK AO2 SLP125 T00561050 53014",2023.04.17-22.55.02
"METAR","KMSP","2023-04-18T03:53:00Z",5.6,-4.4,4,340,"CLR",10,"KMSP 180353Z 34004KT 10SM CLR 06/M04 A2989 RMK AO2 SLP129 T00561044",2023.04.17-23.55.01
"METAR","KMSP","2023-04-18T04:53:00Z",3.9,-3.9,4,340,"CLR",10,"KMSP 180453Z 34004KT 10SM CLR 04/M04 A2990 RMK AO2 SLP131 T00391039",2023.04.18-00.55.01
"METAR","KMSP","2023-04-18T05:53:00Z",3.3,-4.4,4,320,"CLR",10,"KMSP 180553Z 32004KT 10SM CLR 03/M04 A2991 RMK AO2 SLP136 T00331044 10089 20033 401001006 53012",2023.04.18-01.55.01
"METAR","KMSP","2023-04-18T06:53:00Z",2.8,-4.4,3,340,"CLR",10,"KMSP 180653Z 34003KT 10SM CLR 03/M04 A2991 RMK AO2 SLP134 T00281044",2023.04.18-02.55.01
"METAR","KMSP","2023-04-18T07:53:00Z",1.7,-3.9,4,350,"CLR",10,"KMSP 180753Z 35004KT 10SM CLR 02/M04 A2991 RMK AO2 SLP135 T00171039",2023.04.18-03.55.01
"METAR","KMSP","2023-04-18T08:53:00Z",1.7,-4.4,0,0,"CLR",10,"KMSP 180853Z 00000KT 10SM CLR 02/M04 A2992 RMK AO2 SLP137 T00171044 53001",2023.04.18-04.55.01
"METAR","KMSP","2023-04-18T09:53:00Z",1.7,-4.4,0,0,"CLR",10,"KMSP 180953Z 00000KT 10SM CLR 02/M04 A2992 RMK AO2 SLP138 T00171044",2023.04.18-05.55.01
"METAR","KMSP","2023-04-18T10:53:00Z",1.1,-4.4,0,0,"CLR",10,"KMSP 181053Z 00000KT 10SM CLR 01/M04 A2994 RMK AO2 SLP145 T00111044",2023.04.18-06.55.01
"METAR","KMSP","2023-04-18T11:53:00Z",0.6,-3.9,0,0,"CLR",10,"KMSP 181153Z 00000KT 10SM CLR 01/M04 A2996 RMK AO2 SLP151 T00061039 10033 21006 53014",2023.04.18-07.55.01
"METAR","KMSP","2023-04-18T12:53:00Z",2.8,-3.3,3,30,"CLR",10,"KMSP 181253Z 03003KT 10SM CLR 03/M03 A2997 RMK AO2 SLP156 T00281033",2023.04.18-08.55.01
"METAR","KMSP","2023-04-18T13:53:00Z",5,-5,7,50,"CLR",10,"KMSP 181353Z 05007KT 10SM CLR 05/M05 A2998 RMK AO2 SLP158 T00501050",2023.04.18-09.55.01
"METAR","KMSP","2023-04-18T14:53:00Z",6.1,-6.7,5,50,"CLR",10,"KMSP 181453Z 05005KT 10SM CLR 06/M07 A2998 RMK AO2 SLP157 T00611067 50005",2023.04.18-10.55.01
"METAR","KMSP","2023-04-18T15:53:00Z",7.2,-7.2,5,0,"CLR",10,"KMSP 181553Z VRB05KT 10SM CLR 07/M07 A2999 RMK AO2 SLP159 T00721072",2023.04.18-11.55.01
"METAR","KMSP","2023-04-18T17:44:00Z",9.4,-7.2,3,0,"SCT",10,"KMSP 181744Z VRB03KT 10SM SCT250 09/M07 A2996 RMK AO2 T00941072",2023.04.18-12.55.01
"METAR","KMSP","2023-04-18T17:53:00Z",10,-6.7,4,0,"SCT",10,"KMSP 181753Z VRB04KT 10SM SCT250 10/M07 A2996 RMK AO2 SLP150 T01001067 10100 20006 58006",2023.04.18-13.55.01
"METAR","KMSP","2023-04-18T18:53:00Z",11.1,-7.8,9,90,"BKN",10,"KMSP 181853Z 09009KT 10SM BKN250 11/M08 A2995 RMK AO2 SLP145 T01111078",2023.04.18-14.55.01
"METAR","KMSP","2023-04-18T19:53:00Z",11.7,-6.7,4,0,"SCT",10,"KMSP 181953Z VRB04KT 10SM SCT250 12/M07 A2993 RMK AO2 SLP142 T01171067",2023.04.18-15.55.01
"METAR","KMSP","2023-04-18T20:53:00Z",12.8,-6.7,4,70,"SCT",10,"KMSP 182053Z 07004KT 10SM SCT250 13/M07 A2991 RMK AO2 SLP134 T01281067 58015",2023.04.18-16.55.01
"METAR","KMSP","2023-04-18T21:53:00Z",12.8,-6.1,4,120,"SCT",10,"KMSP 182153Z 12004KT 10SM SCT250 13/M06 A2990 RMK AO2 SLP129 T01281061",2023.04.18-17.55.01
"METAR","KMSP","2023-04-18T22:53:00Z",12.8,-5,7,110,"SCT",10,"KMSP 182253Z 11007G17KT 10SM SCT250 13/M05 A2990 RMK AO2 SLP129 T01281050",2023.04.18-18.55.01
"METAR","KMSP","2023-04-18T23:53:00Z",12.2,-4.4,9,110,"BKN",10,"KMSP 182353Z 11009KT 10SM FEW200 BKN250 12/M04 A2988 RMK AO2 SLP123 T01221044 10133 20094 58010",2023.04.18-19.55.01
"METAR","KMSP","2023-04-19T00:53:00Z",11.7,-3.9,8,120,"BKN",10,"KMSP 190053Z 12008KT 10SM SCT200 BKN250 12/M04 A2987 RMK AO2 SLP121 T01171039",2023.04.18-20.55.01
"METAR","KMSP","2023-04-19T01:53:00Z",10.6,-3.3,11,130,"OVC",10,"KMSP 190153Z 13011KT 10SM SCT210 OVC250 11/M03 A2989 RMK AO2 SLP126 T01061033",2023.04.18-21.55.01
"METAR","KMSP","2023-04-19T02:53:00Z",10,-2.8,10,150,"OVC",10,"KMSP 190253Z 15010KT 10SM FEW200 OVC250 10/M03 A2991 RMK AO2 SLP133 T01001028 53010",2023.04.18-22.55.01
"METAR","KMSP","2023-04-19T03:53:00Z",8.9,-3.3,14,140,"BKN",10,"KMSP 190353Z COR 14014KT 10SM BKN250 09/M03 A2993 RMK AO2 PK WND 14026/0336 SLP140 T00891033",2023.04.18-23.55.01
"METAR","KMSP","2023-04-19T04:53:00Z",7.8,-3.3,11,120,"BKN",10,"KMSP 190453Z 12011KT 10SM BKN250 08/M03 A2994 RMK AO2 SLP143 T00781033",2023.04.19-00.55.01
"METAR","KMSP","2023-04-19T06:40:00Z",7.2,-5.6,13,100,"BKN",10,"KMSP 190640Z 10013G24KT 10SM BKN210 07/M06 A2985 RMK AO2 PK WND 12026/0616 T00721056",2023.04.19-01.55.01
"METAR","KMSP","2023-04-19T06:53:00Z",7.2,-5.6,14,100,"BKN",10,"KMSP 190653Z 10014G20KT 10SM BKN210 07/M06 A2985 RMK AO2 PK WND 12026/0616 SLP113 T00721056",2023.04.19-02.55.01
"METAR","KMSP","2023-04-19T07:53:00Z",7.2,-6.7,15,100,"BKN",10,"KMSP 190753Z 10015G27KT 10SM BKN210 07/M07 A2985 RMK AO2 PK WND 13029/0732 SLP113 T00721067",2023.04.19-03.55.01
"METAR","KMSP","2023-04-19T08:53:00Z",7.2,-6.7,18,120,"OVC",10,"KMSP 190853Z 12018G28KT 10SM SCT065 OVC080 07/M07 A2986 RMK AO2 PK WND 13031/0836 SLP114 T00721067 55016",2023.04.19-04.55.01
"METAR","KMSP","2023-04-19T09:53:00Z",6.7,-6.1,13,100,"OVC",10,"KMSP 190953Z 10013G27KT 10SM OVC043 07/M06 A2986 RMK AO2 PK WND 12029/0925 SLP115 T00671061",2023.04.19-05.55.01
"METAR","KMSP","2023-04-19T10:53:00Z",5.6,-3.3,17,100,"OVC",10,"KMSP 191053Z 10017G31KT 10SM -RA BKN029 OVC080 06/M03 A2982 RMK AO2 PK WND 07031/1048 RAB39 SLP102 P0000 T00561033",2023.04.19-06.55.01
"METAR","KMSP","2023-04-19T11:53:00Z",3.9,-0.6,13,100,"OVC",5,"KMSP 191153Z 10013G24KT 5SM RA OVC022 04/M01 A2986 RMK AO2 PK WND 12028/1134 SLP115 P0006 60006 70006 T00391006 10072 20039 55000",2023.04.19-07.55.01
"METAR","KMSP","2023-04-19T13:08:00Z",2.8,1.1,13,80,"OVC",8,"KMSP 191308Z 08013KT 8SM -RA BKN013 OVC018 03/01 A2988 RMK AO2 P0002 T00280011",2023.04.19-08.55.01
"METAR","KMSP","2023-04-19T14:23:00Z",3.9,1.7,14,100,"OVC",10,"KMSP 191423Z 10014G37KT 10SM OVC012 04/02 A2982 RMK AO2 PK WND 08041/1413 PRESRR T00390017",2023.04.19-09.55.01
"METAR","KMSP","2023-04-19T14:53:00Z",4.4,1.7,15,90,"OVC",10,"KMSP 191453Z COR 09015G25KT 10SM OVC012 04/02 A2984 RMK AO2 PK WND 08041/1413 SLP109 60024 T00440017 55007",2023.04.19-10.55.01
"METAR","KMSP","2023-04-19T15:53:00Z",5,1.7,14,100,"OVC",10,"KMSP 191553Z 10014G24KT 10SM OVC014 05/02 A2987 RMK AO2 PK WND 14030/1518 SLP119 T00500017",2023.04.19-11.55.01
"METAR","KMSP","2023-04-19T16:53:00Z",5.6,1.7,19,100,"OVC",10,"KMSP 191653Z 10019G28KT 10SM OVC015 06/02 A2987 RMK AO2 PK WND 11030/1623 SLP119 T00560017",2023.04.19-12.55.01
"METAR","KMSP","2023-04-19T17:53:00Z",6.1,1.7,16,90,"OVC",10,"KMSP 191753Z 09016G25KT 10SM OVC016 06/02 A2987 RMK AO2 PK WND 09028/1707 SLP121 60024 T00610017 10061 20028 53002",2023.04.19-13.55.01
"METAR","KMSP","2023-04-19T18:53:00Z",6.7,1.7,17,110,"OVC",10,"KMSP 191853Z 11017G27KT 10SM OVC018 07/02 A2987 RMK AO2 PK WND 11028/1805 SLP119 T00670017",2023.04.19-14.55.02
"METAR","KMSP","2023-04-19T19:53:00Z",7.2,1.7,15,100,"OVC",10,"KMSP 191953Z 10015G31KT 10SM OVC019 07/02 A2986 RMK AO2 PK WND 09032/1934 SLP117 T00720017",2023.04.19-15.55.02
"METAR","KMSP","2023-04-19T20:53:00Z",7.2,1.7,14,110,"OVC",10,"KMSP 192053Z 11014G26KT 10SM OVC022 07/02 A2986 RMK AO2 PK WND 12027/2040 SLP115 T00720017 58005",2023.04.19-16.55.01
"METAR","KMSP","2023-04-19T21:53:00Z",7.2,1.7,14,90,"OVC",10,"KMSP 192153Z 09014G29KT 10SM OVC026 07/02 A2986 RMK AO2 PK WND 13029/2145 SLP115 T00720017",2023.04.19-17.55.01
"METAR","KMSP","2023-04-19T22:53:00Z",6.7,1.1,16,90,"OVC",10,"KMSP 192253Z 09016KT 10SM OVC024 07/01 A2985 RMK AO2 PK WND 08037/2210 SLP114 T00670011",2023.04.19-18.55.01
"METAR","KMSP","2023-04-19T23:53:00Z",6.7,1.1,20,100,"OVC",10,"KMSP 192353Z 10020G30KT 10SM BKN023 OVC028 07/01 A2985 RMK AO2 PK WND 11031/2305 SLP113 T00670011 10078 20061 58004",2023.04.19-19.55.01
"METAR","KMSP","2023-04-20T00:53:00Z",5.6,1.1,18,90,"OVC",10,"KMSP 200053Z 09018G28KT 10SM OVC028 06/01 A2980 RMK AO2 PK WND 08035/0042 LTG DSNT W RAB2354E32 PRESFR SLP096 P0000 T00560011",2023.04.19-20.55.01
"METAR","KMSP","2023-04-20T02:46:00Z",3.9,2.2,7,60,"OVC",4,"KMSP 200246Z 06007KT 4SM TSRA BR BKN016 OVC021CB 04/02 A2987 RMK AO2 PK WND 30027/0203 LTG DSNT ALQDS TSB12 CONS LTGICCCCG ALQDS TS ALQDS MOV NE P0025 T00390022",2023.04.19-21.55.01
"METAR","KMSP","2023-04-20T03:36:00Z",3.9,1.7,7,50,"OVC",10,"KMSP 200336Z 05007G16KT 10SM FEW006 OVC021 04/02 A2986 RMK AO2 LTG DSNT ALQDS RAE23 P0002 T00390017",2023.04.19-22.55.02
"METAR","KMSP","2023-04-20T04:46:00Z",3.3,1.7,8,10,"OVC",10,"KMSP 200446Z COR 01008KT 10SM TS OVC015CB 03/02 A2987 RMK AO2 LTG DSNT ALQDS RAB21E41 TSB46 TS OHD MOV NE P0000 T00330017",2023.04.19-23.55.02
"METAR","KMSP","2023-04-20T05:36:00Z",3.3,1.7,11,60,"OVC",10,"KMSP 200536Z 06011G19KT 10SM OVC012 03/02 A2988 RMK AO2 LTG DSNT N-E RAE14 TSE13 P0007 T00330017",2023.04.20-00.55.01
"METAR","KMSP","2023-04-20T06:08:00Z",3.3,1.1,12,80,"OVC",10,"KMSP 200608Z 08012KT 10SM SCT018 BKN034 OVC050 03/01 A2986 RMK AO2 LTG DSNT E RAE07 P0000 T00330011",2023.04.20-01.55.01
"METAR","KMSP","2023-04-20T07:22:00Z",3.3,1.7,15,100,"OVC",10,"KMSP 200722Z 10015KT 10SM -RA FEW008 OVC075 03/02 A2981 RMK AO2 LTG DSNT SE AND S P0000 T00330017",2023.04.20-02.55.01
"METAR","KMSP","2023-04-20T08:32:00Z",2.8,1.1,18,90,"OVC",3,"KMSP 200832Z 09018G28KT 3SM -RA BR BKN008 OVC050 03/01 A2973 RMK AO2 PK WND 09028/0832 PRESFR P0009 T00280011",2023.04.20-03.55.01
"METAR","KMSP","2023-04-20T09:15:00Z",3.3,1.7,4,0,"OVC",10,"KMSP 200915Z VRB04G18KT 10SM OVC011 03/02 A2975 RMK AO2 PK WND 09033/0856 P0001 T00330017",2023.04.20-04.55.01
"METAR","KMSP","2023-04-20T09:53:00Z",3.3,1.7,8,10,"OVC",10,"KMSP 200953Z 01008KT 10SM OVC012 03/02 A2974 RMK AO2 PK WND 09033/0856 SLP077 P0001 T00330017",2023.04.20-05.55.01
"METAR","KMSP","2023-04-20T11:34:00Z",3.9,1.7,4,60,"OVC",10,"KMSP 201134Z 06004KT 10SM OVC015 04/02 A2979 RMK AO2 T00390017",2023.04.20-06.55.01
"METAR","KMSP","2023-04-20T12:36:00Z",3.9,1.7,7,40,"OVC",10,"KMSP 201236Z 04007KT 10SM OVC014 04/02 A2975 RMK AO2 T00390017",2023.04.20-07.55.01
"METAR","KMSP","2023-04-20T12:53:00Z",3.9,1.7,7,50,"OVC",10,"KMSP 201253Z 05007KT 10SM OVC014 04/02 A2975 RMK AO2 SLP080 T00390017",2023.04.20-08.55.01
"METAR","KMSP","2023-04-20T14:33:00Z",4.4,2.2,11,70,"OVC",10,"KMSP 201433Z 07011KT 10SM OVC009 04/02 A2972 RMK AO2 PK WND 05026/1410 T00440022",2023.04.20-09.55.01
"METAR","KMSP","2023-04-20T15:22:00Z",4.4,2.2,12,70,"OVC",7,"KMSP 201522Z 07012KT 7SM -RA OVC007 04/02 A2968 RMK AO2 RAB1459 PRESFR P0001 T00440022",2023.04.20-10.55.01
"METAR","KMSP","2023-04-20T15:53:00Z",4.4,2.8,13,100,"OVC",5,"KMSP 201553Z 10013G19KT 5SM RA BR OVC009 04/03 A2968 RMK AO2 RAB1459 SLP055 P0007 T00440028",2023.04.20-11.55.01
"METAR","KMSP","2023-04-20T17:10:00Z",5,3.3,9,70,"OVC",8,"KMSP 201710Z 07009KT 8SM -RA OVC011 05/03 A2962 RMK AO2 PK WND 07026/1655 P0002 T00500033",2023.04.20-12.55.01
"METAR","KMSP","2023-04-20T18:36:00Z",5.6,3.9,3,10,"OVC",4,"KMSP 201836Z 01003KT 4SM R30L/4000VP6000FT RA BR BKN008 OVC017 06/04 A2964 RMK AO2 P0012 T00560039",2023.04.20-13.55.01
"METAR","KMSP","2023-04-20T19:24:00Z",5.6,3.9,7,320,"OVC",5,"KMSP 201924Z 32007KT 5SM -DZ BR BKN008 OVC013 06/04 A2963 RMK AO2 RAE23DZB24 P0000 T00560039",2023.04.20-14.55.01
"METAR","KMSP","2023-04-20T20:49:00Z",6,5,6,270,"OVC",8,"KMSP 202049Z 27006KT 8SM -RA FEW007 BKN020 OVC027 06/05 A2965 RMK AO2 DZE1957RAB07 P0002",2023.04.20-15.55.02
"METAR","KMSP","2023-04-20T20:53:00Z",6.1,4.4,7,260,"OVC",10,"KMSP 202053Z 26007KT 10SM -RA FEW007 BKN020 OVC029 06/04 A2966 RMK AO2 DZE1957RAB07 SLP049 P0003 60017 T00610044 53005",2023.04.20-16.55.01
"METAR","KMSP","2023-04-20T21:53:00Z",5.6,3.3,12,260,"OVC",9,"KMSP 202153Z 26012KT 9SM BKN012 OVC019 06/03 A2967 RMK AO2 RAE2055 SLP053 P0000 T00560033",2023.04.20-17.55.01
"METAR","KMSP","2023-04-20T22:53:00Z",3.9,1.7,15,260,"OVC",10,"KMSP 202253Z 26015G28KT 10SM BKN014 OVC046 04/02 A2970 RMK AO2 PK WND 26028/2246 SLP063 T00390017",2023.04.20-18.55.01
"METAR","KMSP","2023-04-21T00:02:00Z",3.9,0.6,16,270,"OVC",10,"KMSP 210002Z 27016G31KT 10SM SCT014 OVC020 04/01 A2973 RMK AO2 PK WND 26031/2354 T00390006",2023.04.20-19.55.01
"METAR","KMSP","2023-04-21T00:53:00Z",3.9,-0.6,12,260,"OVC",10,"KMSP 210053Z 26012G26KT 10SM FEW019 BKN028 OVC050 04/M01 A2976 RMK AO2 PK WND 27034/0033 SLP083 T00391006",2023.04.20-20.55.01
"METAR","KMSP","2023-04-21T01:53:00Z",3.3,0,12,260,"OVC",10,"KMSP 210153Z 26012G26KT 10SM -RA BKN017 BKN023 OVC034 03/00 A2978 RMK AO2 PK WND 26031/0123 RAB40 SLP091 P0000 T00330000",2023.04.20-21.55.01
"METAR","KMSP","2023-04-21T03:42:00Z",3.3,0.6,10,250,"OVC",10,"KMSP 210342Z 25010G18KT 10SM SCT015 OVC021 03/01 A2977 RMK AO2 PK WND 27026/0323 T00330006",2023.04.20-22.55.01
"METAR","KMSP","2023-04-21T03:53:00Z",3.3,0.6,11,240,"OVC",10,"KMSP 210353Z 24011KT 10SM BKN015 OVC021 03/01 A2977 RMK AO2 PK WND 27026/0323 SLP089 T00330006",2023.04.20-23.55.01
"METAR","KMSP","2023-04-21T05:44:00Z",3.3,0,10,240,"OVC",10,"KMSP 210544Z 24010KT 10SM SCT019 OVC060 03/00 A2977 RMK AO2 T00330000",2023.04.21-00.55.01
"METAR","KMSP","2023-04-21T06:48:00Z",4,1,10,230,"OVC",10,"KMSP 210648Z 23010G26KT 10SM SCT020 BKN024 OVC055 04/01 A2978 RMK AO2 PK WND 25026/0639",2023.04.21-01.55.01
"METAR","KMSP","2023-04-21T07:45:00Z",3.9,0.6,9,220,"OVC",10,"KMSP 210745Z 22009KT 10SM BKN021 OVC034 04/01 A2977 RMK AO2 PK WND 23027/0715 RAB11E21 P0000 T00390006",2023.04.21-02.55.01
"METAR","KMSP","2023-04-21T08:36:00Z",3.3,0,8,210,"OVC",10,"KMSP 210836Z 21008KT 10SM FEW023 BKN033 OVC043 03/00 A2975 RMK AO2 T00330000",2023.04.21-03.55.01
"METAR","KMSP","2023-04-21T08:53:00Z",3.9,-0.6,10,230,"OVC",10,"KMSP 210853Z 23010KT 10SM BKN036 OVC050 04/M01 A2974 RMK AO2 SLP077 60000 T00391006 58011",2023.04.21-04.55.01
"METAR","KMSP","2023-04-21T10:27:00Z",3.3,-1.1,12,240,"OVC",10,"KMSP 211027Z 24012KT 10SM BKN026 OVC034 03/M01 A2971 RMK AO2 PK WND 27028/1008 RAB14E20 P0000 T00331011",2023.04.21-05.55.01
"METAR","KMSP","2023-04-21T10:53:00Z",3.3,-1.1,12,230,"OVC",10,"KMSP 211053Z 23012G26KT 10SM BKN024 OVC032 03/M01 A2970 RMK AO2 PK WND 27028/1008 RAB14E20 SLP065 P0000 T00331011",2023.04.21-06.55.01
"METAR","KMSP","2023-04-21T11:53:00Z",2.8,-1.1,16,240,"OVC",10,"KMSP 211153Z 24016G30KT 10SM OVC022 03/M01 A2971 RMK AO2 PK WND 26031/1137 RAB28E35 SLP067 P0000 60000 70038 T00281011 10039 20028 55011",2023.04.21-07.55.01
"METAR","KMSP","2023-04-21T13:37:00Z",2.8,-1.7,11,250,"OVC",10,"KMSP 211337Z 25011G22KT 10SM -SN OVC019 03/M02 A2973 RMK AO2 SNB37 P0000 T00281017",2023.04.21-08.55.01
"METAR","KMSP","2023-04-21T14:27:00Z",2.8,-1.1,12,250,"OVC",9,"KMSP 211427Z 25012G19KT 9SM BKN017 BKN026 OVC032 03/M01 A2972 RMK AO2 PK WND 27026/1413 SNB13E27 PRESENT WX VCSH P0000 T00281011",2023.04.21-09.55.01
"METAR","KMSP","2023-04-21T15:11:00Z",2.8,-1.7,13,260,"OVC",10,"KMSP 211511Z 26013G25KT 10SM FEW023 BKN037 OVC100 03/M02 A2972 RMK AO2 PK WND 24027/1458 SNB00E11 P0000 T00281017",2023.04.21-10.55.01
"METAR","KMSP","2023-04-21T16:22:00Z",3.3,-1.1,13,260,"OVC",9,"KMSP 211622Z 26013G27KT 9SM BKN023 BKN029 OVC036 03/M01 A2973 RMK AO2 PK WND 27031/1605 SNB10E21 PRESENT WX VCSH P0000 T00331011",2023.04.21-11.55.01
"METAR","KMSP","2023-04-21T17:45:00Z",3.3,-0.6,14,270,"OVC",9,"KMSP 211745Z 27014G26KT 9SM GS FEW026 BKN040 OVC055 03/M01 A2974 RMK AO2 PK WND 26030/1700 SNE04B27E43GSB28 GS LGT P0001 T00331006",2023.04.21-12.55.01
"METAR","KMSP","2023-04-21T17:57:00Z",3.9,0,10,260,"OVC",9,"KMSP 211757Z 26010KT 9SM FEW025 BKN036 OVC050 04/00 A2974 RMK AO2 GSE57 PRESENT WX VCSH P0000 T00390000",2023.04.21-13.55.01
"METAR","KMSP","2023-04-21T18:53:00Z",5,-3.3,16,250,"BKN",10,"KMSP 211853Z 25016G27KT 10SM BKN037 BKN047 BKN095 BKN250 05/M03 A2975 RMK AO2 PK WND 26028/1838 GSE1757 SLP080 PRESENT WX VCSH P0000 T00501033",2023.04.21-14.55.01
"METAR","KMSP","2023-04-21T19:53:00Z",5,-3.3,17,280,"OVC",10,"KMSP 211953Z 28017G27KT 10SM FEW040 SCT047 OVC055 05/M03 A2976 RMK AO2 PK WND 26031/1919 RAB18E28SNB50E53 SLP085 P0000 T00501033",2023.04.21-15.55.01
"METAR","KMSP","2023-04-21T20:53:00Z",4.4,-5,12,270,"BKN",10,"KMSP 212053Z 27012G28KT 10SM FEW045 BKN060 04/M05 A2976 RMK AO2 PK WND 27031/2021 SLP085 60000 T00441050 51007",2023.04.21-16.55.01
"METAR","KMSP","2023-04-21T21:53:00Z",3.9,-5,16,280,"BKN",10,"KMSP 212153Z 28016G27KT 10SM BKN044 BKN060 04/M05 A2977 RMK AO2 PK WND 26030/2119 SLP087 T00391050",2023.04.21-17.55.01
"METAR","KMSP","2023-04-21T22:53:00Z",3.3,-3.9,11,290,"BKN",10,"KMSP 212253Z 29011KT 10SM SCT031 SCT041 BKN048 03/M04 A2977 RMK AO2 PK WND 26028/2207 SLP088 T00331039",2023.04.21-18.55.01
"METAR","KMSP","2023-04-22T00:37:00Z",1.7,-2.8,10,300,"OVC",8,"KMSP 220037Z 30010KT 8SM SCT023 BKN031 OVC038 02/M03 A2979 RMK AO2 SNE05B29E37 P0000 T00171028",2023.04.21-19.55.01
"METAR","KMSP","2023-04-22T01:44:00Z",1.1,-3.3,9,290,"OVC",10,"KMSP 220144Z 29009KT 10SM BKN050 OVC070 01/M03 A2980 RMK AO2 SNB26E36 P0000 T00111033",2023.04.21-20.55.01
"METAR","KMSP","2023-04-22T02:22:00Z",1.1,-2.2,10,270,"BKN",10,"KMSP 220222Z 27010KT 10SM BKN048 01/M02 A2981 RMK AO2 SNE04 P0000 T00111022",2023.04.21-21.55.01
"METAR","KMSP","2023-04-22T03:29:00Z",1.1,-2.8,10,290,"OVC",10,"KMSP 220329Z 29010KT 10SM SCT021 BKN029 OVC095 01/M03 A2982 RMK AO2 T00111028",2023.04.21-22.55.01
"METAR","KMSP","2023-04-22T04:31:00Z",0.6,-3.3,15,310,"OVC",10,"KMSP 220431Z 31015KT 10SM BKN022 BKN027 OVC040 01/M03 A2982 RMK AO2 T00061033",2023.04.21-23.55.01
"METAR","KMSP","2023-04-22T05:43:00Z",0.6,-2.8,10,320,"OVC",10,"KMSP 220543Z 32010KT 10SM -SN BKN018 OVC026 01/M03 A2982 RMK AO2 SNB0456E02B43 P0000 T00061028",2023.04.22-00.55.01
"METAR","KMSP","2023-04-22T05:53:00Z",0.6,-3.3,9,310,"OVC",9,"KMSP 220553Z 31009KT 9SM -SN BKN018 OVC022 01/M03 A2982 RMK AO2 SNB0456E02B43 SLP105 P0000 60000 T00061033 10028 20006 400560006 50000",2023.04.22-01.55.01
"METAR","KMSP","2023-04-22T06:53:00Z",0.6,-3.3,11,320,"OVC",8,"KMSP 220653Z 32011KT 8SM -SN SCT016 BKN021 OVC035 01/M03 A2982 RMK AO2 SLP105 P0000 T00061033",2023.04.22-02.55.01
"METAR","KMSP","2023-04-22T08:43:00Z",0,-2.2,9,310,"OVC",5,"KMSP 220843Z 31009KT 5SM -SN BR FEW008 BKN012 OVC019 00/M02 A2982 RMK AO2 P0000 T00001022",2023.04.22-03.55.01
"METAR","KMSP","2023-04-22T08:53:00Z",0,-2.2,12,310,"OVC",6,"KMSP 220853Z 31012KT 6SM -SN BR OVC012 00/M02 A2982 RMK AO2 SLP107 P0000 60000 T00001022 53002",2023.04.22-04.55.01
"METAR","KMSP","2023-04-22T10:50:00Z",1,-2,12,330,"OVC",9,"KMSP 221050Z 33012KT 9SM -SN OVC015 01/M02 A2984 RMK AO2 P0000",2023.04.22-05.55.01
"METAR","KMSP","2023-04-22T10:53:00Z",0.6,-2.2,12,320,"OVC",9,"KMSP 221053Z 32012KT 9SM OVC015 01/M02 A2984 RMK AO2 SNE51 SLP113 P0000 T00061022",2023.04.22-06.55.01
"METAR","KMSP","2023-04-22T12:41:00Z",0,-2.2,13,330,"OVC",8,"KMSP 221241Z 33013G21KT 8SM OVC015 00/M02 A2989 RMK AO2 SNB26E41 P0000 I1000 T00001022",2023.04.22-07.55.01
"METAR","KMSP","2023-04-22T13:40:00Z",-0.6,-2.2,14,320,"OVC",3,"KMSP 221340Z 32014KT 3SM -SN BR BKN013 OVC019 M01/M02 A2991 RMK AO2 SNB14 P0000 T10061022",2023.04.22-08.55.01
"METAR","KMSP","2023-04-22T14:32:00Z",0,-2.8,17,330,"OVC",6,"KMSP 221432Z 33017KT 6SM BR OVC015 00/M03 A2992 RMK AO2 PK WND 34027/1420 DZB22E32SNE1357B22E32 VIS NE-SE 4 P0000 T00001028",2023.04.22-09.55.01
"METAR","KMSP","2023-04-22T14:53:00Z",0,-2.8,17,330,"OVC",10,"KMSP 221453Z 33017G24KT 10SM BKN017 OVC023 00/M03 A2992 RMK AO2 PK WND 34027/1420 DZB22E32SNE1357B22E32 SLP141 P0000 60000 I3000 T00001028 51019",2023.04.22-10.55.01
"METAR","KMSP","2023-04-22T15:53:00Z",1.1,-3.9,12,350,"OVC",10,"KMSP 221553Z 35012G21KT 10SM OVC021 01/M04 A2993 RMK AO2 SLP145 T00111039",2023.04.22-11.55.01
"METAR","KMSP","2023-04-22T16:53:00Z",1.7,-4.4,15,330,"OVC",10,"KMSP 221653Z 33015G20KT 300V360 10SM OVC024 02/M04 A2994 RMK AO2 SLP148 T00171044",2023.04.22-12.55.01
"METAR","KMSP","2023-04-22T17:53:00Z",1.7,-5,13,340,"OVC",10,"KMSP 221753Z 34013KT 10SM OVC027 02/M05 A2996 RMK AO2 SLP153 60000 I6000 T00171050 10017 21006 53012",2023.04.22-13.55.01
"METAR","KMSP","2023-04-22T18:53:00Z",1.7,-5,16,340,"OVC",10,"KMSP 221853Z 34016KT 10SM OVC028 02/M05 A2997 RMK AO2 SLP157 T00171050",2023.04.22-14.55.01
"METAR","KMSP","2023-04-22T19:53:00Z",1.7,-5,16,310,"OVC",10,"KMSP 221953Z 31016G23KT 10SM OVC030 02/M05 A2998 RMK AO2 SLP160 T00171050",2023.04.22-15.55.01
"METAR","KMSP","2023-04-22T20:53:00Z",1.7,-5.6,11,310,"OVC",10,"KMSP 222053Z 31011KT 10SM OVC031 02/M06 A2998 RMK AO2 SLP163 T00171056 51009",2023.04.22-16.55.01
"METAR","KMSP","2023-04-22T21:53:00Z",1.7,-5.6,14,320,"OVC",10,"KMSP 222153Z 32014G19KT 10SM OVC030 02/M06 A2999 RMK AO2 SLP165 T00171056",2023.04.22-17.55.01
"METAR","KMSP","2023-04-22T22:53:00Z",1.7,-6.1,14,330,"OVC",10,"KMSP 222253Z 33014G18KT 10SM OVC034 02/M06 A3000 RMK AO2 SLP168 T00171061",2023.04.22-18.55.01
"METAR","KMSP","2023-04-22T23:53:00Z",1.7,-6.1,14,320,"OVC",10,"KMSP 222353Z 32014G22KT 10SM OVC035 02/M06 A3001 RMK AO2 SLP170 T00171061 10028 20011 53007",2023.04.22-19.55.01
"METAR","KMSP","2023-04-23T00:53:00Z",1.7,-6.7,10,330,"OVC",10,"KMSP 230053Z 33010KT 10SM OVC035 02/M07 A3002 RMK AO2 SLP176 T00171067",2023.04.22-20.55.01
"METAR","KMSP","2023-04-23T01:53:00Z",1.7,-6.1,11,350,"OVC",10,"KMSP 230153Z 35011KT 10SM OVC043 02/M06 A3004 RMK AO2 SLP181 T00171061",2023.04.22-21.55.01
"METAR","KMSP","2023-04-23T02:53:00Z",1.7,-6.1,10,330,"OVC",10,"KMSP 230253Z 33010KT 10SM OVC045 02/M06 A3005 RMK AO2 SLP184 T00171061 51013",2023.04.22-22.55.01
"METAR","KMSP","2023-04-23T03:53:00Z",1.7,-5.6,8,340,"OVC",10,"KMSP 230353Z 34008KT 10SM -SN OVC039 02/M06 A3005 RMK AO2 SNB50 SLP184 P0000 T00171056",2023.04.22-23.55.01
"METAR","KMSP","2023-04-23T04:53:00Z",1.7,-5.6,8,330,"OVC",9,"KMSP 230453Z 33008KT 9SM -SN OVC050 02/M06 A3005 RMK AO2 SLP183 P0000 T00171056",2023.04.23-00.55.01
"METAR","KMSP","2023-04-23T05:53:00Z",1.7,-5.6,10,320,"OVC",10,"KMSP 230553Z 32010KT 10SM OVC050 02/M06 A3005 RMK AO2 SNE04 SLP184 P0000 60000 T00171056 10017 20011 400281006 55000",2023.04.23-01.55.01
"METAR","KMSP","2023-04-23T06:53:00Z",1.7,-5.6,8,330,"OVC",10,"KMSP 230653Z 33008KT 10SM OVC055 02/M06 A3004 RMK AO2 SLP183 T00171056",2023.04.23-02.55.01
"METAR","KMSP","2023-04-23T07:53:00Z",1.1,-5,7,310,"OVC",10,"KMSP 230753Z 31007KT 10SM OVC060 01/M05 A3005 RMK AO2 SLP184 T00111050",2023.04.23-03.55.01
"METAR","KMSP","2023-04-23T08:53:00Z",0,-5,10,310,"SCT",10,"KMSP 230853Z 31010KT 10SM SCT060 00/M05 A3005 RMK AO2 SLP186 T00001050 53002",2023.04.23-04.55.01
"METAR","KMSP","2023-04-23T09:53:00Z",-0.6,-5.6,9,320,"CLR",10,"KMSP 230953Z 32009KT 10SM CLR M01/M06 A3006 RMK AO2 SLP190 T10061056",2023.04.23-05.55.01
"METAR","KMSP","2023-04-23T10:53:00Z",-1.1,-5,6,320,"CLR",10,"KMSP 231053Z 32006KT 10SM CLR M01/M05 A3006 RMK AO2 SLP189 T10111050",2023.04.23-06.55.01
"METAR","KMSP","2023-04-23T11:53:00Z",-1.1,-5,8,330,"FEW",10,"KMSP 231153Z 33008KT 10SM FEW250 M01/M05 A3007 RMK AO2 SLP193 T10111050 10017 21017 53007",2023.04.23-07.55.01
"METAR","KMSP","2023-04-23T12:53:00Z",0,-4.4,7,330,"FEW",10,"KMSP 231253Z 33007KT 10SM FEW250 00/M04 A3009 RMK AO2 SLP199 T00001044",2023.04.23-08.55.01
"METAR","KMSP","2023-04-23T13:53:00Z",1.7,-4.4,6,320,"SCT",10,"KMSP 231353Z 32006KT 10SM SCT250 02/M04 A3010 RMK AO2 SLP201 T00171044",2023.04.23-09.55.01
"METAR","KMSP","2023-04-23T14:53:00Z",3.3,-3.9,5,330,"SCT",10,"KMSP 231453Z 33005KT 10SM FEW032 SCT250 03/M04 A3010 RMK AO2 SLP201 T00331039 51008",2023.04.23-10.55.01
"METAR","KMSP","2023-04-23T15:53:00Z",3.9,-5.6,9,310,"BKN",10,"KMSP 231553Z 31009KT 10SM BKN037 04/M06 A3010 RMK AO2 SLP202 T00391056",2023.04.23-11.55.01
"METAR","KMSP","2023-04-23T16:53:00Z",3.9,-6.1,8,310,"OVC",10,"KMSP 231653Z 31008KT 10SM BKN042 OVC055 04/M06 A3010 RMK AO2 SLP201 T00391061",2023.04.23-12.55.01
"METAR","KMSP","2023-04-23T17:53:00Z",4.4,-6.7,10,240,"OVC",10,"KMSP 231753Z 24010KT 10SM BKN045 OVC055 04/M07 A3010 RMK AO2 SLP199 T00441067 10056 21011 58001",2023.04.23-13.55.01
"METAR","KMSP","2023-04-23T18:53:00Z",5.6,-6.7,7,280,"OVC",10,"KMSP 231853Z 28007G18KT 10SM SCT047 OVC055 06/M07 A3009 RMK AO2 SLP197 T00561067",2023.04.23-14.55.01
"METAR","KMSP","2023-04-23T19:53:00Z",5.6,-6.7,8,280,"OVC",10,"KMSP 231953Z 28008KT 10SM OVC048 06/M07 A3009 RMK AO2 SLP195 T00561067",2023.04.23-15.55.01
"METAR","KMSP","2023-04-23T20:53:00Z",6.7,-7.2,11,270,"BKN",10,"KMSP 232053Z 27011KT 10SM BKN055 07/M07 A3008 RMK AO2 SLP193 T00671072 56006",2023.04.23-16.55.01
"METAR","KMSP","2023-04-23T21:53:00Z",7.2,-7.2,9,270,"BKN",10,"KMSP 232153Z 27009G16KT 10SM BKN060 07/M07 A3008 RMK AO2 SLP192 T00721072",2023.04.23-17.55.01
"METAR","KMSP","2023-04-23T22:53:00Z",6.1,-7.8,5,310,"BKN",10,"KMSP 232253Z 31005KT 10SM BKN065 06/M08 A3008 RMK AO2 SLP196 T00611078",2023.04.23-18.55.02
"METAR","KMSP","2023-04-23T23:53:00Z",6.1,-7.8,3,300,"BKN",10,"KMSP 232353Z 30003KT 10SM BKN060 06/M08 A3008 RMK AO2 SLP195 T00611078 10072 20044 53001",2023.04.23-19.55.01
"METAR","KMSP","2023-04-24T00:53:00Z",5.6,-7.2,4,260,"BKN",10,"KMSP 240053Z COR 26004KT 10SM SCT060 BKN250 06/M07 A3009 RMK AO2 SLP197 T00561072",2023.04.23-20.55.01
"METAR","KMSP","2023-04-24T01:53:00Z",5.6,-7.2,3,270,"BKN",10,"KMSP 240153Z 27003KT 10SM SCT060 BKN110 BKN250 06/M07 A3010 RMK AO2 SLP199 T00561072",2023.04.23-21.55.01
"METAR","KMSP","2023-04-24T02:53:00Z",5,-6.7,3,220,"SCT",10,"KMSP 240253Z 22003KT 10SM SCT070 SCT090 05/M07 A3010 RMK AO2 SLP201 T00501067 53006",2023.04.23-22.55.01
"METAR","KMSP","2023-04-24T03:53:00Z",4.4,-6.1,0,0,"BKN",10,"KMSP 240353Z 00000KT 10SM FEW070 BKN090 04/M06 A3010 RMK AO2 SLP199 T00441061",2023.04.23-23.55.01
"METAR","KMSP","2023-04-24T04:53:00Z",4.4,-5.6,4,250,"OVC",10,"KMSP 240453Z 25004KT 10SM BKN055 OVC070 04/M06 A3010 RMK AO2 SLP200 T00441056",2023.04.24-00.55.01
"METAR","KMSP","2023-04-24T05:53:00Z",3.9,-3.9,4,330,"OVC",10,"KMSP 240553Z 33004KT 10SM BKN050 OVC070 04/M04 A3010 RMK AO2 SLP199 T00391039 10061 20039 400721017 56002",2023.04.24-01.55.01
"METAR","KMSP","2023-04-24T06:53:00Z",3.3,-3.9,3,270,"SCT",10,"KMSP 240653Z 27003KT 10SM SCT110 03/M04 A3010 RMK AO2 SLP199 T00331039",2023.04.24-02.55.01
"METAR","KMSP","2023-04-24T07:53:00Z",2.2,-3.3,5,290,"OVC",10,"KMSP 240753Z 29005KT 10SM OVC110 02/M03 A3010 RMK AO2 SLP202 T00221033",2023.04.24-03.55.01
"METAR","KMSP","2023-04-24T08:53:00Z",1.1,-3.3,4,290,"OVC",10,"KMSP 240853Z 29004KT 10SM FEW065 BKN090 OVC100 01/M03 A3011 RMK AO2 SLP204 T00111033 53005",2023.04.24-04.55.01
"METAR","KMSP","2023-04-24T09:53:00Z",1.1,-2.8,4,320,"OVC",10,"KMSP 240953Z 32004KT 10SM OVC090 01/M03 A3012 RMK AO2 SLP207 T00111028",2023.04.24-05.55.01
"METAR","KMSP","2023-04-24T10:53:00Z",1.1,-2.2,4,280,"SCT",10,"KMSP 241053Z 28004KT 10SM SCT070 01/M02 A3013 RMK AO2 SLP211 T00111022",2023.04.24-06.55.01
"METAR","KMSP","2023-04-24T11:53:00Z",1.1,-1.7,3,310,"SCT",10,"KMSP 241153Z 31003KT 10SM FEW065 SCT095 01/M02 A3015 RMK AO2 SLP217 T00111017 10039 20000 53013",2023.04.24-07.55.01
"METAR","KMSP","2023-04-24T12:53:00Z",2.8,-0.6,3,0,"FEW",10,"KMSP 241253Z VRB03KT 10SM FEW015 FEW065 03/M01 A3016 RMK AO2 SLP220 T00281006",2023.04.24-08.55.01
"METAR","KMSP","2023-04-24T13:53:00Z",4.4,-0.6,0,0,"FEW",10,"KMSP 241353Z 00000KT 10SM FEW020 04/M01 A3015 RMK AO2 SLP217 T00441006",2023.04.24-09.55.01
"METAR","KMSP","2023-04-24T14:53:00Z",6.1,-1.1,5,20,"SCT",10,"KMSP 241453Z 02005KT 10SM SCT025 06/M01 A3015 RMK AO2 SLP217 T00611011 50001",2023.04.24-10.55.01
"METAR","KMSP","2023-04-24T15:53:00Z",5.6,-3.3,6,30,"BKN",10,"KMSP 241553Z COR 03006KT 10SM FEW033 BKN060 06/M03 A3016 RMK AO2 SLP219 T00561033",2023.04.24-11.55.01
"METAR","KMSP","2023-04-24T16:53:00Z",6.1,-5.6,3,0,"BKN",10,"KMSP 241653Z VRB03KT 10SM FEW049 BKN065 06/M06 A3015 RMK AO2 SLP216 T00611056",2023.04.24-12.55.01
"METAR","KMSP","2023-04-24T17:53:00Z",8.3,-5,7,270,"BKN",10,"KMSP 241753Z 27007KT 10SM FEW048 BKN070 08/M05 A3014 RMK AO2 SLP211 T00831050 10083 20011 58005",2023.04.24-13.55.01
"METAR","KMSP","2023-04-24T18:53:00Z",8.9,-5.6,3,0,"BKN",10,"KMSP 241853Z VRB03KT 10SM SCT060 BKN070 09/M06 A3013 RMK AO2 SLP208 T00891056",2023.04.24-14.55.02
"METAR","KMSP","2023-04-24T19:53:00Z",8.9,-5,7,360,"BKN",10,"KMSP 241953Z 36007G17KT 10SM BKN055 BKN070 09/M05 A3012 RMK AO2 SLP206 T00891050",2023.04.24-15.55.01
"METAR","KMSP","2023-04-24T20:53:00Z",8.3,-6.1,4,0,"BKN",10,"KMSP 242053Z VRB04KT 10SM BKN055 BKN070 08/M06 A3011 RMK AO2 SLP204 T00831061 56007",2023.04.24-16.55.01
"METAR","KMSP","2023-04-24T21:53:00Z",8.3,-5,11,30,"BKN",10,"KMSP 242153Z 03011KT 10SM BKN065 08/M05 A3011 RMK AO2 SLP204 T00831050",2023.04.24-17.55.01
"METAR","KMSP","2023-04-24T22:53:00Z",7.8,-5.6,5,0,"BKN",10,"KMSP 242253Z VRB05KT 10SM BKN070 BKN150 08/M06 A3012 RMK AO2 SLP208 T00781056",2023.04.24-18.55.01
"METAR","KMSP","2023-04-24T23:53:00Z",7.2,-5,8,30,"BKN",10,"KMSP 242353Z 03008KT 10SM BKN070 BKN150 07/M05 A3013 RMK AO2 SLP210 T00721050 10094 20072 53005",2023.04.24-19.55.02
"METAR","KMSP","2023-04-25T00:53:00Z",6.7,-3.9,12,30,"BKN",10,"KMSP 250053Z 03012KT 10SM BKN070 BKN150 07/M04 A3014 RMK AO2 SLP211 T00671039",2023.04.24-20.55.01
"METAR","KMSP","2023-04-25T01:53:00Z",5,-4.4,6,20,"FEW",10,"KMSP 250153Z 02006KT 10SM FEW070 FEW150 05/M04 A3015 RMK AO2 SLP216 T00501044",2023.04.24-21.55.02
"METAR","KMSP","2023-04-25T02:53:00Z",5,-4.4,7,60,"CLR",10,"KMSP 250253Z 06007KT 10SM CLR 05/M04 A3017 RMK AO2 SLP221 T00501044 53012",2023.04.24-22.55.01
"METAR","KMSP","2023-04-25T03:53:00Z",3.9,-3.9,6,50,"CLR",10,"KMSP 250353Z 05006KT 10SM CLR 04/M04 A3017 RMK AO2 SLP223 T00391039",2023.04.24-23.55.01
"METAR","KMSP","2023-04-25T04:53:00Z",3.3,-3.9,5,70,"CLR",10,"KMSP 250453Z 07005KT 10SM CLR 03/M04 A3018 RMK AO2 SLP226 T00331039",2023.04.25-00.55.01
"METAR","KMSP","2023-04-25T05:53:00Z",2.8,-3.3,5,70,"CLR",10,"KMSP 250553Z 07005KT 10SM CLR 03/M03 A3019 RMK AO2 SLP230 T00281033 10072 20028 400940000 53008",2023.04.25-01.55.01
"METAR","KMSP","2023-04-25T06:53:00Z",2.2,-3.3,5,60,"CLR",10,"KMSP 250653Z 06005KT 10SM CLR 02/M03 A3020 RMK AO2 SLP233 T00221033",2023.04.25-02.55.01
"METAR","KMSP","2023-04-25T07:53:00Z",1.7,-3.9,4,50,"CLR",10,"KMSP 250753Z 05004KT 10SM CLR 02/M04 A3020 RMK AO2 SLP234 T00171039",2023.04.25-03.55.01
"METAR","KMSP","2023-04-25T08:53:00Z",1.1,-6.1,6,70,"CLR",10,"KMSP 250853Z 07006KT 10SM CLR 01/M06 A3021 RMK AO2 SLP237 T00111061 51007",2023.04.25-04.55.01
"METAR","KMSP","2023-04-25T09:53:00Z",0.6,-7.2,7,60,"CLR",10,"KMSP 250953Z 06007KT 10SM CLR 01/M07 A3022 RMK AO2 SLP240 T00061072",2023.04.25-05.55.01
