{ "type": "FeatureCollection",
  "features": [
  { "type": "Feature",
    "properties": {
      "data": "METAR",
      "beg_time": "1692405507",
      "end_time": "1692412707",
      "wrap": "",
      "bbox": "-93.2717,44.8398,-93.1411,44.9201"
    }
  },
  { "type": "Feature",
    "id": "1289653461",
    "properties": {
      "data": "METAR",
      "id": "KMSP",
      "site": "Minneapolis-St Paul",
      "prior": 1,
      "obsTime": "2023-08-19T01:53:00Z",
      "temp": 23.3,
      "dewp": 13.9,
      "wspd": 8,
      "wgst": 17,
      "wdir": 160,
      "cover": "SCT",
      "cldCvg1": "SCT",
      "cldBas1": "250",
      "visib": 10.00,
      "fltcat": "VFR",
      "altim": 1010.2,
      "slp": 1010.0,
      "rawOb": "KMSP 190153Z 16008G17KT 10SM SCT250 23/14 A2983 RMK AO2 SLP100 T02330139"
    },
    "geometry": {
      "type": "Point",
      "coordinates": [-93.231,44.885]
    } 
  }]}
