features.2.type,features.2.id,features.2.properties.data,features.2.properties.id,features.2.properties.site,features.2.properties.prior,features.2.properties.obsTime,features.2.properties.temp,features.2.properties.dewp,features.2.properties.wspd,features.2.properties.wdir,features.2.properties.cover,features.2.properties.cldCvg1,features.2.properties.visib,features.2.properties.fltcat,features.2.properties.altim,features.2.properties.slp,features.2.properties.rawOb,features.2.geometry.type,features.2.geometry.coordinates.1,features.2.geometry.coordinates.2
Feature,1154528767,METAR,KMSP,Minneapolis-St Paul,1,2023-04-12T01:53:00Z,23.9,2.2,7,190,CLR,CLR,10.00,VFR,1009.6,1009.3,KMSP 120153Z 19007KT 10SM CLR 24/02 A2981 RMK AO2 SLP093 T02390022,Point,-93.231,44.885
