{ "type": "FeatureCollection",
  "features": [
  { "type": "Feature",
    "properties": {
      "data": "METAR",
      "beg_time": "1681463649",
      "end_time": "1681470849",
      "wrap": "",
      "bbox": "-93.2717,44.8398,-93.1411,44.9201"
    }
  },
  { "type": "Feature",
    "id": "1157051205",
    "properties": {
      "data": "METAR",
      "id": "KMSP",
      "site": "Minneapolis-St Paul",
      "prior": 1,
      "obsTime": "2023-04-14T10:53:00Z",
      "temp": 17.2,
      "dewp": 5.6,
      "wspd": 10,
      "wdir": 180,
      "cover": "FEW",
      "cldCvg1": "FEW",
      "cldBas1": "250",
      "visib": 10.00,
      "fltcat": "VFR",
      "altim": 1002.8,
      "slp": 1002.2,
      "rawOb": "KMSP 141053Z 18010KT 10SM FEW250 17/06 A2961 RMK AO2 SLP022 T01720056 $"
    },
    "geometry": {
      "type": "Point",
      "coordinates": [-93.231,44.885]
    } 
  }]}
