{ "type": "FeatureCollection",
  "features": [
  { "type": "Feature",
    "properties": {
      "data": "METAR",
      "beg_time": "1694322606",
      "end_time": "1694329806",
      "wrap": "",
      "bbox": "-93.2717,44.8398,-93.1411,44.9201"
    }
  },
  { "type": "Feature",
    "id": "1312628379",
    "properties": {
      "data": "METAR",
      "id": "KMSP",
      "site": "Minneapolis-St Paul",
      "prior": 1,
      "obsTime": "2023-09-10T06:53:00Z",
      "temp": 16.1,
      "dewp": 14.4,
      "wspd": 3,
      "wdir": 320,
      "ceil": 130,
      "cover": "BKN",
      "cldCvg1": "SCT",
      "cldBas1": "9",
      "cldCvg2": "BKN",
      "cldBas2": "130",
      "visib": 9.00,
      "fltcat": "VFR",
      "altim": 1021.4,
      "slp": 1021.0,
      "rawOb": "KMSP 100653Z 32003KT 9SM SCT009 BKN130 16/14 A3016 RMK AO2 SLP210 T01610144"
    },
    "geometry": {
      "type": "Point",
      "coordinates": [-93.231,44.885]
    } 
  }]}
