{ "type": "FeatureCollection",
  "features": [
  { "type": "Feature",
    "properties": {
      "data": "METAR",
      "beg_time": "1696335007",
      "end_time": "1696342207",
      "wrap": "",
      "bbox": "-93.2717,44.8398,-93.1411,44.9201"
    }
  },
  { "type": "Feature",
    "id": "1414235146",
    "properties": {
      "data": "METAR",
      "id": "KMSP",
      "site": "Minneapolis-St Paul",
      "prior": 1,
      "obsTime": "2023-10-03T13:53:00Z",
      "temp": 21.1,
      "dewp": 13.3,
      "wspd": 7,
      "wdir": 170,
      "cover": "SCT",
      "cldCvg1": "SCT",
      "cldBas1": "95",
      "cldCvg2": "SCT",
      "cldBas2": "250",
      "visib": 10.00,
      "fltcat": "VFR",
      "altim": 1013.6,
      "slp": 1013.0,
      "rawOb": "KMSP 031353Z 17007KT 10SM SCT095 SCT250 21/13 A2993 RMK AO2 SLP130 T02110133"
    },
    "geometry": {
      "type": "Point",
      "coordinates": [-93.231,44.885]
    } 
  }]}
