{ "type": "FeatureCollection",
  "features": [
  { "type": "Feature",
    "properties": {
      "data": "METAR",
      "beg_time": "1693390206",
      "end_time": "1693397406",
      "wrap": "",
      "bbox": "-93.2717,44.8398,-93.1411,44.9201"
    }
  },
  { "type": "Feature",
    "id": "1378695826",
    "properties": {
      "data": "METAR",
      "id": "KMSP",
      "site": "Minneapolis-St Paul",
      "prior": 1,
      "obsTime": "2023-08-30T11:53:00Z",
      "temp": 16.1,
      "dewp": 11.1,
      "wspd": 8,
      "wdir": 120,
      "cover": "SCT",
      "cldCvg1": "FEW",
      "cldBas1": "55",
      "cldCvg2": "SCT",
      "cldBas2": "65",
      "visib": 10.00,
      "fltcat": "VFR",
      "altim": 1020.7,
      "slp": 1020.2,
      "rawOb": "KMSP 301153Z 12008KT 10SM FEW055 SCT065 16/11 A3014 RMK AO2 SLP202 T01610111 10200 20161 53014"
    },
    "geometry": {
      "type": "Point",
      "coordinates": [-93.231,44.885]
    } 
  }]}
