{ "type": "FeatureCollection",
  "features": [
  { "type": "Feature",
    "properties": {
      "data": "METAR",
      "beg_time": "1692691806",
      "end_time": "1692699006",
      "wrap": "",
      "bbox": "-93.2717,44.8398,-93.1411,44.9201"
    }
  },
  { "type": "Feature",
    "id": "1293033757",
    "properties": {
      "data": "METAR",
      "id": "KMSP",
      "site": "Minneapolis-St Paul",
      "prior": 1,
      "obsTime": "2023-08-22T09:53:00Z",
      "temp": 21.7,
      "dewp": 19.4,
      "wspd": 6,
      "wdir": 150,
      "cover": "SCT",
      "cldCvg1": "SCT",
      "cldBas1": "24",
      "cldCvg2": "SCT",
      "cldBas2": "31",
      "visib": 9.00,
      "fltcat": "VFR",
      "altim": 1019.4,
      "slp": 1019.1,
      "rawOb": "KMSP 220953Z 15006KT 9SM SCT024 SCT031 22/19 A3010 RMK AO2 SLP191 T02170194"
    },
    "geometry": {
      "type": "Point",
      "coordinates": [-93.231,44.885]
    } 
  }]}
