{ "type": "FeatureCollection",
  "features": [
  { "type": "Feature",
    "properties": {
      "data": "METAR",
      "beg_time": "1695712206",
      "end_time": "1695719406",
      "wrap": "",
      "bbox": "-93.2717,44.8398,-93.1411,44.9201"
    }
  },
  { "type": "Feature",
    "id": "1329450173",
    "properties": {
      "data": "METAR",
      "id": "KMSP",
      "site": "Minneapolis-St Paul",
      "prior": 1,
      "obsTime": "2023-09-26T08:53:00Z",
      "temp": 16.7,
      "dewp": 15.0,
      "wspd": 7,
      "wdir": 80,
      "ceil": 15,
      "cover": "OVC",
      "cldCvg1": "BKN",
      "cldBas1": "15",
      "cldCvg2": "BKN",
      "cldBas2": "22",
      "cldCvg3": "OVC",
      "cldBas3": "85",
      "visib": 10.00,
      "fltcat": "MVFR",
      "altim": 1018.7,
      "slp": 1018.7,
      "rawOb": "KMSP 260853Z 08007KT 10SM BKN015 BKN022 OVC085 17/15 A3008 RMK AO2 SLP187 60001 T01670150 53001"
    },
    "geometry": {
      "type": "Point",
      "coordinates": [-93.231,44.885]
    } 
  }]}
