{ "type": "FeatureCollection",
  "features": [
  { "type": "Feature",
    "properties": {
      "data": "METAR",
      "beg_time": "1696601407",
      "end_time": "1696608607",
      "wrap": "",
      "bbox": "-93.2717,44.8398,-93.1411,44.9201"
    }
  },
  { "type": "Feature",
    "id": "1417542282",
    "properties": {
      "data": "METAR",
      "id": "KMSP",
      "site": "Minneapolis-St Paul",
      "prior": 1,
      "obsTime": "2023-10-06T15:53:00Z",
      "temp": 7.2,
      "dewp": 5.6,
      "wspd": 13,
      "wdir": 300,
      "ceil": 13,
      "cover": "OVC",
      "cldCvg1": "OVC",
      "cldBas1": "13",
      "visib": 10.00,
      "fltcat": "MVFR",
      "altim": 1015.0,
      "slp": 1015.3,
      "rawOb": "KMSP 061553Z 30013KT 10SM OVC013 07/06 A2997 RMK AO2 RAE09 SLP153 PRESENT WX VCSH P0000 T00720056"
    },
    "geometry": {
      "type": "Point",
      "coordinates": [-93.231,44.885]
    } 
  }]}
