{ "type": "FeatureCollection",
  "features": [
  { "type": "Feature",
    "properties": {
      "data": "METAR",
      "beg_time": "1696864206",
      "end_time": "1696871406",
      "wrap": "",
      "bbox": "-93.2717,44.8398,-93.1411,44.9201"
    }
  },
  { "type": "Feature",
    "id": "1420736960",
    "properties": {
      "data": "METAR",
      "id": "KMSP",
      "site": "Minneapolis-St Paul",
      "prior": 1,
      "obsTime": "2023-10-09T16:53:00Z",
      "temp": 10.6,
      "dewp": -0.6,
      "wspd": 13,
      "wdir": 320,
      "cover": "FEW",
      "cldCvg1": "FEW",
      "cldBas1": "60",
      "cldCvg2": "FEW",
      "cldBas2": "250",
      "visib": 10.00,
      "fltcat": "VFR",
      "altim": 1014.3,
      "slp": 1014.3,
      "rawOb": "KMSP 091653Z 32013KT 10SM FEW060 FEW250 11/M01 A2995 RMK AO2 SLP143 T01061006"
    },
    "geometry": {
      "type": "Point",
      "coordinates": [-93.231,44.885]
    } 
  }]}
