{ "type": "FeatureCollection",
  "features": [
  { "type": "Feature",
    "properties": {
      "data": "METAR",
      "beg_time": "1695427807",
      "end_time": "1695435007",
      "wrap": "",
      "bbox": "-93.2717,44.8398,-93.1411,44.9201"
    }
  },
  { "type": "Feature",
    "id": "1325988587",
    "properties": {
      "data": "METAR",
      "id": "KMSP",
      "site": "Minneapolis-St Paul",
      "prior": 1,
      "obsTime": "2023-09-23T01:53:00Z",
      "temp": 21.7,
      "dewp": 15.6,
      "wspd": 9,
      "wdir": 110,
      "ceil": 110,
      "cover": "OVC",
      "cldCvg1": "FEW",
      "cldBas1": "65",
      "cldCvg2": "BKN",
      "cldBas2": "110",
      "cldCvg3": "OVC",
      "cldBas3": "160",
      "visib": 10.00,
      "fltcat": "VFR",
      "altim": 1016.7,
      "slp": 1016.5,
      "rawOb": "KMSP 230153Z 11009KT 10SM FEW065 BKN110 OVC160 22/16 A3002 RMK AO2 SLP165 T02170156"
    },
    "geometry": {
      "type": "Point",
      "coordinates": [-93.231,44.885]
    } 
  }]}
