{ "type": "FeatureCollection",
  "features": [
  { "type": "Feature",
    "properties": {
      "data": "METAR",
      "beg_time": "1693195806",
      "end_time": "1693203006",
      "wrap": "",
      "bbox": "-93.2717,44.8398,-93.1411,44.9201"
    }
  },
  { "type": "Feature",
    "id": "1376325380",
    "properties": {
      "data": "METAR",
      "id": "KMSP",
      "site": "Minneapolis-St Paul",
      "prior": 1,
      "obsTime": "2023-08-28T05:53:00Z",
      "temp": 18.9,
      "dewp": 13.9,
      "wspd": 4,
      "wdir": 150,
      "cover": "FEW",
      "cldCvg1": "FEW",
      "cldBas1": "120",
      "cldCvg2": "FEW",
      "cldBas2": "130",
      "visib": 10.00,
      "fltcat": "VFR",
      "altim": 1016.3,
      "slp": 1016.0,
      "rawOb": "KMSP 280553Z 15004KT 10SM FEW120 FEW130 19/14 A3001 RMK AO2 SLP160 T01890139 10244 20189 402610133 53001"
    },
    "geometry": {
      "type": "Point",
      "coordinates": [-93.231,44.885]
    } 
  }]}
