{ "type": "FeatureCollection",
  "features": [
  { "type": "Feature",
    "properties": {
      "data": "METAR",
      "beg_time": "1693897806",
      "end_time": "1693905006",
      "wrap": "",
      "bbox": "-93.2717,44.8398,-93.1411,44.9201"
    }
  },
  { "type": "Feature",
    "id": "1384755520",
    "properties": {
      "data": "METAR",
      "id": "KMSP",
      "site": "Minneapolis-St Paul",
      "prior": 1,
      "obsTime": "2023-09-05T08:53:00Z",
      "temp": 25.0,
      "dewp": 17.8,
      "wspd": 7,
      "wdir": 170,
      "cover": "CLR",
      "cldCvg1": "CLR",
      "visib": 10.00,
      "fltcat": "VFR",
      "altim": 1005.2,
      "slp": 1004.1,
      "rawOb": "KMSP 050853Z 17007KT 10SM CLR 25/18 A2968 RMK AO2 SLP041 T02500178 56002"
    },
    "geometry": {
      "type": "Point",
      "coordinates": [-93.231,44.885]
    } 
  }]}
