{ "type": "FeatureCollection",
  "features": [
  { "type": "Feature",
    "properties": {
      "data": "METAR",
      "beg_time": "1692724207",
      "end_time": "1692731407",
      "wrap": "",
      "bbox": "-93.2717,44.8398,-93.1411,44.9201"
    }
  },
  { "type": "Feature",
    "id": "1370668200",
    "properties": {
      "data": "METAR",
      "id": "KMSP",
      "site": "Minneapolis-St Paul",
      "prior": 1,
      "obsTime": "2023-08-22T18:53:00Z",
      "temp": 34.4,
      "dewp": 23.9,
      "wspd": 11,
      "wgst": 17,
      "wdir": 200,
      "cover": "CLR",
      "cldCvg1": "CLR",
      "visib": 10.00,
      "fltcat": "VFR",
      "altim": 1014.6,
      "slp": 1013.8,
      "rawOb": "KMSP 221853Z 20011G17KT 10SM CLR 34/24 A2996 RMK AO2 SLP138 T03440239"
    },
    "geometry": {
      "type": "Point",
      "coordinates": [-93.231,44.885]
    } 
  }]}
