{ "type": "FeatureCollection",
  "features": [
  { "type": "Feature",
    "properties": {
      "data": "METAR",
      "beg_time": "1694002207",
      "end_time": "1694009407",
      "wrap": "",
      "bbox": "-93.2717,44.8398,-93.1411,44.9201"
    }
  },
  { "type": "Feature",
    "id": "1385994582",
    "properties": {
      "data": "METAR",
      "id": "KMSP",
      "site": "Minneapolis-St Paul",
      "prior": 1,
      "obsTime": "2023-09-06T13:53:00Z",
      "temp": 17.8,
      "dewp": 13.9,
      "wspd": 16,
      "wgst": 21,
      "wdir": 350,
      "ceil": 13,
      "cover": "OVC",
      "cldCvg1": "OVC",
      "cldBas1": "13",
      "visib": 10.00,
      "fltcat": "MVFR",
      "altim": 1011.6,
      "slp": 1011.1,
      "rawOb": "KMSP 061353Z 35016G21KT 10SM OVC013 18/14 A2987 RMK AO2 PK WND 01027/1304 SLP111 T01780139"
    },
    "geometry": {
      "type": "Point",
      "coordinates": [-93.231,44.885]
    } 
  }]}
