{ "type": "FeatureCollection",
  "features": [
  { "type": "Feature",
    "properties": {
      "data": "METAR",
      "beg_time": "1696385407",
      "end_time": "1696392607",
      "wrap": "",
      "bbox": "-93.2717,44.8398,-93.1411,44.9201"
    }
  },
  { "type": "Feature",
    "id": "1414845410",
    "properties": {
      "data": "METAR",
      "id": "KMSP",
      "site": "Minneapolis-St Paul",
      "prior": 1,
      "obsTime": "2023-10-04T03:53:00Z",
      "temp": 19.4,
      "dewp": 17.2,
      "wspd": 8,
      "wdir": 140,
      "ceil": 140,
      "cover": "BKN",
      "cldCvg1": "FEW",
      "cldBas1": "90",
      "cldCvg2": "SCT",
      "cldBas2": "110",
      "cldCvg3": "BKN",
      "cldBas3": "140",
      "cldCvg4": "BKN",
      "cldBas4": "180",
      "visib": 10.00,
      "fltcat": "VFR",
      "altim": 1006.5,
      "slp": 1005.8,
      "rawOb": "KMSP 040353Z 14008KT 10SM FEW090 SCT110 BKN140 BKN180 19/17 A2972 RMK AO2 SLP058 T01940172"
    },
    "geometry": {
      "type": "Point",
      "coordinates": [-93.231,44.885]
    } 
  }]}
