{ "type": "FeatureCollection",
  "features": [
  { "type": "Feature",
    "properties": {
      "data": "METAR",
      "beg_time": "1695262207",
      "end_time": "1695269407",
      "wrap": "",
      "bbox": "-93.2717,44.8398,-93.1411,44.9201"
    }
  },
  { "type": "Feature",
    "id": "1323966955",
    "properties": {
      "data": "METAR",
      "id": "KMSP",
      "site": "Minneapolis-St Paul",
      "prior": 1,
      "obsTime": "2023-09-21T03:53:00Z",
      "temp": 22.8,
      "dewp": 15.6,
      "wspd": 9,
      "wdir": 170,
      "cover": "CLR",
      "cldCvg1": "CLR",
      "visib": 10.00,
      "fltcat": "VFR",
      "altim": 1017.0,
      "slp": 1016.4,
      "rawOb": "KMSP 210353Z 17009KT 10SM CLR 23/16 A3003 RMK AO2 SLP164 T02280156"
    },
    "geometry": {
      "type": "Point",
      "coordinates": [-93.231,44.885]
    } 
  }]}
