{ "type": "FeatureCollection",
  "features": [
  { "type": "Feature",
    "properties": {
      "data": "METAR",
      "beg_time": "1695355807",
      "end_time": "1695363007",
      "wrap": "",
      "bbox": "-93.2717,44.8398,-93.1411,44.9201"
    }
  },
  { "type": "Feature",
    "id": "1325107093",
    "properties": {
      "data": "METAR",
      "id": "KMSP",
      "site": "Minneapolis-St Paul",
      "prior": 1,
      "obsTime": "2023-09-22T05:53:00Z",
      "temp": 19.4,
      "dewp": 13.9,
      "wspd": 8,
      "wdir": 130,
      "cover": "CLR",
      "cldCvg1": "CLR",
      "visib": 10.00,
      "fltcat": "VFR",
      "altim": 1021.1,
      "slp": 1020.4,
      "rawOb": "KMSP 220553Z 13008KT 10SM CLR 19/14 A3015 RMK AO2 SLP204 T01940139 10267 20194 402940172 51004"
    },
    "geometry": {
      "type": "Point",
      "coordinates": [-93.231,44.885]
    } 
  }]}
