{ "type": "FeatureCollection",
  "features": [
  { "type": "Feature",
    "properties": {
      "data": "METAR",
      "beg_time": "1692735007",
      "end_time": "1692742207",
      "wrap": "",
      "bbox": "-93.2717,44.8398,-93.1411,44.9201"
    }
  },
  { "type": "Feature",
    "id": "1370790466",
    "properties": {
      "data": "METAR",
      "id": "KMSP",
      "site": "Minneapolis-St Paul",
      "prior": 1,
      "obsTime": "2023-08-22T21:53:00Z",
      "temp": 36.7,
      "dewp": 25.0,
      "wspd": 11,
      "wgst": 18,
      "wdir": 210,
      "cover": "CLR",
      "cldCvg1": "CLR",
      "visib": 10.00,
      "fltcat": "VFR",
      "altim": 1013.0,
      "slp": 1011.9,
      "rawOb": "KMSP 222153Z 21011G18KT 10SM CLR 37/25 A2991 RMK AO2 SLP119 T03670250"
    },
    "geometry": {
      "type": "Point",
      "coordinates": [-93.231,44.885]
    } 
  }]}
