{ "type": "FeatureCollection",
  "features": [
  { "type": "Feature",
    "properties": {
      "data": "METAR",
      "beg_time": "1694920206",
      "end_time": "1694927406",
      "wrap": "",
      "bbox": "-93.2717,44.8398,-93.1411,44.9201"
    }
  },
  { "type": "Feature",
    "id": "1319937897",
    "properties": {
      "data": "METAR",
      "id": "KMSP",
      "site": "Minneapolis-St Paul",
      "prior": 1,
      "obsTime": "2023-09-17T04:53:00Z",
      "temp": 15.0,
      "dewp": 10.6,
      "wspd": 5,
      "wdir": 360,
      "cover": "SCT",
      "cldCvg1": "SCT",
      "cldBas1": "80",
      "visib": 10.00,
      "fltcat": "VFR",
      "altim": 1018.7,
      "slp": 1018.3,
      "rawOb": "KMSP 170453Z 36005KT 10SM SCT080 15/11 A3008 RMK AO2 SLP183 T01500106 $"
    },
    "geometry": {
      "type": "Point",
      "coordinates": [-93.231,44.885]
    } 
  }]}
