{ "type": "FeatureCollection",
  "features": [
  { "type": "Feature",
    "properties": {
      "data": "METAR",
      "beg_time": "1696021806",
      "end_time": "1696029006",
      "wrap": "",
      "bbox": "-93.2717,44.8398,-93.1411,44.9201"
    }
  },
  { "type": "Feature",
    "id": "1410368042",
    "properties": {
      "data": "METAR",
      "id": "KMSP",
      "site": "Minneapolis-St Paul",
      "prior": 1,
      "obsTime": "2023-09-29T22:53:00Z",
      "temp": 22.8,
      "dewp": 17.8,
      "wspd": 8,
      "wdir": 140,
      "ceil": 250,
      "cover": "BKN",
      "cldCvg1": "FEW",
      "cldBas1": "160",
      "cldCvg2": "SCT",
      "cldBas2": "200",
      "cldCvg3": "BKN",
      "cldBas3": "250",
      "visib": 10.00,
      "fltcat": "VFR",
      "altim": 1012.6,
      "slp": 1012.2,
      "rawOb": "KMSP 292253Z 14008KT 10SM FEW160 SCT200 BKN250 23/18 A2990 RMK AO2 SLP122 T02280178"
    },
    "geometry": {
      "type": "Point",
      "coordinates": [-93.231,44.885]
    } 
  }]}
