{ "type": "FeatureCollection",
  "features": [
  { "type": "Feature",
    "properties": {
      "data": "METAR",
      "beg_time": "1693105806",
      "end_time": "1693113006",
      "wrap": "",
      "bbox": "-93.2717,44.8398,-93.1411,44.9201"
    }
  },
  { "type": "Feature",
    "id": "1375244480",
    "properties": {
      "data": "METAR",
      "id": "KMSP",
      "site": "Minneapolis-St Paul",
      "prior": 1,
      "obsTime": "2023-08-27T04:53:00Z",
      "temp": 17.8,
      "dewp": 11.1,
      "wspd": 7,
      "wdir": 60,
      "ceil": 35,
      "cover": "OVC",
      "cldCvg1": "OVC",
      "cldBas1": "35",
      "visib": 10.00,
      "fltcat": "VFR",
      "altim": 1022.4,
      "slp": 1022.0,
      "rawOb": "KMSP 270453Z 06007KT 10SM OVC035 18/11 A3019 RMK AO2 SLP220 T01780111"
    },
    "geometry": {
      "type": "Point",
      "coordinates": [-93.231,44.885]
    } 
  }]}
