{ "type": "FeatureCollection",
  "features": [
  { "type": "Feature",
    "properties": {
      "data": "METAR",
      "beg_time": "1697404207",
      "end_time": "1697411407",
      "wrap": "",
      "bbox": "-93.2717,44.8398,-93.1411,44.9201"
    }
  },
  { "type": "Feature",
    "id": "1350295373",
    "properties": {
      "data": "METAR",
      "id": "KMSP",
      "site": "Minneapolis-St Paul",
      "prior": 1,
      "obsTime": "2023-10-15T22:53:00Z",
      "temp": 13.3,
      "dewp": 5.6,
      "wspd": 10,
      "wdir": 310,
      "cover": "FEW",
      "cldCvg1": "FEW",
      "cldBas1": "150",
      "visib": 10.00,
      "fltcat": "VFR",
      "altim": 1022.4,
      "slp": 1022.6,
      "rawOb": "KMSP 152253Z 31010KT 10SM FEW150 13/06 A3019 RMK AO2 SLP226 T01330056"
    },
    "geometry": {
      "type": "Point",
      "coordinates": [-93.231,44.885]
    } 
  }]}
