{ "type": "FeatureCollection",
  "features": [
  { "type": "Feature",
    "properties": {
      "data": "METAR",
      "beg_time": "1694632207",
      "end_time": "1694639407",
      "wrap": "",
      "bbox": "-93.2717,44.8398,-93.1411,44.9201"
    }
  },
  { "type": "Feature",
    "id": "1316472645",
    "properties": {
      "data": "METAR",
      "id": "KMSP",
      "site": "Minneapolis-St Paul",
      "prior": 1,
      "obsTime": "2023-09-13T20:53:00Z",
      "temp": 18.3,
      "dewp": 3.9,
      "wspd": 4,
      "wdir": 140,
      "cover": "FEW",
      "cldCvg1": "FEW",
      "cldBas1": "250",
      "visib": 10.00,
      "fltcat": "VFR",
      "altim": 1020.1,
      "slp": 1020.0,
      "rawOb": "KMSP 132053Z 14004KT 10SM FEW250 18/04 A3012 RMK AO2 SLP200 T01830039 56018"
    },
    "geometry": {
      "type": "Point",
      "coordinates": [-93.231,44.885]
    } 
  }]}
