{ "type": "FeatureCollection",
  "features": [
  { "type": "Feature",
    "properties": {
      "data": "METAR",
      "beg_time": "1694963407",
      "end_time": "1694970607",
      "wrap": "",
      "bbox": "-93.2717,44.8398,-93.1411,44.9201"
    }
  },
  { "type": "Feature",
    "id": "1320470833",
    "properties": {
      "data": "METAR",
      "id": "KMSP",
      "site": "Minneapolis-St Paul",
      "prior": 1,
      "obsTime": "2023-09-17T16:53:00Z",
      "temp": 19.4,
      "dewp": 10.0,
      "wspd": 5,
      "wdir": 0,
      "cover": "FEW",
      "cldCvg1": "FEW",
      "cldBas1": "35",
      "visib": 10.00,
      "fltcat": "VFR",
      "altim": 1020.1,
      "slp": 1019.9,
      "rawOb": "KMSP 171653Z VRB05KT 10SM FEW035 19/10 A3012 RMK AO2 SLP199 T01940100 $"
    },
    "geometry": {
      "type": "Point",
      "coordinates": [-93.231,44.885]
    } 
  }]}
