{ "type": "FeatureCollection",
  "features": [
  { "type": "Feature",
    "properties": {
      "data": "METAR",
      "beg_time": "1696266607",
      "end_time": "1696273807",
      "wrap": "",
      "bbox": "-93.2717,44.8398,-93.1411,44.9201"
    }
  },
  { "type": "Feature",
    "id": "1413380788",
    "properties": {
      "data": "METAR",
      "id": "KMSP",
      "site": "Minneapolis-St Paul",
      "prior": 1,
      "obsTime": "2023-10-02T18:53:00Z",
      "temp": 31.1,
      "dewp": 13.3,
      "wspd": 11,
      "wgst": 21,
      "wdir": 200,
      "cover": "CLR",
      "cldCvg1": "CLR",
      "visib": 10.00,
      "fltcat": "VFR",
      "altim": 1016.3,
      "slp": 1015.5,
      "rawOb": "KMSP 021853Z 20011G21KT 10SM CLR 31/13 A3001 RMK AO2 SLP155 T03110133"
    },
    "geometry": {
      "type": "Point",
      "coordinates": [-93.231,44.885]
    } 
  }]}
