{ "type": "FeatureCollection",
  "features": [
  { "type": "Feature",
    "properties": {
      "data": "METAR",
      "beg_time": "1694146207",
      "end_time": "1694153407",
      "wrap": "",
      "bbox": "-93.2717,44.8398,-93.1411,44.9201"
    }
  },
  { "type": "Feature",
    "id": "1310477291",
    "properties": {
      "data": "METAR",
      "id": "KMSP",
      "site": "Minneapolis-St Paul",
      "prior": 1,
      "obsTime": "2023-09-08T05:53:00Z",
      "temp": 13.9,
      "dewp": 10.6,
      "wspd": 0,
      "wdir": 0,
      "cover": "CLR",
      "cldCvg1": "CLR",
      "visib": 10.00,
      "fltcat": "VFR",
      "altim": 1018.7,
      "slp": 1018.6,
      "rawOb": "KMSP 080553Z 00000KT 10SM CLR 14/11 A3008 RMK AO2 SLP186 T01390106 10172 20139 401780139 50007"
    },
    "geometry": {
      "type": "Point",
      "coordinates": [-93.231,44.885]
    } 
  }]}
