{ "type": "FeatureCollection",
  "features": [
  { "type": "Feature",
    "properties": {
      "data": "METAR",
      "beg_time": "1694535007",
      "end_time": "1694542207",
      "wrap": "",
      "bbox": "-93.2717,44.8398,-93.1411,44.9201"
    }
  },
  { "type": "Feature",
    "id": "1315261799",
    "properties": {
      "data": "METAR",
      "id": "KMSP",
      "site": "Minneapolis-St Paul",
      "prior": 1,
      "obsTime": "2023-09-12T17:53:00Z",
      "temp": 17.8,
      "dewp": 9.4,
      "wspd": 11,
      "wdir": 340,
      "ceil": 35,
      "cover": "BKN",
      "cldCvg1": "BKN",
      "cldBas1": "35",
      "visib": 10.00,
      "fltcat": "VFR",
      "altim": 1021.1,
      "slp": 1020.9,
      "rawOb": "KMSP 121753Z 34011KT 10SM BKN035 18/09 A3015 RMK AO2 SLP209 T01780094 10178 20133 58004"
    },
    "geometry": {
      "type": "Point",
      "coordinates": [-93.231,44.885]
    } 
  }]}
