{ "type": "FeatureCollection",
  "features": [
  { "type": "Feature",
    "properties": {
      "data": "METAR",
      "beg_time": "1693771807",
      "end_time": "1693779007",
      "wrap": "",
      "bbox": "-93.2717,44.8398,-93.1411,44.9201"
    }
  },
  { "type": "Feature",
    "id": "1383259432",
    "properties": {
      "data": "METAR",
      "id": "KMSP",
      "site": "Minneapolis-St Paul",
      "prior": 1,
      "obsTime": "2023-09-03T21:53:00Z",
      "temp": 36.1,
      "dewp": 17.2,
      "wspd": 8,
      "wgst": 15,
      "wdir": 240,
      "cover": "CLR",
      "cldCvg1": "CLR",
      "visib": 10.00,
      "fltcat": "VFR",
      "altim": 1006.9,
      "slp": 1005.8,
      "rawOb": "KMSP 032153Z 24008G15KT 10SM CLR 36/17 A2973 RMK AO2 SLP058 T03610172"
    },
    "geometry": {
      "type": "Point",
      "coordinates": [-93.231,44.885]
    } 
  }]}
