{ "type": "FeatureCollection",
  "features": [
  { "type": "Feature",
    "properties": {
      "data": "METAR",
      "beg_time": "1694985006",
      "end_time": "1694992206",
      "wrap": "",
      "bbox": "-93.2717,44.8398,-93.1411,44.9201"
    }
  },
  { "type": "Feature",
    "id": "1320729135",
    "properties": {
      "data": "METAR",
      "id": "KMSP",
      "site": "Minneapolis-St Paul",
      "prior": 1,
      "obsTime": "2023-09-17T22:53:00Z",
      "temp": 21.7,
      "dewp": 8.3,
      "wspd": 0,
      "wdir": 0,
      "cover": "SCT",
      "cldCvg1": "SCT",
      "cldBas1": "70",
      "visib": 10.00,
      "fltcat": "VFR",
      "altim": 1017.4,
      "slp": 1017.3,
      "rawOb": "KMSP 172253Z 00000KT 10SM SCT070 22/08 A3004 RMK AO2 SLP173 T02170083 $"
    },
    "geometry": {
      "type": "Point",
      "coordinates": [-93.231,44.885]
    } 
  }]}
