{ "type": "FeatureCollection",
  "features": [
  { "type": "Feature",
    "properties": {
      "data": "METAR",
      "beg_time": "1692429007",
      "end_time": "1692436207",
      "wrap": "",
      "bbox": "-93.2717,44.8398,-93.1411,44.9201"
    }
  },
  { "type": "Feature",
    "id": "1289951123",
    "properties": {
      "data": "METAR",
      "id": "KMSP",
      "site": "Minneapolis-St Paul",
      "prior": 1,
      "obsTime": "2023-08-19T08:53:00Z",
      "temp": 21.1,
      "dewp": 15.0,
      "wspd": 11,
      "wdir": 170,
      "cover": "FEW",
      "cldCvg1": "FEW",
      "cldBas1": "250",
      "visib": 10.00,
      "fltcat": "VFR",
      "altim": 1008.5,
      "slp": 1008.1,
      "rawOb": "KMSP 190853Z 17011KT 10SM FEW250 21/15 A2978 RMK AO2 SLP081 T02110150 58014"
    },
    "geometry": {
      "type": "Point",
      "coordinates": [-93.231,44.885]
    } 
  }]}
