{ "type": "FeatureCollection",
  "features": [
  { "type": "Feature",
    "properties": {
      "data": "METAR",
      "beg_time": "1696547407",
      "end_time": "1696554607",
      "wrap": "",
      "bbox": "-93.2717,44.8398,-93.1411,44.9201"
    }
  },
  { "type": "Feature",
    "id": "1416868196",
    "properties": {
      "data": "METAR",
      "id": "KMSP",
      "site": "Minneapolis-St Paul",
      "prior": 1,
      "obsTime": "2023-10-06T00:53:00Z",
      "temp": 11.7,
      "dewp": 7.8,
      "wspd": 7,
      "wdir": 280,
      "cover": "SCT",
      "cldCvg1": "FEW",
      "cldBas1": "60",
      "cldCvg2": "SCT",
      "cldBas2": "100",
      "visib": 10.00,
      "fltcat": "VFR",
      "altim": 1013.6,
      "slp": 1013.6,
      "rawOb": "KMSP 060053Z 28007KT 10SM FEW060 SCT100 12/08 A2993 RMK AO2 SLP136 T01170078"
    },
    "geometry": {
      "type": "Point",
      "coordinates": [-93.231,44.885]
    } 
  }]}
