{ "type": "FeatureCollection",
  "features": [
  { "type": "Feature",
    "properties": {
      "data": "METAR",
      "beg_time": "1694337006",
      "end_time": "1694344206",
      "wrap": "",
      "bbox": "-93.2717,44.8398,-93.1411,44.9201"
    }
  },
  { "type": "Feature",
    "id": "1312805217",
    "properties": {
      "data": "METAR",
      "id": "KMSP",
      "site": "Minneapolis-St Paul",
      "prior": 1,
      "obsTime": "2023-09-10T10:53:00Z",
      "temp": 16.7,
      "dewp": 15.0,
      "wspd": 9,
      "wdir": 10,
      "ceil": 6,
      "cover": "OVC",
      "cldCvg1": "BKN",
      "cldBas1": "6",
      "cldCvg2": "OVC",
      "cldBas2": "12",
      "visib": 9.00,
      "fltcat": "IFR",
      "altim": 1022.4,
      "slp": 1022.2,
      "rawOb": "KMSP 101053Z 01009KT 9SM BKN006 OVC012 17/15 A3019 RMK AO2 SLP222 T01670150"
    },
    "geometry": {
      "type": "Point",
      "coordinates": [-93.231,44.885]
    } 
  }]}
