{ "type": "FeatureCollection",
  "features": [
  { "type": "Feature",
    "properties": {
      "data": "METAR",
      "beg_time": "1696342207",
      "end_time": "1696349407",
      "wrap": "",
      "bbox": "-93.2717,44.8398,-93.1411,44.9201"
    }
  },
  { "type": "Feature",
    "id": "1414323606",
    "properties": {
      "data": "METAR",
      "id": "KMSP",
      "site": "Minneapolis-St Paul",
      "prior": 1,
      "obsTime": "2023-10-03T15:53:00Z",
      "temp": 25.0,
      "dewp": 14.4,
      "wspd": 12,
      "wdir": 170,
      "cover": "SCT",
      "cldCvg1": "FEW",
      "cldBas1": "100",
      "cldCvg2": "SCT",
      "cldBas2": "250",
      "visib": 10.00,
      "fltcat": "VFR",
      "altim": 1012.6,
      "slp": 1012.0,
      "rawOb": "KMSP 031553Z 17012KT 10SM FEW100 SCT250 25/14 A2990 RMK AO2 SLP120 T02500144"
    },
    "geometry": {
      "type": "Point",
      "coordinates": [-93.231,44.885]
    } 
  }]}
