{ "type": "FeatureCollection",
  "features": [
  { "type": "Feature",
    "properties": {
      "data": "METAR",
      "beg_time": "1692900607",
      "end_time": "1692907807",
      "wrap": "",
      "bbox": "-93.2717,44.8398,-93.1411,44.9201"
    }
  },
  { "type": "Feature",
    "id": "1372775352",
    "properties": {
      "data": "METAR",
      "id": "KMSP",
      "site": "Minneapolis-St Paul",
      "prior": 1,
      "obsTime": "2023-08-24T19:53:00Z",
      "temp": 30.6,
      "dewp": 20.6,
      "wspd": 11,
      "wgst": 20,
      "wdir": 340,
      "ceil": 30,
      "cover": "BKN",
      "cldCvg1": "BKN",
      "cldBas1": "30",
      "visib": 10.00,
      "fltcat": "MVFR",
      "altim": 1012.6,
      "slp": 1011.7,
      "rawOb": "KMSP 241953Z 34011G20KT 10SM BKN030 31/21 A2990 RMK AO2 SLP117 T03060206"
    },
    "geometry": {
      "type": "Point",
      "coordinates": [-93.231,44.885]
    } 
  }]}
