{ "type": "FeatureCollection",
  "features": [
  { "type": "Feature",
    "properties": {
      "data": "METAR",
      "beg_time": "1695924607",
      "end_time": "1695931807",
      "wrap": "",
      "bbox": "-93.2717,44.8398,-93.1411,44.9201"
    }
  },
  { "type": "Feature",
    "id": "1409191600",
    "properties": {
      "data": "METAR",
      "id": "KMSP",
      "site": "Minneapolis-St Paul",
      "prior": 1,
      "obsTime": "2023-09-28T19:53:00Z",
      "temp": 21.7,
      "dewp": 14.4,
      "wspd": 11,
      "wdir": 140,
      "ceil": 43,
      "cover": "OVC",
      "cldCvg1": "FEW",
      "cldBas1": "30",
      "cldCvg2": "OVC",
      "cldBas2": "43",
      "visib": 10.00,
      "fltcat": "VFR",
      "altim": 1016.0,
      "slp": 1015.7,
      "rawOb": "KMSP 281953Z 14011KT 10SM FEW030 OVC043 22/14 A3000 RMK AO2 SLP157 T02170144"
    },
    "geometry": {
      "type": "Point",
      "coordinates": [-93.231,44.885]
    } 
  }]}
