{ "type": "FeatureCollection",
  "features": [
  { "type": "Feature",
    "properties": {
      "data": "METAR",
      "beg_time": "1693347007",
      "end_time": "1693354207",
      "wrap": "",
      "bbox": "-93.2717,44.8398,-93.1411,44.9201"
    }
  },
  { "type": "Feature",
    "id": "1378158248",
    "properties": {
      "data": "METAR",
      "id": "KMSP",
      "site": "Minneapolis-St Paul",
      "prior": 1,
      "obsTime": "2023-08-29T23:53:00Z",
      "temp": 26.1,
      "dewp": 13.9,
      "wspd": 4,
      "wdir": 40,
      "cover": "FEW",
      "cldCvg1": "FEW",
      "cldBas1": "60",
      "visib": 7.00,
      "fltcat": "VFR",
      "altim": 1015.3,
      "slp": 1014.7,
      "rawOb": "KMSP 292353Z 04004KT 7SM FEW060 26/14 A2998 RMK AO2 SLP147 T02610139 10294 20261 56001"
    },
    "geometry": {
      "type": "Point",
      "coordinates": [-93.231,44.885]
    } 
  }]}
