{ "type": "FeatureCollection",
  "features": [
  { "type": "Feature",
    "properties": {
      "data": "METAR",
      "beg_time": "1694949007",
      "end_time": "1694956207",
      "wrap": "",
      "bbox": "-93.2717,44.8398,-93.1411,44.9201"
    }
  },
  { "type": "Feature",
    "id": "1320295037",
    "properties": {
      "data": "METAR",
      "id": "KMSP",
      "site": "Minneapolis-St Paul",
      "prior": 1,
      "obsTime": "2023-09-17T12:53:00Z",
      "temp": 12.2,
      "dewp": 10.6,
      "wspd": 4,
      "wdir": 320,
      "cover": "FEW",
      "cldCvg1": "FEW",
      "cldBas1": "5",
      "visib": 10.00,
      "fltcat": "VFR",
      "altim": 1020.1,
      "slp": 1019.9,
      "rawOb": "KMSP 171253Z 32004KT 10SM FEW005 12/11 A3012 RMK AO2 SLP199 T01220106 $"
    },
    "geometry": {
      "type": "Point",
      "coordinates": [-93.231,44.885]
    } 
  }]}
