{ "type": "FeatureCollection",
  "features": [
  { "type": "Feature",
    "properties": {
      "data": "METAR",
      "beg_time": "1696396207",
      "end_time": "1696403407",
      "wrap": "",
      "bbox": "-93.2717,44.8398,-93.1411,44.9201"
    }
  },
  { "type": "Feature",
    "id": "1414982288",
    "properties": {
      "data": "METAR",
      "id": "KMSP",
      "site": "Minneapolis-St Paul",
      "prior": 1,
      "obsTime": "2023-10-04T06:53:00Z",
      "temp": 18.3,
      "dewp": 15.0,
      "wspd": 7,
      "wdir": 190,
      "ceil": 100,
      "cover": "BKN",
      "cldCvg1": "BKN",
      "cldBas1": "100",
      "visib": 10.00,
      "fltcat": "VFR",
      "altim": 1005.8,
      "slp": 1005.2,
      "rawOb": "KMSP 040653Z 19007KT 10SM BKN100 18/15 A2970 RMK AO2 RAE0554 SLP052 P0000 T01830150"
    },
    "geometry": {
      "type": "Point",
      "coordinates": [-93.231,44.885]
    } 
  }]}
