{ "type": "FeatureCollection",
  "features": [
  { "type": "Feature",
    "properties": {
      "data": "METAR",
      "beg_time": "1694225407",
      "end_time": "1694232607",
      "wrap": "",
      "bbox": "-93.2717,44.8398,-93.1411,44.9201"
    }
  },
  { "type": "Feature",
    "id": "1311446455",
    "properties": {
      "data": "METAR",
      "id": "KMSP",
      "site": "Minneapolis-St Paul",
      "prior": 1,
      "obsTime": "2023-09-09T03:53:00Z",
      "temp": 18.9,
      "dewp": 10.6,
      "wspd": 6,
      "wdir": 140,
      "cover": "CLR",
      "cldCvg1": "CLR",
      "visib": 10.00,
      "fltcat": "VFR",
      "altim": 1020.4,
      "slp": 1020.0,
      "rawOb": "KMSP 090353Z 14006KT 10SM CLR 19/11 A3013 RMK AO2 SLP200 T01890106"
    },
    "geometry": {
      "type": "Point",
      "coordinates": [-93.231,44.885]
    } 
  }]}
