{ "type": "FeatureCollection",
  "features": [
  { "type": "Feature",
    "properties": {
      "data": "METAR",
      "beg_time": "1695121807",
      "end_time": "1695129007",
      "wrap": "",
      "bbox": "-93.2717,44.8398,-93.1411,44.9201"
    }
  },
  { "type": "Feature",
    "id": "1322409485",
    "properties": {
      "data": "METAR",
      "id": "KMSP",
      "site": "Minneapolis-St Paul",
      "prior": 1,
      "obsTime": "2023-09-19T12:53:00Z",
      "temp": 16.1,
      "dewp": 11.1,
      "wspd": 6,
      "wdir": 140,
      "cover": "SCT",
      "cldCvg1": "SCT",
      "cldBas1": "250",
      "visib": 10.00,
      "fltcat": "VFR",
      "altim": 1010.2,
      "slp": 1009.9,
      "rawOb": "KMSP 191253Z 14006KT 10SM SCT250 16/11 A2983 RMK AO2 SLP099 T01610111"
    },
    "geometry": {
      "type": "Point",
      "coordinates": [-93.231,44.885]
    } 
  }]}
