{ "type": "FeatureCollection",
  "features": [
  { "type": "Feature",
    "properties": {
      "data": "METAR",
      "beg_time": "1696201807",
      "end_time": "1696209007",
      "wrap": "",
      "bbox": "-93.2717,44.8398,-93.1411,44.9201"
    }
  },
  { "type": "Feature",
    "id": "1412590672",
    "properties": {
      "data": "METAR",
      "id": "KMSP",
      "site": "Minneapolis-St Paul",
      "prior": 1,
      "obsTime": "2023-10-02T00:53:00Z",
      "temp": 28.3,
      "dewp": 15.0,
      "wspd": 7,
      "wdir": 160,
      "cover": "FEW",
      "cldCvg1": "FEW",
      "cldBas1": "200",
      "visib": 10.00,
      "fltcat": "VFR",
      "altim": 1017.7,
      "slp": 1017.0,
      "rawOb": "KMSP 020053Z 16007KT 10SM FEW200 28/15 A3005 RMK AO2 SLP170 T02830150"
    },
    "geometry": {
      "type": "Point",
      "coordinates": [-93.231,44.885]
    } 
  }]}
