{ "type": "FeatureCollection",
  "features": [
  { "type": "Feature",
    "properties": {
      "data": "METAR",
      "beg_time": "1694812207",
      "end_time": "1694819407",
      "wrap": "",
      "bbox": "-93.2717,44.8398,-93.1411,44.9201"
    }
  },
  { "type": "Feature",
    "id": "1318642479",
    "properties": {
      "data": "METAR",
      "id": "KMSP",
      "site": "Minneapolis-St Paul",
      "prior": 1,
      "obsTime": "2023-09-15T22:53:00Z",
      "temp": 21.7,
      "dewp": 15.0,
      "wspd": 9,
      "wdir": 220,
      "cover": "SCT",
      "cldCvg1": "FEW",
      "cldBas1": "25",
      "cldCvg2": "FEW",
      "cldBas2": "100",
      "cldCvg3": "SCT",
      "cldBas3": "250",
      "visib": 10.00,
      "fltcat": "VFR",
      "altim": 1015.3,
      "slp": 1015.1,
      "rawOb": "KMSP 152253Z 22009KT 10SM FEW025 FEW100 SCT250 22/15 A2998 RMK AO2 SLP151 T02170150"
    },
    "geometry": {
      "type": "Point",
      "coordinates": [-93.231,44.885]
    } 
  }]}
