{ "type": "FeatureCollection",
  "features": [
  { "type": "Feature",
    "properties": {
      "data": "METAR",
      "beg_time": "1693339807",
      "end_time": "1693347007",
      "wrap": "",
      "bbox": "-93.2717,44.8398,-93.1411,44.9201"
    }
  },
  { "type": "Feature",
    "id": "1378075462",
    "properties": {
      "data": "METAR",
      "id": "KMSP",
      "site": "Minneapolis-St Paul",
      "prior": 1,
      "obsTime": "2023-08-29T21:53:00Z",
      "temp": 28.3,
      "dewp": 12.8,
      "wspd": 4,
      "wgst": 19,
      "wdir": 350,
      "cover": "SCT",
      "cldCvg1": "FEW",
      "cldBas1": "60",
      "cldCvg2": "SCT",
      "cldBas2": "70",
      "visib": 7.00,
      "fltcat": "VFR",
      "altim": 1015.0,
      "slp": 1014.5,
      "rawOb": "KMSP 292153Z 35004G19KT 7SM FEW060 SCT070 28/13 A2997 RMK AO2 SLP145 T02830128"
    },
    "geometry": {
      "type": "Point",
      "coordinates": [-93.231,44.885]
    } 
  }]}
