{ "type": "FeatureCollection",
  "features": [
  { "type": "Feature",
    "properties": {
      "data": "METAR",
      "beg_time": "1694473806",
      "end_time": "1694481006",
      "wrap": "",
      "bbox": "-93.2717,44.8398,-93.1411,44.9201"
    }
  },
  { "type": "Feature",
    "id": "1314491383",
    "properties": {
      "data": "METAR",
      "id": "KMSP",
      "site": "Minneapolis-St Paul",
      "prior": 1,
      "obsTime": "2023-09-12T00:53:00Z",
      "temp": 20.6,
      "dewp": 6.7,
      "wspd": 0,
      "wdir": 0,
      "ceil": 250,
      "cover": "BKN",
      "cldCvg1": "FEW",
      "cldBas1": "120",
      "cldCvg2": "SCT",
      "cldBas2": "180",
      "cldCvg3": "BKN",
      "cldBas3": "250",
      "visib": 10.00,
      "fltcat": "VFR",
      "altim": 1020.4,
      "slp": 1020.3,
      "rawOb": "KMSP 120053Z 00000KT 10SM FEW120 SCT180 BKN250 21/07 A3013 RMK AO2 SLP203 T02060067"
    },
    "geometry": {
      "type": "Point",
      "coordinates": [-93.231,44.885]
    } 
  }]}
