{ "type": "FeatureCollection",
  "features": [
  { "type": "Feature",
    "properties": {
      "data": "METAR",
      "beg_time": "1695748207",
      "end_time": "1695755407",
      "wrap": "",
      "bbox": "-93.2717,44.8398,-93.1411,44.9201"
    }
  },
  { "type": "Feature",
    "id": "1329891977",
    "properties": {
      "data": "METAR",
      "id": "KMSP",
      "site": "Minneapolis-St Paul",
      "prior": 1,
      "obsTime": "2023-09-26T18:53:00Z",
      "temp": 18.9,
      "dewp": 14.4,
      "wspd": 10,
      "wdir": 90,
      "ceil": 19,
      "cover": "OVC",
      "cldCvg1": "OVC",
      "cldBas1": "19",
      "visib": 10.00,
      "fltcat": "MVFR",
      "altim": 1021.1,
      "slp": 1020.9,
      "rawOb": "KMSP 261853Z 09010KT 10SM OVC019 19/14 A3015 RMK AO2 SLP209 T01890144"
    },
    "geometry": {
      "type": "Point",
      "coordinates": [-93.231,44.885]
    } 
  }]}
