{ "type": "FeatureCollection",
  "features": [
  { "type": "Feature",
    "properties": {
      "data": "METAR",
      "beg_time": "1696846206",
      "end_time": "1696853406",
      "wrap": "",
      "bbox": "-93.2717,44.8398,-93.1411,44.9201"
    }
  },
  { "type": "Feature",
    "id": "1420515816",
    "properties": {
      "data": "METAR",
      "id": "KMSP",
      "site": "Minneapolis-St Paul",
      "prior": 1,
      "obsTime": "2023-10-09T11:53:00Z",
      "temp": 4.4,
      "dewp": 1.7,
      "wspd": 6,
      "wdir": 340,
      "cover": "CLR",
      "cldCvg1": "CLR",
      "visib": 10.00,
      "fltcat": "VFR",
      "altim": 1015.0,
      "slp": 1015.2,
      "rawOb": "KMSP 091153Z 34006KT 10SM CLR 04/02 A2997 RMK AO2 SLP152 T00440017 10078 20044 53004"
    },
    "geometry": {
      "type": "Point",
      "coordinates": [-93.231,44.885]
    } 
  }]}
