{ "type": "FeatureCollection",
  "features": [
  { "type": "Feature",
    "properties": {
      "data": "METAR",
      "beg_time": "1693750207",
      "end_time": "1693757407",
      "wrap": "",
      "bbox": "-93.2717,44.8398,-93.1411,44.9201"
    }
  },
  { "type": "Feature",
    "id": "1383004692",
    "properties": {
      "data": "METAR",
      "id": "KMSP",
      "site": "Minneapolis-St Paul",
      "prior": 1,
      "obsTime": "2023-09-03T15:53:00Z",
      "temp": 30.0,
      "dewp": 15.6,
      "wspd": 8,
      "wdir": 230,
      "ceil": 250,
      "cover": "BKN",
      "cldCvg1": "FEW",
      "cldBas1": "180",
      "cldCvg2": "SCT",
      "cldBas2": "200",
      "cldCvg3": "BKN",
      "cldBas3": "250",
      "visib": 10.00,
      "fltcat": "VFR",
      "altim": 1008.2,
      "slp": 1007.4,
      "rawOb": "KMSP 031553Z 23008KT 10SM FEW180 SCT200 BKN250 30/16 A2977 RMK AO2 SLP074 T03000156"
    },
    "geometry": {
      "type": "Point",
      "coordinates": [-93.231,44.885]
    } 
  }]}
