{ "type": "FeatureCollection",
  "features": [
  { "type": "Feature",
    "properties": {
      "data": "METAR",
      "beg_time": "1692627008",
      "end_time": "1692634208",
      "wrap": "",
      "bbox": "-93.2717,44.8398,-93.1411,44.9201"
    }
  },
  { "type": "Feature",
    "id": "1292269081",
    "properties": {
      "data": "METAR",
      "id": "KMSP",
      "site": "Minneapolis-St Paul",
      "prior": 1,
      "obsTime": "2023-08-21T15:53:00Z",
      "temp": 22.2,
      "dewp": 17.8,
      "wspd": 6,
      "wdir": 110,
      "ceil": 16,
      "cover": "OVC",
      "cldCvg1": "OVC",
      "cldBas1": "16",
      "visib": 8.00,
      "fltcat": "MVFR",
      "altim": 1023.5,
      "slp": 1023.1,
      "rawOb": "KMSP 211553Z 11006KT 8SM OVC016 22/18 A3022 RMK AO2 SLP231 T02220178"
    },
    "geometry": {
      "type": "Point",
      "coordinates": [-93.231,44.885]
    } 
  }]}
