{ "type": "FeatureCollection",
  "features": [
  { "type": "Feature",
    "properties": {
      "data": "METAR",
      "beg_time": "1693404607",
      "end_time": "1693411807",
      "wrap": "",
      "bbox": "-93.2717,44.8398,-93.1411,44.9201"
    }
  },
  { "type": "Feature",
    "id": "1378877924",
    "properties": {
      "data": "METAR",
      "id": "KMSP",
      "site": "Minneapolis-St Paul",
      "prior": 1,
      "obsTime": "2023-08-30T15:53:00Z",
      "temp": 21.1,
      "dewp": 11.7,
      "wspd": 8,
      "wdir": 120,
      "cover": "FEW",
      "cldCvg1": "FEW",
      "cldBas1": "50",
      "visib": 10.00,
      "fltcat": "VFR",
      "altim": 1021.1,
      "slp": 1020.5,
      "rawOb": "KMSP 301553Z 12008KT 10SM FEW050 21/12 A3015 RMK AO2 SLP205 T02110117"
    },
    "geometry": {
      "type": "Point",
      "coordinates": [-93.231,44.885]
    } 
  }]}
