{ "type": "FeatureCollection",
  "features": [
  { "type": "Feature",
    "properties": {
      "data": "METAR",
      "beg_time": "1694938206",
      "end_time": "1694945406",
      "wrap": "",
      "bbox": "-93.2717,44.8398,-93.1411,44.9201"
    }
  },
  { "type": "Feature",
    "id": "1320159857",
    "properties": {
      "data": "METAR",
      "id": "KMSP",
      "site": "Minneapolis-St Paul",
      "prior": 1,
      "obsTime": "2023-09-17T09:53:00Z",
      "temp": 11.1,
      "dewp": 10.0,
      "wspd": 4,
      "wdir": 320,
      "cover": "CLR",
      "cldCvg1": "CLR",
      "visib": 10.00,
      "fltcat": "VFR",
      "altim": 1019.0,
      "slp": 1018.8,
      "rawOb": "KMSP 170953Z 32004KT 10SM CLR 11/10 A3009 RMK AO2 SLP188 T01110100 $"
    },
    "geometry": {
      "type": "Point",
      "coordinates": [-93.231,44.885]
    } 
  }]}
