{ "type": "FeatureCollection",
  "features": [
  { "type": "Feature",
    "properties": {
      "data": "METAR",
      "beg_time": "1693350606",
      "end_time": "1693357806",
      "wrap": "",
      "bbox": "-93.2717,44.8398,-93.1411,44.9201"
    }
  },
  { "type": "Feature",
    "id": "1378201178",
    "properties": {
      "data": "METAR",
      "id": "KMSP",
      "site": "Minneapolis-St Paul",
      "prior": 1,
      "obsTime": "2023-08-30T00:53:00Z",
      "temp": 25.0,
      "dewp": 13.9,
      "wspd": 7,
      "wdir": 90,
      "cover": "FEW",
      "cldCvg1": "FEW",
      "cldBas1": "60",
      "visib": 7.00,
      "fltcat": "VFR",
      "altim": 1015.3,
      "slp": 1014.9,
      "rawOb": "KMSP 300053Z 09007KT 7SM FEW060 25/14 A2998 RMK AO2 SLP149 T02500139"
    },
    "geometry": {
      "type": "Point",
      "coordinates": [-93.231,44.885]
    } 
  }]}
