{ "type": "FeatureCollection",
  "features": [
  { "type": "Feature",
    "properties": {
      "data": "METAR",
      "beg_time": "1694247006",
      "end_time": "1694254206",
      "wrap": "",
      "bbox": "-93.2717,44.8398,-93.1411,44.9201"
    }
  },
  { "type": "Feature",
    "id": "1311713769",
    "properties": {
      "data": "METAR",
      "id": "KMSP",
      "site": "Minneapolis-St Paul",
      "prior": 1,
      "obsTime": "2023-09-09T09:53:00Z",
      "temp": 16.1,
      "dewp": 10.6,
      "wspd": 6,
      "wdir": 140,
      "cover": "SCT",
      "cldCvg1": "SCT",
      "cldBas1": "65",
      "visib": 10.00,
      "fltcat": "VFR",
      "altim": 1021.1,
      "slp": 1020.6,
      "rawOb": "KMSP 090953Z 14006KT 10SM SCT065 16/11 A3015 RMK AO2 SLP206 T01610106"
    },
    "geometry": {
      "type": "Point",
      "coordinates": [-93.231,44.885]
    } 
  }]}
