{ "type": "FeatureCollection",
  "features": [
  { "type": "Feature",
    "properties": {
      "data": "METAR",
      "beg_time": "1694283006",
      "end_time": "1694290206",
      "wrap": "",
      "bbox": "-93.2717,44.8398,-93.1411,44.9201"
    }
  },
  { "type": "Feature",
    "id": "1312150771",
    "properties": {
      "data": "METAR",
      "id": "KMSP",
      "site": "Minneapolis-St Paul",
      "prior": 1,
      "obsTime": "2023-09-09T19:53:00Z",
      "temp": 24.4,
      "dewp": 13.3,
      "wspd": 7,
      "wdir": 260,
      "ceil": 110,
      "cover": "BKN",
      "cldCvg1": "FEW",
      "cldBas1": "50",
      "cldCvg2": "BKN",
      "cldBas2": "110",
      "cldCvg3": "BKN",
      "cldBas3": "250",
      "visib": 8.00,
      "fltcat": "VFR",
      "altim": 1020.1,
      "slp": 1019.9,
      "rawOb": "KMSP 091953Z 26007KT 8SM FEW050 BKN110 BKN250 24/13 A3012 RMK AO2 SLP199 T02440133"
    },
    "geometry": {
      "type": "Point",
      "coordinates": [-93.231,44.885]
    } 
  }]}
