{ "type": "FeatureCollection",
  "features": [
  { "type": "Feature",
    "properties": {
      "data": "METAR",
      "beg_time": "1694686206",
      "end_time": "1694693406",
      "wrap": "",
      "bbox": "-93.2717,44.8398,-93.1411,44.9201"
    }
  },
  { "type": "Feature",
    "id": "1317126879",
    "properties": {
      "data": "METAR",
      "id": "KMSP",
      "site": "Minneapolis-St Paul",
      "prior": 1,
      "obsTime": "2023-09-14T11:53:00Z",
      "temp": 10.6,
      "dewp": 7.2,
      "wspd": 6,
      "wdir": 150,
      "cover": "FEW",
      "cldCvg1": "FEW",
      "cldBas1": "85",
      "visib": 10.00,
      "fltcat": "VFR",
      "altim": 1019.4,
      "slp": 1019.3,
      "rawOb": "KMSP 141153Z 15006KT 10SM FEW085 11/07 A3010 RMK AO2 SLP193 T01060072 10122 20106 53004"
    },
    "geometry": {
      "type": "Point",
      "coordinates": [-93.231,44.885]
    } 
  }]}
