{ "type": "FeatureCollection",
  "features": [
  { "type": "Feature",
    "properties": {
      "data": "METAR",
      "beg_time": "1694862607",
      "end_time": "1694869807",
      "wrap": "",
      "bbox": "-93.2717,44.8398,-93.1411,44.9201"
    }
  },
  { "type": "Feature",
    "id": "1319247303",
    "properties": {
      "data": "METAR",
      "id": "KMSP",
      "site": "Minneapolis-St Paul",
      "prior": 1,
      "obsTime": "2023-09-16T12:53:00Z",
      "temp": 12.8,
      "dewp": 10.6,
      "wspd": 0,
      "wdir": 0,
      "cover": "FEW",
      "cldCvg1": "FEW",
      "cldBas1": "1",
      "cldCvg2": "FEW",
      "cldBas2": "60",
      "visib": 8.00,
      "fltcat": "VFR",
      "altim": 1017.7,
      "slp": 1017.4,
      "wx": "BCFG",
      "rawOb": "KMSP 161253Z 00000KT 8SM BCFG FEW001 FEW060 13/11 A3005 RMK AO2 SLP174 BCFG E-SE T01280106 $"
    },
    "geometry": {
      "type": "Point",
      "coordinates": [-93.231,44.885]
    } 
  }]}
