{ "type": "FeatureCollection",
  "features": [
  { "type": "Feature",
    "properties": {
      "data": "METAR",
      "beg_time": "1696824607",
      "end_time": "1696831807",
      "wrap": "",
      "bbox": "-93.2717,44.8398,-93.1411,44.9201"
    }
  },
  { "type": "Feature",
    "id": "1420257538",
    "properties": {
      "data": "METAR",
      "id": "KMSP",
      "site": "Minneapolis-St Paul",
      "prior": 1,
      "obsTime": "2023-10-09T05:53:00Z",
      "temp": 7.8,
      "dewp": 1.7,
      "wspd": 6,
      "wdir": 360,
      "cover": "FEW",
      "cldCvg1": "FEW",
      "cldBas1": "80",
      "visib": 10.00,
      "fltcat": "VFR",
      "altim": 1014.3,
      "slp": 1014.6,
      "rawOb": "KMSP 090553Z 36006KT 10SM FEW080 08/02 A2995 RMK AO2 SLP146 T00780017 10128 20078 401560078 56006"
    },
    "geometry": {
      "type": "Point",
      "coordinates": [-93.231,44.885]
    } 
  }]}
