{ "type": "FeatureCollection",
  "features": [
  { "type": "Feature",
    "properties": {
      "data": "METAR",
      "beg_time": "1696986607",
      "end_time": "1696993807",
      "wrap": "",
      "bbox": "-93.2717,44.8398,-93.1411,44.9201"
    }
  },
  { "type": "Feature",
    "id": "1422218828",
    "properties": {
      "data": "METAR",
      "id": "KMSP",
      "site": "Minneapolis-St Paul",
      "prior": 1,
      "obsTime": "2023-10-11T02:53:00Z",
      "temp": 8.9,
      "dewp": 0.6,
      "wspd": 4,
      "wdir": 270,
      "cover": "CLR",
      "cldCvg1": "CLR",
      "visib": 10.00,
      "fltcat": "VFR",
      "altim": 1008.9,
      "slp": 1009.2,
      "rawOb": "KMSP 110253Z 27004KT 10SM CLR 09/01 A2979 RMK AO2 SLP092 T00890006 53002"
    },
    "geometry": {
      "type": "Point",
      "coordinates": [-93.231,44.885]
    } 
  }]}
