{ "type": "FeatureCollection",
  "features": [
  { "type": "Feature",
    "properties": {
      "data": "METAR",
      "beg_time": "1694509806",
      "end_time": "1694517006",
      "wrap": "",
      "bbox": "-93.2717,44.8398,-93.1411,44.9201"
    }
  },
  { "type": "Feature",
    "id": "1314940713",
    "properties": {
      "data": "METAR",
      "id": "KMSP",
      "site": "Minneapolis-St Paul",
      "prior": 1,
      "obsTime": "2023-09-12T10:53:00Z",
      "temp": 12.8,
      "dewp": 10.6,
      "wspd": 0,
      "wdir": 0,
      "cover": "SCT",
      "cldCvg1": "SCT",
      "cldBas1": "95",
      "visib": 10.00,
      "fltcat": "VFR",
      "altim": 1020.7,
      "slp": 1020.5,
      "rawOb": "KMSP 121053Z 00000KT 10SM SCT095 13/11 A3014 RMK AO2 SLP205 T01280106 $"
    },
    "geometry": {
      "type": "Point",
      "coordinates": [-93.231,44.885]
    } 
  }]}
