{ "type": "FeatureCollection",
  "features": [
  { "type": "Feature",
    "properties": {
      "data": "METAR",
      "beg_time": "1697040606",
      "end_time": "1697047806",
      "wrap": "",
      "bbox": "-93.2717,44.8398,-93.1411,44.9201"
    }
  },
  { "type": "Feature",
    "id": "1422886310",
    "properties": {
      "data": "METAR",
      "id": "KMSP",
      "site": "Minneapolis-St Paul",
      "prior": 1,
      "obsTime": "2023-10-11T17:53:00Z",
      "temp": 13.9,
      "dewp": 4.4,
      "wspd": 0,
      "wdir": 0,
      "cover": "CLR",
      "cldCvg1": "CLR",
      "visib": 10.00,
      "fltcat": "VFR",
      "altim": 1009.6,
      "slp": 1009.6,
      "rawOb": "KMSP 111753Z 00000KT 10SM CLR 14/04 A2981 RMK AO2 SLP096 T01390044 10139 20044 58008"
    },
    "geometry": {
      "type": "Point",
      "coordinates": [-93.231,44.885]
    } 
  }]}
