{ "type": "FeatureCollection",
  "features": [
  { "type": "Feature",
    "properties": {
      "data": "METAR",
      "beg_time": "1696061407",
      "end_time": "1696068607",
      "wrap": "",
      "bbox": "-93.2717,44.8398,-93.1411,44.9201"
    }
  },
  { "type": "Feature",
    "id": "1410868010",
    "properties": {
      "data": "METAR",
      "id": "KMSP",
      "site": "Minneapolis-St Paul",
      "prior": 1,
      "obsTime": "2023-09-30T09:53:00Z",
      "temp": 20.6,
      "dewp": 18.3,
      "wspd": 7,
      "wdir": 120,
      "ceil": 85,
      "cover": "OVC",
      "cldCvg1": "FEW",
      "cldBas1": "30",
      "cldCvg2": "SCT",
      "cldBas2": "70",
      "cldCvg3": "OVC",
      "cldBas3": "85",
      "visib": 9.00,
      "fltcat": "VFR",
      "altim": 1014.0,
      "slp": 1013.4,
      "rawOb": "KMSP 300953Z COR 12007KT 9SM FEW030 SCT070 OVC085 21/18 A2994 RMK AO2 LTG DSNT NE AND E RAE49 TSE49 SLP134 P0015 T02060183"
    },
    "geometry": {
      "type": "Point",
      "coordinates": [-93.231,44.885]
    } 
  }]}
