{ "type": "FeatureCollection",
  "features": [
  { "type": "Feature",
    "properties": {
      "data": "METAR",
      "beg_time": "1693901407",
      "end_time": "1693908607",
      "wrap": "",
      "bbox": "-93.2717,44.8398,-93.1411,44.9201"
    }
  },
  { "type": "Feature",
    "id": "1384799768",
    "properties": {
      "data": "METAR",
      "id": "KMSP",
      "site": "Minneapolis-St Paul",
      "prior": 1,
      "obsTime": "2023-09-05T09:53:00Z",
      "temp": 25.6,
      "dewp": 17.8,
      "wspd": 9,
      "wdir": 170,
      "cover": "FEW",
      "cldCvg1": "FEW",
      "cldBas1": "200",
      "visib": 10.00,
      "fltcat": "VFR",
      "altim": 1004.8,
      "slp": 1004.0,
      "rawOb": "KMSP 050953Z 17009KT 10SM FEW200 26/18 A2967 RMK AO2 SLP040 T02560178"
    },
    "geometry": {
      "type": "Point",
      "coordinates": [-93.231,44.885]
    } 
  }]}
