{ "type": "FeatureCollection",
  "features": [
  { "type": "Feature",
    "properties": {
      "data": "METAR",
      "beg_time": "1693570207",
      "end_time": "1693577407",
      "wrap": "",
      "bbox": "-93.2717,44.8398,-93.1411,44.9201"
    }
  },
  { "type": "Feature",
    "id": "1380878278",
    "properties": {
      "data": "METAR",
      "id": "KMSP",
      "site": "Minneapolis-St Paul",
      "prior": 1,
      "obsTime": "2023-09-01T13:53:00Z",
      "temp": 20.0,
      "dewp": 12.8,
      "wspd": 12,
      "wdir": 180,
      "cover": "FEW",
      "cldCvg1": "FEW",
      "cldBas1": "85",
      "cldCvg2": "FEW",
      "cldBas2": "250",
      "visib": 10.00,
      "fltcat": "VFR",
      "altim": 1016.3,
      "slp": 1015.9,
      "rawOb": "KMSP 011353Z 18012KT 10SM FEW085 FEW250 20/13 A3001 RMK AO2 RAB05E43 SLP159 CB DSNT SE MOV E DSIPTG ACC DSNT N P0000 T02000128"
    },
    "geometry": {
      "type": "Point",
      "coordinates": [-93.231,44.885]
    } 
  }]}
