{ "type": "FeatureCollection",
  "features": [
  { "type": "Feature",
    "properties": {
      "data": "METAR",
      "beg_time": "1695147006",
      "end_time": "1695154206",
      "wrap": "",
      "bbox": "-93.2717,44.8398,-93.1411,44.9201"
    }
  },
  { "type": "Feature",
    "id": "1322634941",
    "properties": {
      "data": "METAR",
      "id": "KMSP",
      "site": "Minneapolis-St Paul",
      "prior": 1,
      "obsTime": "2023-09-19T19:53:00Z",
      "temp": 26.7,
      "dewp": 14.4,
      "wspd": 11,
      "wdir": 110,
      "cover": "FEW",
      "cldCvg1": "FEW",
      "cldBas1": "200",
      "cldCvg2": "FEW",
      "cldBas2": "250",
      "visib": 10.00,
      "fltcat": "VFR",
      "altim": 1008.5,
      "slp": 1008.0,
      "rawOb": "KMSP 191953Z 11011KT 10SM FEW200 FEW250 27/14 A2978 RMK AO2 SLP080 T02670144"
    },
    "geometry": {
      "type": "Point",
      "coordinates": [-93.231,44.885]
    } 
  }]}
