{ "type": "FeatureCollection",
  "features": [
  { "type": "Feature",
    "properties": {
      "data": "METAR",
      "beg_time": "1697425807",
      "end_time": "1697433007",
      "wrap": "",
      "bbox": "-93.2717,44.8398,-93.1411,44.9201"
    }
  },
  { "type": "Feature",
    "id": "1350550863",
    "properties": {
      "data": "METAR",
      "id": "KMSP",
      "site": "Minneapolis-St Paul",
      "prior": 1,
      "obsTime": "2023-10-16T04:53:00Z",
      "temp": 9.4,
      "dewp": 3.9,
      "wspd": 7,
      "wdir": 350,
      "cover": "CLR",
      "cldCvg1": "CLR",
      "visib": 10.00,
      "fltcat": "VFR",
      "altim": 1022.4,
      "slp": 1022.9,
      "rawOb": "KMSP 160453Z 35007KT 10SM CLR 09/04 A3019 RMK AO2 SLP229 T00940039"
    },
    "geometry": {
      "type": "Point",
      "coordinates": [-93.231,44.885]
    } 
  }]}
