{ "type": "FeatureCollection",
  "features": [
  { "type": "Feature",
    "properties": {
      "data": "METAR",
      "beg_time": "1694599807",
      "end_time": "1694607007",
      "wrap": "",
      "bbox": "-93.2717,44.8398,-93.1411,44.9201"
    }
  },
  { "type": "Feature",
    "id": "1316072069",
    "properties": {
      "data": "METAR",
      "id": "KMSP",
      "site": "Minneapolis-St Paul",
      "prior": 1,
      "obsTime": "2023-09-13T11:53:00Z",
      "temp": 8.3,
      "dewp": 6.1,
      "wspd": 5,
      "wdir": 70,
      "cover": "CLR",
      "cldCvg1": "CLR",
      "visib": 10.00,
      "fltcat": "VFR",
      "altim": 1022.4,
      "slp": 1022.7,
      "rawOb": "KMSP 131153Z 07005KT 10SM CLR 08/06 A3019 RMK AO2 SLP227 T00830061 10111 20083 53004"
    },
    "geometry": {
      "type": "Point",
      "coordinates": [-93.231,44.885]
    } 
  }]}
