{ "type": "FeatureCollection",
  "features": [
  { "type": "Feature",
    "properties": {
      "data": "METAR",
      "beg_time": "1696176607",
      "end_time": "1696183807",
      "wrap": "",
      "bbox": "-93.2717,44.8398,-93.1411,44.9201"
    }
  },
  { "type": "Feature",
    "id": "1412284568",
    "properties": {
      "data": "METAR",
      "id": "KMSP",
      "site": "Minneapolis-St Paul",
      "prior": 1,
      "obsTime": "2023-10-01T17:53:00Z",
      "temp": 30.0,
      "dewp": 17.2,
      "wspd": 10,
      "wdir": 200,
      "cover": "FEW",
      "cldCvg1": "FEW",
      "cldBas1": "200",
      "visib": 10.00,
      "fltcat": "VFR",
      "altim": 1019.4,
      "slp": 1018.8,
      "rawOb": "KMSP 011753Z 20010KT 10SM FEW200 30/17 A3010 RMK AO2 SLP188 T03000172 10300 20206 58011"
    },
    "geometry": {
      "type": "Point",
      "coordinates": [-93.231,44.885]
    } 
  }]}
