{ "type": "FeatureCollection",
  "features": [
  { "type": "Feature",
    "properties": {
      "data": "METAR",
      "beg_time": "1694967007",
      "end_time": "1694974207",
      "wrap": "",
      "bbox": "-93.2717,44.8398,-93.1411,44.9201"
    }
  },
  { "type": "Feature",
    "id": "1320512907",
    "properties": {
      "data": "METAR",
      "id": "KMSP",
      "site": "Minneapolis-St Paul",
      "prior": 1,
      "obsTime": "2023-09-17T17:53:00Z",
      "temp": 21.7,
      "dewp": 9.4,
      "wspd": 7,
      "wdir": 330,
      "cover": "SCT",
      "cldCvg1": "SCT",
      "cldBas1": "40",
      "visib": 10.00,
      "fltcat": "VFR",
      "altim": 1019.7,
      "slp": 1019.3,
      "rawOb": "KMSP 171753Z 33007KT 10SM SCT040 22/09 A3011 RMK AO2 SLP193 T02170094 10217 20111 58005 $"
    },
    "geometry": {
      "type": "Point",
      "coordinates": [-93.231,44.885]
    } 
  }]}
