{ "type": "FeatureCollection",
  "features": [
  { "type": "Feature",
    "properties": {
      "data": "METAR",
      "beg_time": "1696309807",
      "end_time": "1696317007",
      "wrap": "",
      "bbox": "-93.2717,44.8398,-93.1411,44.9201"
    }
  },
  { "type": "Feature",
    "id": "1413922820",
    "properties": {
      "data": "METAR",
      "id": "KMSP",
      "site": "Minneapolis-St Paul",
      "prior": 1,
      "obsTime": "2023-10-03T06:53:00Z",
      "temp": 22.8,
      "dewp": 13.3,
      "wspd": 11,
      "wgst": 18,
      "wdir": 170,
      "cover": "CLR",
      "cldCvg1": "CLR",
      "visib": 10.00,
      "fltcat": "VFR",
      "altim": 1014.6,
      "slp": 1013.9,
      "rawOb": "KMSP 030653Z 17011G18KT 10SM CLR 23/13 A2996 RMK AO2 SLP139 T02280133"
    },
    "geometry": {
      "type": "Point",
      "coordinates": [-93.231,44.885]
    } 
  }]}
