{ "type": "FeatureCollection",
  "features": [
  { "type": "Feature",
    "properties": {
      "data": "METAR",
      "beg_time": "1696155006",
      "end_time": "1696162206",
      "wrap": "",
      "bbox": "-93.2717,44.8398,-93.1411,44.9201"
    }
  },
  { "type": "Feature",
    "id": "1412018196",
    "properties": {
      "data": "METAR",
      "id": "KMSP",
      "site": "Minneapolis-St Paul",
      "prior": 1,
      "obsTime": "2023-10-01T11:53:00Z",
      "temp": 21.1,
      "dewp": 14.4,
      "wspd": 6,
      "wdir": 160,
      "cover": "FEW",
      "cldCvg1": "FEW",
      "cldBas1": "200",
      "visib": 10.00,
      "fltcat": "VFR",
      "altim": 1019.7,
      "slp": 1019.3,
      "rawOb": "KMSP 011153Z 16006KT 10SM FEW200 21/14 A3011 RMK AO2 SLP193 T02110144 10228 20206 51006"
    },
    "geometry": {
      "type": "Point",
      "coordinates": [-93.231,44.885]
    } 
  }]}
