{ "type": "FeatureCollection",
  "features": [
  { "type": "Feature",
    "properties": {
      "data": "METAR",
      "beg_time": "1694275807",
      "end_time": "1694283007",
      "wrap": "",
      "bbox": "-93.2717,44.8398,-93.1411,44.9201"
    }
  },
  { "type": "Feature",
    "id": "1312063437",
    "properties": {
      "data": "METAR",
      "id": "KMSP",
      "site": "Minneapolis-St Paul",
      "prior": 1,
      "obsTime": "2023-09-09T17:53:00Z",
      "temp": 23.3,
      "dewp": 12.8,
      "wspd": 6,
      "wdir": 250,
      "ceil": 250,
      "cover": "BKN",
      "cldCvg1": "SCT",
      "cldBas1": "120",
      "cldCvg2": "BKN",
      "cldBas2": "250",
      "visib": 9.00,
      "fltcat": "VFR",
      "altim": 1020.4,
      "slp": 1019.9,
      "rawOb": "KMSP 091753Z 25006KT 9SM SCT120 BKN250 23/13 A3013 RMK AO2 SLP199 T02330128 10233 20156 58013"
    },
    "geometry": {
      "type": "Point",
      "coordinates": [-93.231,44.885]
    } 
  }]}
