{ "type": "FeatureCollection",
  "features": [
  { "type": "Feature",
    "properties": {
      "data": "METAR",
      "beg_time": "1697371807",
      "end_time": "1697379007",
      "wrap": "",
      "bbox": "-93.2717,44.8398,-93.1411,44.9201"
    }
  },
  { "type": "Feature",
    "id": "1349907671",
    "properties": {
      "data": "METAR",
      "id": "KMSP",
      "site": "Minneapolis-St Paul",
      "prior": 1,
      "obsTime": "2023-10-15T13:53:00Z",
      "temp": 6.7,
      "dewp": 2.8,
      "wspd": 7,
      "wdir": 320,
      "ceil": 26,
      "cover": "OVC",
      "cldCvg1": "OVC",
      "cldBas1": "26",
      "visib": 10.00,
      "fltcat": "MVFR",
      "altim": 1026.2,
      "slp": 1026.6,
      "rawOb": "KMSP 151353Z 32007KT 10SM OVC026 07/03 A3030 RMK AO2 SLP266 T00670028"
    },
    "geometry": {
      "type": "Point",
      "coordinates": [-93.231,44.885]
    } 
  }]}
