{ "type": "FeatureCollection",
  "features": [
  { "type": "Feature",
    "properties": {
      "data": "METAR",
      "beg_time": "1694826607",
      "end_time": "1694833807",
      "wrap": "",
      "bbox": "-93.2717,44.8398,-93.1411,44.9201"
    }
  },
  { "type": "Feature",
    "id": "1318814239",
    "properties": {
      "data": "METAR",
      "id": "KMSP",
      "site": "Minneapolis-St Paul",
      "prior": 1,
      "obsTime": "2023-09-16T02:53:00Z",
      "temp": 18.3,
      "dewp": 16.1,
      "wspd": 6,
      "wdir": 230,
      "cover": "FEW",
      "cldCvg1": "FEW",
      "cldBas1": "250",
      "visib": 9.00,
      "fltcat": "VFR",
      "altim": 1016.7,
      "slp": 1016.3,
      "rawOb": "KMSP 160253Z 23006KT 9SM FEW250 18/16 A3002 RMK AO2 SLP163 T01830161 51012"
    },
    "geometry": {
      "type": "Point",
      "coordinates": [-93.231,44.885]
    } 
  }]}
