{ "type": "FeatureCollection",
  "features": [
  { "type": "Feature",
    "properties": {
      "data": "METAR",
      "beg_time": "1697188207",
      "end_time": "1697195407",
      "wrap": "",
      "bbox": "-93.2717,44.8398,-93.1411,44.9201"
    }
  },
  { "type": "Feature",
    "id": "1424741572",
    "properties": {
      "data": "METAR",
      "id": "KMSP",
      "site": "Minneapolis-St Paul",
      "prior": 1,
      "obsTime": "2023-10-13T10:53:00Z",
      "temp": 8.9,
      "dewp": 7.2,
      "wspd": 12,
      "wgst": 28,
      "wdir": 80,
      "ceil": 12,
      "cover": "OVC",
      "cldCvg1": "OVC",
      "cldBas1": "12",
      "visib": 9.00,
      "fltcat": "MVFR",
      "altim": 1009.2,
      "slp": 1009.4,
      "wx": "-RA",
      "rawOb": "KMSP 131053Z 08012G28KT 9SM -RA OVC012 09/07 A2980 RMK AO2 PK WND 06029/1015 SLP094 P0001 T00890072"
    },
    "geometry": {
      "type": "Point",
      "coordinates": [-93.231,44.885]
    } 
  }]}
