{ "type": "FeatureCollection",
  "features": [
  { "type": "Feature",
    "properties": {
      "data": "METAR",
      "beg_time": "1693840206",
      "end_time": "1693847406",
      "wrap": "",
      "bbox": "-93.2717,44.8398,-93.1411,44.9201"
    }
  },
  { "type": "Feature",
    "id": "1384076730",
    "properties": {
      "data": "METAR",
      "id": "KMSP",
      "site": "Minneapolis-St Paul",
      "prior": 1,
      "obsTime": "2023-09-04T16:53:00Z",
      "temp": 33.3,
      "dewp": 15.6,
      "wspd": 11,
      "wgst": 20,
      "wdir": 190,
      "cover": "FEW",
      "cldCvg1": "FEW",
      "cldBas1": "250",
      "visib": 10.00,
      "fltcat": "VFR",
      "altim": 1005.8,
      "slp": 1004.9,
      "rawOb": "KMSP 041653Z 19011G20KT 10SM FEW250 33/16 A2970 RMK AO2 SLP049 T03330156"
    },
    "geometry": {
      "type": "Point",
      "coordinates": [-93.231,44.885]
    } 
  }]}
