{ "type": "FeatureCollection",
  "features": [
  { "type": "Feature",
    "properties": {
      "data": "METAR",
      "beg_time": "1693786207",
      "end_time": "1693793407",
      "wrap": "",
      "bbox": "-93.2717,44.8398,-93.1411,44.9201"
    }
  },
  { "type": "Feature",
    "id": "1383428066",
    "properties": {
      "data": "METAR",
      "id": "KMSP",
      "site": "Minneapolis-St Paul",
      "prior": 1,
      "obsTime": "2023-09-04T01:53:00Z",
      "temp": 32.2,
      "dewp": 16.7,
      "wspd": 4,
      "wdir": 200,
      "cover": "FEW",
      "cldCvg1": "FEW",
      "cldBas1": "250",
      "visib": 10.00,
      "fltcat": "VFR",
      "altim": 1007.5,
      "slp": 1006.7,
      "rawOb": "KMSP 040153Z 20004KT 10SM FEW250 32/17 A2975 RMK AO2 SLP067 T03220167"
    },
    "geometry": {
      "type": "Point",
      "coordinates": [-93.231,44.885]
    } 
  }]}
