{ "type": "FeatureCollection",
  "features": [
  { "type": "Feature",
    "properties": {
      "data": "METAR",
      "beg_time": "1696140607",
      "end_time": "1696147807",
      "wrap": "",
      "bbox": "-93.2717,44.8398,-93.1411,44.9201"
    }
  },
  { "type": "Feature",
    "id": "1411834466",
    "properties": {
      "data": "METAR",
      "id": "KMSP",
      "site": "Minneapolis-St Paul",
      "prior": 1,
      "obsTime": "2023-10-01T07:53:00Z",
      "temp": 21.7,
      "dewp": 17.2,
      "wspd": 6,
      "wdir": 120,
      "cover": "FEW",
      "cldCvg1": "FEW",
      "cldBas1": "200",
      "visib": 10.00,
      "fltcat": "VFR",
      "altim": 1019.0,
      "slp": 1018.2,
      "rawOb": "KMSP 010753Z 12006KT 10SM FEW200 22/17 A3009 RMK AO2 SLP182 T02170172"
    },
    "geometry": {
      "type": "Point",
      "coordinates": [-93.231,44.885]
    } 
  }]}
