{ "type": "FeatureCollection",
  "features": [
  { "type": "Feature",
    "properties": {
      "data": "METAR",
      "beg_time": "1693278606",
      "end_time": "1693285806",
      "wrap": "",
      "bbox": "-93.2717,44.8398,-93.1411,44.9201"
    }
  },
  { "type": "Feature",
    "id": "1377333606",
    "properties": {
      "data": "METAR",
      "id": "KMSP",
      "site": "Minneapolis-St Paul",
      "prior": 1,
      "obsTime": "2023-08-29T04:53:00Z",
      "temp": 22.8,
      "dewp": 17.2,
      "wspd": 5,
      "wdir": 330,
      "cover": "FEW",
      "cldCvg1": "FEW",
      "cldBas1": "65",
      "visib": 10.00,
      "fltcat": "VFR",
      "altim": 1013.3,
      "slp": 1012.7,
      "rawOb": "KMSP 290453Z 33005KT 10SM FEW065 23/17 A2992 RMK AO2 SLP127 T02280172"
    },
    "geometry": {
      "type": "Point",
      "coordinates": [-93.231,44.885]
    } 
  }]}
