{ "type": "FeatureCollection",
  "features": [
  { "type": "Feature",
    "properties": {
      "data": "METAR",
      "beg_time": "1694182207",
      "end_time": "1694189407",
      "wrap": "",
      "bbox": "-93.2717,44.8398,-93.1411,44.9201"
    }
  },
  { "type": "Feature",
    "id": "1310925013",
    "properties": {
      "data": "METAR",
      "id": "KMSP",
      "site": "Minneapolis-St Paul",
      "prior": 1,
      "obsTime": "2023-09-08T15:53:00Z",
      "temp": 18.9,
      "dewp": 11.1,
      "wspd": 0,
      "wdir": 0,
      "cover": "FEW",
      "cldCvg1": "FEW",
      "cldBas1": "20",
      "visib": 10.00,
      "fltcat": "VFR",
      "altim": 1021.4,
      "slp": 1021.2,
      "rawOb": "KMSP 081553Z 00000KT 10SM FEW020 19/11 A3016 RMK AO2 SLP212 T01890111"
    },
    "geometry": {
      "type": "Point",
      "coordinates": [-93.231,44.885]
    } 
  }]}
