{ "type": "FeatureCollection",
  "features": [
  { "type": "Feature",
    "properties": {
      "data": "METAR",
      "beg_time": "1694383807",
      "end_time": "1694391007",
      "wrap": "",
      "bbox": "-93.2717,44.8398,-93.1411,44.9201"
    }
  },
  { "type": "Feature",
    "id": "1313371919",
    "properties": {
      "data": "METAR",
      "id": "KMSP",
      "site": "Minneapolis-St Paul",
      "prior": 1,
      "obsTime": "2023-09-10T23:53:00Z",
      "temp": 21.7,
      "dewp": 8.9,
      "wspd": 7,
      "wdir": 20,
      "ceil": 240,
      "cover": "OVC",
      "cldCvg1": "FEW",
      "cldBas1": "42",
      "cldCvg2": "SCT",
      "cldBas2": "80",
      "cldCvg3": "OVC",
      "cldBas3": "240",
      "visib": 10.00,
      "fltcat": "VFR",
      "altim": 1022.1,
      "slp": 1021.7,
      "rawOb": "KMSP 102353Z 02007KT 10SM FEW042 SCT080 OVC240 22/09 A3018 RMK AO2 SLP217 T02170089 10228 20206 53001"
    },
    "geometry": {
      "type": "Point",
      "coordinates": [-93.231,44.885]
    } 
  }]}
