{ "type": "FeatureCollection",
  "features": [
  { "type": "Feature",
    "properties": {
      "data": "METAR",
      "beg_time": "1695708607",
      "end_time": "1695715807",
      "wrap": "",
      "bbox": "-93.2717,44.8398,-93.1411,44.9201"
    }
  },
  { "type": "Feature",
    "id": "1329406841",
    "properties": {
      "data": "METAR",
      "id": "KMSP",
      "site": "Minneapolis-St Paul",
      "prior": 1,
      "obsTime": "2023-09-26T07:53:00Z",
      "temp": 16.7,
      "dewp": 15.6,
      "wspd": 9,
      "wdir": 70,
      "ceil": 21,
      "cover": "OVC",
      "cldCvg1": "BKN",
      "cldBas1": "21",
      "cldCvg2": "OVC",
      "cldBas2": "85",
      "visib": 10.00,
      "fltcat": "MVFR",
      "altim": 1018.7,
      "slp": 1018.5,
      "rawOb": "KMSP 260753Z 07009KT 10SM BKN021 OVC085 17/16 A3008 RMK AO2 RAE34 SLP185 P0001 T01670156"
    },
    "geometry": {
      "type": "Point",
      "coordinates": [-93.231,44.885]
    } 
  }]}
