{ "type": "FeatureCollection",
  "features": [
  { "type": "Feature",
    "properties": {
      "data": "METAR",
      "beg_time": "1692925807",
      "end_time": "1692933007",
      "wrap": "",
      "bbox": "-93.2717,44.8398,-93.1411,44.9201"
    }
  },
  { "type": "Feature",
    "id": "1373075720",
    "properties": {
      "data": "METAR",
      "id": "KMSP",
      "site": "Minneapolis-St Paul",
      "prior": 1,
      "obsTime": "2023-08-25T02:53:00Z",
      "temp": 25.6,
      "dewp": 20.6,
      "wspd": 6,
      "wdir": 50,
      "cover": "FEW",
      "cldCvg1": "FEW",
      "cldBas1": "40",
      "cldCvg2": "FEW",
      "cldBas2": "120",
      "visib": 10.00,
      "fltcat": "VFR",
      "altim": 1014.0,
      "slp": 1013.5,
      "rawOb": "KMSP 250253Z 05006KT 10SM FEW040 FEW120 26/21 A2994 RMK AO2 SLP135 T02560206 51013"
    },
    "geometry": {
      "type": "Point",
      "coordinates": [-93.231,44.885]
    } 
  }]}
