{ "type": "FeatureCollection",
  "features": [
  { "type": "Feature",
    "properties": {
      "data": "METAR",
      "beg_time": "1692864607",
      "end_time": "1692871807",
      "wrap": "",
      "bbox": "-93.2717,44.8398,-93.1411,44.9201"
    }
  },
  { "type": "Feature",
    "id": "1372337064",
    "properties": {
      "data": "METAR",
      "id": "KMSP",
      "site": "Minneapolis-St Paul",
      "prior": 1,
      "obsTime": "2023-08-24T09:53:00Z",
      "temp": 23.3,
      "dewp": 21.1,
      "wspd": 6,
      "wdir": 350,
      "cover": "FEW",
      "cldCvg1": "FEW",
      "cldBas1": "10",
      "cldCvg2": "FEW",
      "cldBas2": "240",
      "visib": 9.00,
      "fltcat": "VFR",
      "altim": 1008.5,
      "slp": 1007.7,
      "rawOb": "KMSP 240953Z 35006KT 9SM FEW010 FEW240 23/21 A2978 RMK AO2 SLP077 T02330211"
    },
    "geometry": {
      "type": "Point",
      "coordinates": [-93.231,44.885]
    } 
  }]}
