{ "type": "FeatureCollection",
  "features": [
  { "type": "Feature",
    "properties": {
      "data": "METAR",
      "beg_time": "1693926607",
      "end_time": "1693933807",
      "wrap": "",
      "bbox": "-93.2717,44.8398,-93.1411,44.9201"
    }
  },
  { "type": "Feature",
    "id": "1385090564",
    "properties": {
      "data": "METAR",
      "id": "KMSP",
      "site": "Minneapolis-St Paul",
      "prior": 1,
      "obsTime": "2023-09-05T16:53:00Z",
      "temp": 30.6,
      "dewp": 18.9,
      "wspd": 11,
      "wdir": 170,
      "cover": "SCT",
      "cldCvg1": "FEW",
      "cldBas1": "150",
      "cldCvg2": "SCT",
      "cldBas2": "250",
      "visib": 10.00,
      "fltcat": "VFR",
      "altim": 1003.5,
      "slp": 1002.4,
      "rawOb": "KMSP 051653Z 17011KT 10SM FEW150 SCT250 31/19 A2963 RMK AO2 SLP024 T03060189"
    },
    "geometry": {
      "type": "Point",
      "coordinates": [-93.231,44.885]
    } 
  }]}
