{ "type": "FeatureCollection",
  "features": [
  { "type": "Feature",
    "properties": {
      "data": "METAR",
      "beg_time": "1695096606",
      "end_time": "1695103806",
      "wrap": "",
      "bbox": "-93.2717,44.8398,-93.1411,44.9201"
    }
  },
  { "type": "Feature",
    "id": "1322100687",
    "properties": {
      "data": "METAR",
      "id": "KMSP",
      "site": "Minneapolis-St Paul",
      "prior": 1,
      "obsTime": "2023-09-19T05:53:00Z",
      "temp": 18.9,
      "dewp": 9.4,
      "wspd": 9,
      "wdir": 140,
      "cover": "FEW",
      "cldCvg1": "FEW",
      "cldBas1": "80",
      "visib": 10.00,
      "fltcat": "VFR",
      "altim": 1010.6,
      "slp": 1010.0,
      "rawOb": "KMSP 190553Z 14009KT 10SM FEW080 19/09 A2984 RMK AO2 SLP100 T01890094 10233 20189 402500122 58009"
    },
    "geometry": {
      "type": "Point",
      "coordinates": [-93.231,44.885]
    } 
  }]}
