{ "type": "FeatureCollection",
  "features": [
  { "type": "Feature",
    "properties": {
      "data": "METAR",
      "beg_time": "1694203806",
      "end_time": "1694211006",
      "wrap": "",
      "bbox": "-93.2717,44.8398,-93.1411,44.9201"
    }
  },
  { "type": "Feature",
    "id": "1311184321",
    "properties": {
      "data": "METAR",
      "id": "KMSP",
      "site": "Minneapolis-St Paul",
      "prior": 1,
      "obsTime": "2023-09-08T21:53:00Z",
      "temp": 25.0,
      "dewp": 9.4,
      "wspd": 4,
      "wdir": 170,
      "cover": "FEW",
      "cldCvg1": "FEW",
      "cldBas1": "250",
      "visib": 10.00,
      "fltcat": "VFR",
      "altim": 1019.4,
      "slp": 1019.0,
      "rawOb": "KMSP 082153Z 17004KT 10SM FEW250 25/09 A3010 RMK AO2 SLP190 T02500094"
    },
    "geometry": {
      "type": "Point",
      "coordinates": [-93.231,44.885]
    } 
  }]}
