{ "type": "FeatureCollection",
  "features": [
  { "type": "Feature",
    "properties": {
      "data": "METAR",
      "beg_time": "1694412607",
      "end_time": "1694419807",
      "wrap": "",
      "bbox": "-93.2717,44.8398,-93.1411,44.9201"
    }
  },
  { "type": "Feature",
    "id": "1313727245",
    "properties": {
      "data": "METAR",
      "id": "KMSP",
      "site": "Minneapolis-St Paul",
      "prior": 1,
      "obsTime": "2023-09-11T07:53:00Z",
      "temp": 13.3,
      "dewp": 10.0,
      "wspd": 3,
      "wdir": 360,
      "cover": "CLR",
      "cldCvg1": "CLR",
      "visib": 10.00,
      "fltcat": "VFR",
      "altim": 1022.4,
      "slp": 1022.1,
      "rawOb": "KMSP 110753Z 36003KT 10SM CLR 13/10 A3019 RMK AO2 SLP221 T01330100"
    },
    "geometry": {
      "type": "Point",
      "coordinates": [-93.231,44.885]
    } 
  }]}
