{ "type": "FeatureCollection",
  "features": [
  { "type": "Feature",
    "properties": {
      "data": "METAR",
      "beg_time": "1693318207",
      "end_time": "1693325407",
      "wrap": "",
      "bbox": "-93.2717,44.8398,-93.1411,44.9201"
    }
  },
  { "type": "Feature",
    "id": "1377810862",
    "properties": {
      "data": "METAR",
      "id": "KMSP",
      "site": "Minneapolis-St Paul",
      "prior": 1,
      "obsTime": "2023-08-29T15:53:00Z",
      "temp": 25.0,
      "dewp": 12.8,
      "wspd": 10,
      "wgst": 24,
      "wdir": 350,
      "cover": "CLR",
      "cldCvg1": "CLR",
      "visib": 7.00,
      "fltcat": "VFR",
      "altim": 1016.0,
      "slp": 1015.2,
      "rawOb": "KMSP 291553Z 35010G24KT 7SM CLR 25/13 A3000 RMK AO2 SLP152 T02500128"
    },
    "geometry": {
      "type": "Point",
      "coordinates": [-93.231,44.885]
    } 
  }]}
