{ "type": "FeatureCollection",
  "features": [
  { "type": "Feature",
    "properties": {
      "data": "METAR",
      "beg_time": "1695647407",
      "end_time": "1695654607",
      "wrap": "",
      "bbox": "-93.2717,44.8398,-93.1411,44.9201"
    }
  },
  { "type": "Feature",
    "id": "1328662173",
    "properties": {
      "data": "METAR",
      "id": "KMSP",
      "site": "Minneapolis-St Paul",
      "prior": 1,
      "obsTime": "2023-09-25T14:53:00Z",
      "temp": 17.2,
      "dewp": 15.0,
      "wspd": 5,
      "wdir": 110,
      "ceil": 9,
      "cover": "OVC",
      "cldCvg1": "OVC",
      "cldBas1": "9",
      "visib": 7.00,
      "fltcat": "IFR",
      "altim": 1016.0,
      "slp": 1015.7,
      "rawOb": "KMSP 251453Z 11005KT 7SM OVC009 17/15 A3000 RMK AO2 SLP157 T01720150 51010"
    },
    "geometry": {
      "type": "Point",
      "coordinates": [-93.231,44.885]
    } 
  }]}
