{ "type": "FeatureCollection",
  "features": [
  { "type": "Feature",
    "properties": {
      "data": "METAR",
      "beg_time": "1693962607",
      "end_time": "1693969807",
      "wrap": "",
      "bbox": "-93.2717,44.8398,-93.1411,44.9201"
    }
  },
  { "type": "Feature",
    "id": "1385513422",
    "properties": {
      "data": "METAR",
      "id": "KMSP",
      "site": "Minneapolis-St Paul",
      "prior": 1,
      "obsTime": "2023-09-06T02:53:00Z",
      "temp": 25.6,
      "dewp": 19.4,
      "wspd": 9,
      "wdir": 290,
      "ceil": 55,
      "cover": "BKN",
      "cldCvg1": "BKN",
      "cldBas1": "55",
      "visib": 10.00,
      "fltcat": "VFR",
      "altim": 1004.5,
      "slp": 1003.8,
      "rawOb": "KMSP 060253Z 29009KT 10SM BKN055 26/19 A2966 RMK AO2 SLP038 T02560194 53019"
    },
    "geometry": {
      "type": "Point",
      "coordinates": [-93.231,44.885]
    } 
  }]}
