{ "type": "FeatureCollection",
  "features": [
  { "type": "Feature",
    "properties": {
      "data": "METAR",
      "beg_time": "1693134606",
      "end_time": "1693141806",
      "wrap": "",
      "bbox": "-93.2717,44.8398,-93.1411,44.9201"
    }
  },
  { "type": "Feature",
    "id": "1375596454",
    "properties": {
      "data": "METAR",
      "id": "KMSP",
      "site": "Minneapolis-St Paul",
      "prior": 1,
      "obsTime": "2023-08-27T12:53:00Z",
      "temp": 15.0,
      "dewp": 11.7,
      "wspd": 4,
      "wdir": 80,
      "ceil": 150,
      "cover": "BKN",
      "cldCvg1": "SCT",
      "cldBas1": "38",
      "cldCvg2": "BKN",
      "cldBas2": "150",
      "visib": 9.00,
      "fltcat": "VFR",
      "altim": 1021.8,
      "slp": 1021.7,
      "rawOb": "KMSP 271253Z 08004KT 9SM SCT038 BKN150 15/12 A3017 RMK AO2 SLP217 T01500117"
    },
    "geometry": {
      "type": "Point",
      "coordinates": [-93.231,44.885]
    } 
  }]}
