{ "type": "FeatureCollection",
  "features": [
  { "type": "Feature",
    "properties": {
      "data": "METAR",
      "beg_time": "1693231807",
      "end_time": "1693239007",
      "wrap": "",
      "bbox": "-93.2717,44.8398,-93.1411,44.9201"
    }
  },
  { "type": "Feature",
    "id": "1376768136",
    "properties": {
      "data": "METAR",
      "id": "KMSP",
      "site": "Minneapolis-St Paul",
      "prior": 1,
      "obsTime": "2023-08-28T15:53:00Z",
      "temp": 25.0,
      "dewp": 13.9,
      "wspd": 10,
      "wdir": 220,
      "cover": "FEW",
      "cldCvg1": "FEW",
      "cldBas1": "65",
      "visib": 10.00,
      "fltcat": "VFR",
      "altim": 1015.0,
      "slp": 1014.4,
      "rawOb": "KMSP 281553Z 22010KT 10SM FEW065 25/14 A2997 RMK AO2 SLP144 ACC DSNT NW-N T02500139"
    },
    "geometry": {
      "type": "Point",
      "coordinates": [-93.231,44.885]
    } 
  }]}
