{ "type": "FeatureCollection",
  "features": [
  { "type": "Feature",
    "properties": {
      "data": "METAR",
      "beg_time": "1692933007",
      "end_time": "1692940207",
      "wrap": "",
      "bbox": "-93.2717,44.8398,-93.1411,44.9201"
    }
  },
  { "type": "Feature",
    "id": "1373163290",
    "properties": {
      "data": "METAR",
      "id": "KMSP",
      "site": "Minneapolis-St Paul",
      "prior": 1,
      "obsTime": "2023-08-25T04:53:00Z",
      "temp": 23.9,
      "dewp": 19.4,
      "wspd": 7,
      "wdir": 80,
      "cover": "FEW",
      "cldCvg1": "FEW",
      "cldBas1": "180",
      "visib": 10.00,
      "fltcat": "VFR",
      "altim": 1014.3,
      "slp": 1013.5,
      "rawOb": "KMSP 250453Z 08007KT 10SM FEW180 24/19 A2995 RMK AO2 SLP135 T02390194"
    },
    "geometry": {
      "type": "Point",
      "coordinates": [-93.231,44.885]
    } 
  }]}
