{ "type": "FeatureCollection",
  "features": [
  { "type": "Feature",
    "properties": {
      "data": "METAR",
      "beg_time": "1695323407",
      "end_time": "1695330607",
      "wrap": "",
      "bbox": "-93.2717,44.8398,-93.1411,44.9201"
    }
  },
  { "type": "Feature",
    "id": "1324719469",
    "properties": {
      "data": "METAR",
      "id": "KMSP",
      "site": "Minneapolis-St Paul",
      "prior": 1,
      "obsTime": "2023-09-21T20:53:00Z",
      "temp": 28.3,
      "dewp": 12.8,
      "wspd": 6,
      "wdir": 0,
      "ceil": 250,
      "cover": "BKN",
      "cldCvg1": "FEW",
      "cldBas1": "60",
      "cldCvg2": "BKN",
      "cldBas2": "250",
      "visib": 10.00,
      "fltcat": "VFR",
      "altim": 1020.1,
      "slp": 1019.7,
      "rawOb": "KMSP 212053Z VRB06KT 10SM FEW060 BKN250 28/13 A3012 RMK AO2 SLP197 T02830128 58015"
    },
    "geometry": {
      "type": "Point",
      "coordinates": [-93.231,44.885]
    } 
  }]}
