{ "type": "FeatureCollection",
  "features": [
  { "type": "Feature",
    "properties": {
      "data": "METAR",
      "beg_time": "1696363807",
      "end_time": "1696371007",
      "wrap": "",
      "bbox": "-93.2717,44.8398,-93.1411,44.9201"
    }
  },
  { "type": "Feature",
    "id": "1414583502",
    "properties": {
      "data": "METAR",
      "id": "KMSP",
      "site": "Minneapolis-St Paul",
      "prior": 1,
      "obsTime": "2023-10-03T21:53:00Z",
      "temp": 28.9,
      "dewp": 13.3,
      "wspd": 13,
      "wgst": 29,
      "wdir": 190,
      "ceil": 100,
      "cover": "BKN",
      "cldCvg1": "SCT",
      "cldBas1": "80",
      "cldCvg2": "BKN",
      "cldBas2": "100",
      "cldCvg3": "BKN",
      "cldBas3": "250",
      "visib": 9.00,
      "fltcat": "VFR",
      "altim": 1008.5,
      "slp": 1007.9,
      "rawOb": "KMSP 032153Z 19013G29KT 9SM SCT080 BKN100 BKN250 29/13 A2978 RMK AO2 PK WND 20029/2117 SLP079 T02890133"
    },
    "geometry": {
      "type": "Point",
      "coordinates": [-93.231,44.885]
    } 
  }]}
