{ "type": "FeatureCollection",
  "features": [
  { "type": "Feature",
    "properties": {
      "data": "METAR",
      "beg_time": "1692648606",
      "end_time": "1692655806",
      "wrap": "",
      "bbox": "-93.2717,44.8398,-93.1411,44.9201"
    }
  },
  { "type": "Feature",
    "id": "1292525177",
    "properties": {
      "data": "METAR",
      "id": "KMSP",
      "site": "Minneapolis-St Paul",
      "prior": 1,
      "obsTime": "2023-08-21T21:53:00Z",
      "temp": 23.9,
      "dewp": 17.8,
      "wspd": 13,
      "wgst": 21,
      "wdir": 90,
      "ceil": 21,
      "cover": "OVC",
      "cldCvg1": "OVC",
      "cldBas1": "21",
      "visib": 9.00,
      "fltcat": "MVFR",
      "altim": 1021.8,
      "slp": 1021.3,
      "rawOb": "KMSP 212153Z 09013G21KT 9SM OVC021 24/18 A3017 RMK AO2 SLP213 T02390178"
    },
    "geometry": {
      "type": "Point",
      "coordinates": [-93.231,44.885]
    } 
  }]}
