{ "type": "FeatureCollection",
  "features": [
  { "type": "Feature",
    "properties": {
      "data": "METAR",
      "beg_time": "1696007406",
      "end_time": "1696014606",
      "wrap": "",
      "bbox": "-93.2717,44.8398,-93.1411,44.9201"
    }
  },
  { "type": "Feature",
    "id": "1410194028",
    "properties": {
      "data": "METAR",
      "id": "KMSP",
      "site": "Minneapolis-St Paul",
      "prior": 1,
      "obsTime": "2023-09-29T18:53:00Z",
      "temp": 20.6,
      "dewp": 16.1,
      "wspd": 16,
      "wgst": 31,
      "wdir": 140,
      "ceil": 250,
      "cover": "BKN",
      "cldCvg1": "FEW",
      "cldBas1": "15",
      "cldCvg2": "SCT",
      "cldBas2": "150",
      "cldCvg3": "BKN",
      "cldBas3": "250",
      "visib": 10.00,
      "fltcat": "VFR",
      "altim": 1013.6,
      "slp": 1013.5,
      "rawOb": "KMSP 291853Z 14016G31KT 10SM FEW015 SCT150 BKN250 21/16 A2993 RMK AO2 PK WND 14031/1848 SLP135 T02060161"
    },
    "geometry": {
      "type": "Point",
      "coordinates": [-93.231,44.885]
    } 
  }]}
