{ "type": "FeatureCollection",
  "features": [
  { "type": "Feature",
    "properties": {
      "data": "METAR",
      "beg_time": "1696237806",
      "end_time": "1696245006",
      "wrap": "",
      "bbox": "-93.2717,44.8398,-93.1411,44.9201"
    }
  },
  { "type": "Feature",
    "id": "1413028516",
    "properties": {
      "data": "METAR",
      "id": "KMSP",
      "site": "Minneapolis-St Paul",
      "prior": 1,
      "obsTime": "2023-10-02T10:53:00Z",
      "temp": 20.0,
      "dewp": 12.8,
      "wspd": 5,
      "wdir": 140,
      "cover": "SCT",
      "cldCvg1": "SCT",
      "cldBas1": "200",
      "visib": 10.00,
      "fltcat": "VFR",
      "altim": 1019.0,
      "slp": 1018.4,
      "rawOb": "KMSP 021053Z 14005KT 10SM SCT200 20/13 A3009 RMK AO2 SLP184 T02000128"
    },
    "geometry": {
      "type": "Point",
      "coordinates": [-93.231,44.885]
    } 
  }]}
