{ "type": "FeatureCollection",
  "features": [
  { "type": "Feature",
    "properties": {
      "data": "METAR",
      "beg_time": "1694905807",
      "end_time": "1694913007",
      "wrap": "",
      "bbox": "-93.2717,44.8398,-93.1411,44.9201"
    }
  },
  { "type": "Feature",
    "id": "1319764649",
    "properties": {
      "data": "METAR",
      "id": "KMSP",
      "site": "Minneapolis-St Paul",
      "prior": 1,
      "obsTime": "2023-09-17T00:53:00Z",
      "temp": 17.8,
      "dewp": 10.6,
      "wspd": 5,
      "wdir": 350,
      "cover": "SCT",
      "cldCvg1": "FEW",
      "cldBas1": "80",
      "cldCvg2": "SCT",
      "cldBas2": "100",
      "cldCvg3": "SCT",
      "cldBas3": "200",
      "visib": 10.00,
      "fltcat": "VFR",
      "altim": 1017.7,
      "slp": 1017.6,
      "rawOb": "KMSP 170053Z 35005KT 10SM FEW080 SCT100 SCT200 18/11 A3005 RMK AO2 SLP176 T01780106 $"
    },
    "geometry": {
      "type": "Point",
      "coordinates": [-93.231,44.885]
    } 
  }]}
