{ "type": "FeatureCollection",
  "features": [
  { "type": "Feature",
    "properties": {
      "data": "METAR",
      "beg_time": "1695377407",
      "end_time": "1695384607",
      "wrap": "",
      "bbox": "-93.2717,44.8398,-93.1411,44.9201"
    }
  },
  { "type": "Feature",
    "id": "1325377663",
    "properties": {
      "data": "METAR",
      "id": "KMSP",
      "site": "Minneapolis-St Paul",
      "prior": 1,
      "obsTime": "2023-09-22T11:53:00Z",
      "temp": 18.9,
      "dewp": 12.8,
      "wspd": 9,
      "wdir": 90,
      "ceil": 250,
      "cover": "BKN",
      "cldCvg1": "SCT",
      "cldBas1": "50",
      "cldCvg2": "BKN",
      "cldBas2": "250",
      "visib": 10.00,
      "fltcat": "VFR",
      "altim": 1019.7,
      "slp": 1019.4,
      "rawOb": "KMSP 221153Z 09009KT 10SM SCT050 BKN250 19/13 A3011 RMK AO2 SLP194 T01890128 10200 20183 58005"
    },
    "geometry": {
      "type": "Point",
      "coordinates": [-93.231,44.885]
    } 
  }]}
