{ "type": "FeatureCollection",
  "features": [
  { "type": "Feature",
    "properties": {
      "data": "METAR",
      "beg_time": "1696014607",
      "end_time": "1696021807",
      "wrap": "",
      "bbox": "-93.2717,44.8398,-93.1411,44.9201"
    }
  },
  { "type": "Feature",
    "id": "1410281386",
    "properties": {
      "data": "METAR",
      "id": "KMSP",
      "site": "Minneapolis-St Paul",
      "prior": 1,
      "obsTime": "2023-09-29T20:53:00Z",
      "temp": 23.3,
      "dewp": 17.8,
      "wspd": 5,
      "wdir": 130,
      "ceil": 250,
      "cover": "BKN",
      "cldCvg1": "FEW",
      "cldBas1": "150",
      "cldCvg2": "FEW",
      "cldBas2": "180",
      "cldCvg3": "BKN",
      "cldBas3": "250",
      "visib": 10.00,
      "fltcat": "VFR",
      "altim": 1014.3,
      "slp": 1013.7,
      "rawOb": "KMSP 292053Z 13005KT 10SM FEW150 FEW180 BKN250 23/18 A2995 RMK AO2 SLP137 T02330178 55011"
    },
    "geometry": {
      "type": "Point",
      "coordinates": [-93.231,44.885]
    } 
  }]}
