{ "type": "FeatureCollection",
  "features": [
  { "type": "Feature",
    "properties": {
      "data": "METAR",
      "beg_time": "1695687007",
      "end_time": "1695694207",
      "wrap": "",
      "bbox": "-93.2717,44.8398,-93.1411,44.9201"
    }
  },
  { "type": "Feature",
    "id": "1329147035",
    "properties": {
      "data": "METAR",
      "id": "KMSP",
      "site": "Minneapolis-St Paul",
      "prior": 1,
      "obsTime": "2023-09-26T01:53:00Z",
      "temp": 16.7,
      "dewp": 15.0,
      "wspd": 0,
      "wdir": 0,
      "ceil": 8,
      "cover": "OVC",
      "cldCvg1": "BKN",
      "cldBas1": "8",
      "cldCvg2": "BKN",
      "cldBas2": "37",
      "cldCvg3": "OVC",
      "cldBas3": "110",
      "visib": 7.00,
      "fltcat": "IFR",
      "altim": 1018.0,
      "slp": 1017.7,
      "wx": "-RA",
      "rawOb": "KMSP 260153Z 00000KT 7SM -RA BKN008 BKN037 OVC110 17/15 A3006 RMK AO2 RAB46 SLP177 P0001 T01670150"
    },
    "geometry": {
      "type": "Point",
      "coordinates": [-93.231,44.885]
    } 
  }]}
