{ "type": "FeatureCollection",
  "features": [
  { "type": "Feature",
    "properties": {
      "data": "METAR",
      "beg_time": "1694635807",
      "end_time": "1694643007",
      "wrap": "",
      "bbox": "-93.2717,44.8398,-93.1411,44.9201"
    }
  },
  { "type": "Feature",
    "id": "1316515913",
    "properties": {
      "data": "METAR",
      "id": "KMSP",
      "site": "Minneapolis-St Paul",
      "prior": 1,
      "obsTime": "2023-09-13T21:53:00Z",
      "temp": 18.9,
      "dewp": 4.4,
      "wspd": 7,
      "wdir": 150,
      "cover": "FEW",
      "cldCvg1": "FEW",
      "cldBas1": "250",
      "visib": 10.00,
      "fltcat": "VFR",
      "altim": 1019.4,
      "slp": 1019.5,
      "rawOb": "KMSP 132153Z 15007KT 120V190 10SM FEW250 19/04 A3010 RMK AO2 SLP195 T01890044"
    },
    "geometry": {
      "type": "Point",
      "coordinates": [-93.231,44.885]
    } 
  }]}
