{ "type": "FeatureCollection",
  "features": [
  { "type": "Feature",
    "properties": {
      "data": "METAR",
      "beg_time": "1694923807",
      "end_time": "1694931007",
      "wrap": "",
      "bbox": "-93.2717,44.8398,-93.1411,44.9201"
    }
  },
  { "type": "Feature",
    "id": "1319982593",
    "properties": {
      "data": "METAR",
      "id": "KMSP",
      "site": "Minneapolis-St Paul",
      "prior": 1,
      "obsTime": "2023-09-17T05:53:00Z",
      "temp": 13.9,
      "dewp": 10.6,
      "wspd": 5,
      "wdir": 360,
      "cover": "FEW",
      "cldCvg1": "FEW",
      "cldBas1": "75",
      "visib": 10.00,
      "fltcat": "VFR",
      "altim": 1018.7,
      "slp": 1018.5,
      "rawOb": "KMSP 170553Z 36005KT 10SM FEW075 14/11 A3008 RMK AO2 SLP185 T01390106 10194 20139 402330117 53005 $"
    },
    "geometry": {
      "type": "Point",
      "coordinates": [-93.231,44.885]
    } 
  }]}
