{ "type": "FeatureCollection",
  "features": [
  { "type": "Feature",
    "properties": {
      "data": "METAR",
      "beg_time": "1696914606",
      "end_time": "1696921806",
      "wrap": "",
      "bbox": "-93.2717,44.8398,-93.1411,44.9201"
    }
  },
  { "type": "Feature",
    "id": "1421345924",
    "properties": {
      "data": "METAR",
      "id": "KMSP",
      "site": "Minneapolis-St Paul",
      "prior": 1,
      "obsTime": "2023-10-10T06:53:00Z",
      "temp": 5.0,
      "dewp": 0.0,
      "wspd": 6,
      "wdir": 300,
      "cover": "CLR",
      "cldCvg1": "CLR",
      "visib": 10.00,
      "fltcat": "VFR",
      "altim": 1010.6,
      "slp": 1011.0,
      "rawOb": "KMSP 100653Z 30006KT 10SM CLR 05/00 A2984 RMK AO2 SLP110 T00500000"
    },
    "geometry": {
      "type": "Point",
      "coordinates": [-93.231,44.885]
    } 
  }]}
