{ "type": "FeatureCollection",
  "features": [
  { "type": "Feature",
    "properties": {
      "data": "METAR",
      "beg_time": "1694729406",
      "end_time": "1694736606",
      "wrap": "",
      "bbox": "-93.2717,44.8398,-93.1411,44.9201"
    }
  },
  { "type": "Feature",
    "id": "1317642599",
    "properties": {
      "data": "METAR",
      "id": "KMSP",
      "site": "Minneapolis-St Paul",
      "prior": 1,
      "obsTime": "2023-09-14T23:53:00Z",
      "temp": 26.7,
      "dewp": 6.7,
      "wspd": 11,
      "wgst": 21,
      "wdir": 210,
      "ceil": 180,
      "cover": "BKN",
      "cldCvg1": "FEW",
      "cldBas1": "70",
      "cldCvg2": "SCT",
      "cldBas2": "90",
      "cldCvg3": "BKN",
      "cldBas3": "180",
      "cldCvg4": "BKN",
      "cldBas4": "250",
      "visib": 10.00,
      "fltcat": "VFR",
      "altim": 1015.3,
      "slp": 1015.0,
      "rawOb": "KMSP 142353Z 21011G21KT 10SM FEW070 SCT090 BKN180 BKN250 27/07 A2998 RMK AO2 SLP150 ACC DSNT W-N T02670067 10283 20250 55003"
    },
    "geometry": {
      "type": "Point",
      "coordinates": [-93.231,44.885]
    } 
  }]}
