{ "type": "FeatureCollection",
  "features": [
  { "type": "Feature",
    "properties": {
      "data": "METAR",
      "beg_time": "1693955407",
      "end_time": "1693962607",
      "wrap": "",
      "bbox": "-93.2717,44.8398,-93.1411,44.9201"
    }
  },
  { "type": "Feature",
    "id": "1385430586",
    "properties": {
      "data": "METAR",
      "id": "KMSP",
      "site": "Minneapolis-St Paul",
      "prior": 1,
      "obsTime": "2023-09-06T00:53:00Z",
      "temp": 30.0,
      "dewp": 20.0,
      "wspd": 8,
      "wdir": 260,
      "cover": "SCT",
      "cldCvg1": "SCT",
      "cldBas1": "100",
      "visib": 10.00,
      "fltcat": "VFR",
      "altim": 1002.8,
      "slp": 1002.1,
      "rawOb": "KMSP 060053Z 26008KT 10SM SCT100CB 30/20 A2961 RMK AO2 LTG DSNT E SLP021 T03000200"
    },
    "geometry": {
      "type": "Point",
      "coordinates": [-93.231,44.885]
    } 
  }]}
