{ "type": "FeatureCollection",
  "features": [
  { "type": "Feature",
    "properties": {
      "data": "METAR",
      "beg_time": "1694841007",
      "end_time": "1694848207",
      "wrap": "",
      "bbox": "-93.2717,44.8398,-93.1411,44.9201"
    }
  },
  { "type": "Feature",
    "id": "1318985221",
    "properties": {
      "data": "METAR",
      "id": "KMSP",
      "site": "Minneapolis-St Paul",
      "prior": 1,
      "obsTime": "2023-09-16T06:53:00Z",
      "temp": 15.6,
      "dewp": 14.4,
      "wspd": 0,
      "wdir": 0,
      "cover": "FEW",
      "cldCvg1": "FEW",
      "cldBas1": "80",
      "visib": 6.00,
      "fltcat": "VFR",
      "altim": 1016.7,
      "slp": 1016.4,
      "wx": "BCFG",
      "rawOb": "KMSP 160653Z 00000KT 6SM R30L/4000VP6000FT BCFG FEW080 16/14 A3002 RMK AO2 SLP164 VIS N 1/2 NE 1 1/2 T01560144"
    },
    "geometry": {
      "type": "Point",
      "coordinates": [-93.231,44.885]
    } 
  }]}
