{ "type": "FeatureCollection",
  "features": [
  { "type": "Feature",
    "properties": {
      "data": "METAR",
      "beg_time": "1695186606",
      "end_time": "1695193806",
      "wrap": "",
      "bbox": "-93.2717,44.8398,-93.1411,44.9201"
    }
  },
  { "type": "Feature",
    "id": "1323054177",
    "properties": {
      "data": "METAR",
      "id": "KMSP",
      "site": "Minneapolis-St Paul",
      "prior": 1,
      "obsTime": "2023-09-20T06:53:00Z",
      "temp": 17.8,
      "dewp": 12.8,
      "wspd": 4,
      "wdir": 160,
      "cover": "CLR",
      "cldCvg1": "CLR",
      "visib": 10.00,
      "fltcat": "VFR",
      "altim": 1011.3,
      "slp": 1010.9,
      "rawOb": "KMSP 200653Z 16004KT 10SM CLR 18/13 A2986 RMK AO2 SLP109 T01780128"
    },
    "geometry": {
      "type": "Point",
      "coordinates": [-93.231,44.885]
    } 
  }]}
