{ "type": "FeatureCollection",
  "features": [
  { "type": "Feature",
    "properties": {
      "data": "METAR",
      "beg_time": "1695463806",
      "end_time": "1695471006",
      "wrap": "",
      "bbox": "-93.2717,44.8398,-93.1411,44.9201"
    }
  },
  { "type": "Feature",
    "id": "1326433479",
    "properties": {
      "data": "METAR",
      "id": "KMSP",
      "site": "Minneapolis-St Paul",
      "prior": 1,
      "obsTime": "2023-09-23T11:53:00Z",
      "temp": 18.9,
      "dewp": 16.1,
      "wspd": 4,
      "wdir": 140,
      "ceil": 13,
      "cover": "OVC",
      "cldCvg1": "OVC",
      "cldBas1": "13",
      "visib": 10.00,
      "fltcat": "MVFR",
      "altim": 1015.0,
      "slp": 1014.4,
      "rawOb": "KMSP 231153Z 14004KT 10SM OVC013 19/16 A2997 RMK AO2 SLP144 60000 T01890161 10200 20189 55002"
    },
    "geometry": {
      "type": "Point",
      "coordinates": [-93.231,44.885]
    } 
  }]}
