{ "type": "FeatureCollection",
  "features": [
  { "type": "Feature",
    "properties": {
      "data": "METAR",
      "beg_time": "1695157807",
      "end_time": "1695165007",
      "wrap": "",
      "bbox": "-93.2717,44.8398,-93.1411,44.9201"
    }
  },
  { "type": "Feature",
    "id": "1322727401",
    "properties": {
      "data": "METAR",
      "id": "KMSP",
      "site": "Minneapolis-St Paul",
      "prior": 1,
      "obsTime": "2023-09-19T22:53:00Z",
      "temp": 26.7,
      "dewp": 15.6,
      "wspd": 10,
      "wdir": 110,
      "cover": "SCT",
      "cldCvg1": "FEW",
      "cldBas1": "180",
      "cldCvg2": "SCT",
      "cldBas2": "250",
      "visib": 10.00,
      "fltcat": "VFR",
      "altim": 1008.5,
      "slp": 1007.9,
      "rawOb": "KMSP 192253Z 11010KT 10SM FEW180 SCT250 27/16 A2978 RMK AO2 SLP079 T02670156"
    },
    "geometry": {
      "type": "Point",
      "coordinates": [-93.231,44.885]
    } 
  }]}
