{ "type": "FeatureCollection",
  "features": [
  { "type": "Feature",
    "properties": {
      "data": "METAR",
      "beg_time": "1693854607",
      "end_time": "1693861807",
      "wrap": "",
      "bbox": "-93.2717,44.8398,-93.1411,44.9201"
    }
  },
  { "type": "Feature",
    "id": "1384247038",
    "properties": {
      "data": "METAR",
      "id": "KMSP",
      "site": "Minneapolis-St Paul",
      "prior": 1,
      "obsTime": "2023-09-04T20:53:00Z",
      "temp": 36.7,
      "dewp": 13.3,
      "wspd": 16,
      "wgst": 27,
      "wdir": 200,
      "cover": "CLR",
      "cldCvg1": "CLR",
      "visib": 10.00,
      "fltcat": "VFR",
      "altim": 1004.5,
      "slp": 1003.4,
      "rawOb": "KMSP 042053Z 20016G27KT 10SM CLR 37/13 A2966 RMK AO2 PK WND 18036/2003 SLP034 T03670133 58009"
    },
    "geometry": {
      "type": "Point",
      "coordinates": [-93.231,44.885]
    } 
  }]}
