{ "type": "FeatureCollection",
  "features": [
  { "type": "Feature",
    "properties": {
      "data": "METAR",
      "beg_time": "1692407406",
      "end_time": "1692414606",
      "wrap": "",
      "bbox": "-93.2717,44.8398,-93.1411,44.9201"
    }
  },
  { "type": "Feature",
    "id": "1289694687",
    "properties": {
      "data": "METAR",
      "id": "KMSP",
      "site": "Minneapolis-St Paul",
      "prior": 1,
      "obsTime": "2023-08-19T02:53:00Z",
      "temp": 22.2,
      "dewp": 13.9,
      "wspd": 7,
      "wdir": 160,
      "cover": "SCT",
      "cldCvg1": "SCT",
      "cldBas1": "250",
      "visib": 10.00,
      "fltcat": "VFR",
      "altim": 1010.9,
      "slp": 1010.4,
      "rawOb": "KMSP 190253Z 16007KT 10SM SCT250 22/14 A2985 RMK AO2 SLP104 T02220139 53009"
    },
    "geometry": {
      "type": "Point",
      "coordinates": [-93.231,44.885]
    } 
  }]}
