{ "type": "FeatureCollection",
  "features": [
  { "type": "Feature",
    "properties": {
      "data": "METAR",
      "beg_time": "1697076606",
      "end_time": "1697083806",
      "wrap": "",
      "bbox": "-93.2717,44.8398,-93.1411,44.9201"
    }
  },
  { "type": "Feature",
    "id": "1423328024",
    "properties": {
      "data": "METAR",
      "id": "KMSP",
      "site": "Minneapolis-St Paul",
      "prior": 1,
      "obsTime": "2023-10-12T03:53:00Z",
      "temp": 10.6,
      "dewp": 4.4,
      "wspd": 7,
      "wdir": 80,
      "cover": "CLR",
      "cldCvg1": "CLR",
      "visib": 10.00,
      "fltcat": "VFR",
      "altim": 1010.2,
      "slp": 1010.4,
      "rawOb": "KMSP 120353Z 08007KT 10SM CLR 11/04 A2983 RMK AO2 SLP104 T01060044"
    },
    "geometry": {
      "type": "Point",
      "coordinates": [-93.231,44.885]
    } 
  }]}
