{ "type": "FeatureCollection",
  "features": [
  { "type": "Feature",
    "properties": {
      "data": "METAR",
      "beg_time": "1697451007",
      "end_time": "1697458207",
      "wrap": "",
      "bbox": "-93.2717,44.8398,-93.1411,44.9201"
    }
  },
  { "type": "Feature",
    "id": "1350859903",
    "properties": {
      "data": "METAR",
      "id": "KMSP",
      "site": "Minneapolis-St Paul",
      "prior": 1,
      "obsTime": "2023-10-16T11:53:00Z",
      "temp": 5.0,
      "dewp": 3.3,
      "wspd": 3,
      "wdir": 0,
      "cover": "CLR",
      "cldCvg1": "CLR",
      "visib": 10.00,
      "fltcat": "VFR",
      "altim": 1023.8,
      "slp": 1024.2,
      "rawOb": "KMSP 161153Z VRB03KT 10SM CLR 05/03 A3023 RMK AO2 SLP242 T00500033 10078 20039 52005"
    },
    "geometry": {
      "type": "Point",
      "coordinates": [-93.231,44.885]
    } 
  }]}
