{ "type": "FeatureCollection",
  "features": [
  { "type": "Feature",
    "properties": {
      "data": "METAR",
      "beg_time": "1696878607",
      "end_time": "1696885807",
      "wrap": "",
      "bbox": "-93.2717,44.8398,-93.1411,44.9201"
    }
  },
  { "type": "Feature",
    "id": "1420907840",
    "properties": {
      "data": "METAR",
      "id": "KMSP",
      "site": "Minneapolis-St Paul",
      "prior": 1,
      "obsTime": "2023-10-09T20:53:00Z",
      "temp": 13.3,
      "dewp": -1.1,
      "wspd": 11,
      "wgst": 20,
      "wdir": 340,
      "cover": "FEW",
      "cldCvg1": "FEW",
      "cldBas1": "60",
      "cldCvg2": "FEW",
      "cldBas2": "250",
      "visib": 10.00,
      "fltcat": "VFR",
      "altim": 1011.6,
      "slp": 1011.8,
      "rawOb": "KMSP 092053Z 34011G20KT 10SM FEW060 FEW250 13/M01 A2987 RMK AO2 SLP118 T01331011 56019"
    },
    "geometry": {
      "type": "Point",
      "coordinates": [-93.231,44.885]
    } 
  }]}
