{ "type": "FeatureCollection",
  "features": [
  { "type": "Feature",
    "properties": {
      "data": "METAR",
      "beg_time": "1694815806",
      "end_time": "1694823006",
      "wrap": "",
      "bbox": "-93.2717,44.8398,-93.1411,44.9201"
    }
  },
  { "type": "Feature",
    "id": "1318685635",
    "properties": {
      "data": "METAR",
      "id": "KMSP",
      "site": "Minneapolis-St Paul",
      "prior": 1,
      "obsTime": "2023-09-15T23:53:00Z",
      "temp": 21.1,
      "dewp": 15.0,
      "wspd": 5,
      "wdir": 220,
      "cover": "FEW",
      "cldCvg1": "FEW",
      "cldBas1": "25",
      "cldCvg2": "FEW",
      "cldBas2": "250",
      "visib": 10.00,
      "fltcat": "VFR",
      "altim": 1015.3,
      "slp": 1015.0,
      "rawOb": "KMSP 152353Z COR 22005KT 10SM FEW025 FEW10 FEW250 21/15 A2998 RMK AO2 SLP150 T02110150 10217 20172 56010"
    },
    "geometry": {
      "type": "Point",
      "coordinates": [-93.231,44.885]
    } 
  }]}
