{ "type": "FeatureCollection",
  "features": [
  { "type": "Feature",
    "properties": {
      "data": "METAR",
      "beg_time": "1693487407",
      "end_time": "1693494607",
      "wrap": "",
      "bbox": "-93.2717,44.8398,-93.1411,44.9201"
    }
  },
  { "type": "Feature",
    "id": "1379882910",
    "properties": {
      "data": "METAR",
      "id": "KMSP",
      "site": "Minneapolis-St Paul",
      "prior": 1,
      "obsTime": "2023-08-31T14:53:00Z",
      "temp": 20.6,
      "dewp": 10.0,
      "wspd": 10,
      "wdir": 170,
      "cover": "FEW",
      "cldCvg1": "FEW",
      "cldBas1": "250",
      "visib": 10.00,
      "fltcat": "VFR",
      "altim": 1017.7,
      "slp": 1017.4,
      "rawOb": "KMSP 311453Z 17010KT 10SM FEW250 21/10 A3005 RMK AO2 SLP174 T02060100 50000"
    },
    "geometry": {
      "type": "Point",
      "coordinates": [-93.231,44.885]
    } 
  }]}
