{ "type": "FeatureCollection",
  "features": [
  { "type": "Feature",
    "properties": {
      "data": "METAR",
      "beg_time": "1696129806",
      "end_time": "1696137006",
      "wrap": "",
      "bbox": "-93.2717,44.8398,-93.1411,44.9201"
    }
  },
  { "type": "Feature",
    "id": "1411698972",
    "properties": {
      "data": "METAR",
      "id": "KMSP",
      "site": "Minneapolis-St Paul",
      "prior": 1,
      "obsTime": "2023-10-01T04:53:00Z",
      "temp": 23.3,
      "dewp": 19.4,
      "wspd": 3,
      "wdir": 70,
      "cover": "FEW",
      "cldCvg1": "FEW",
      "cldBas1": "250",
      "visib": 10.00,
      "fltcat": "VFR",
      "altim": 1018.4,
      "slp": 1017.7,
      "rawOb": "KMSP 010453Z 07003KT 10SM FEW250 23/19 A3007 RMK AO2 SLP177 LTG DSNT NW T02330194"
    },
    "geometry": {
      "type": "Point",
      "coordinates": [-93.231,44.885]
    } 
  }]}
