{ "type": "FeatureCollection",
  "features": [
  { "type": "Feature",
    "properties": {
      "data": "METAR",
      "beg_time": "1697350207",
      "end_time": "1697357407",
      "wrap": "",
      "bbox": "-93.2717,44.8398,-93.1411,44.9201"
    }
  },
  { "type": "Feature",
    "id": "1349642079",
    "properties": {
      "data": "METAR",
      "id": "KMSP",
      "site": "Minneapolis-St Paul",
      "prior": 1,
      "obsTime": "2023-10-15T07:53:00Z",
      "temp": 7.8,
      "dewp": 4.4,
      "wspd": 6,
      "wdir": 350,
      "ceil": 50,
      "cover": "OVC",
      "cldCvg1": "FEW",
      "cldBas1": "17",
      "cldCvg2": "OVC",
      "cldBas2": "50",
      "visib": 10.00,
      "fltcat": "VFR",
      "altim": 1025.8,
      "slp": 1026.1,
      "rawOb": "KMSP 150753Z 35006KT 10SM FEW017 OVC050 08/04 A3029 RMK AO2 SLP261 T00780044"
    },
    "geometry": {
      "type": "Point",
      "coordinates": [-93.231,44.885]
    } 
  }]}
