{ "type": "FeatureCollection",
  "features": [
  { "type": "Feature",
    "properties": {
      "data": "METAR",
      "beg_time": "1693138207",
      "end_time": "1693145407",
      "wrap": "",
      "bbox": "-93.2717,44.8398,-93.1411,44.9201"
    }
  },
  { "type": "Feature",
    "id": "1375638132",
    "properties": {
      "data": "METAR",
      "id": "KMSP",
      "site": "Minneapolis-St Paul",
      "prior": 1,
      "obsTime": "2023-08-27T13:53:00Z",
      "temp": 16.7,
      "dewp": 12.2,
      "wspd": 0,
      "wdir": 0,
      "cover": "SCT",
      "cldCvg1": "FEW",
      "cldBas1": "38",
      "cldCvg2": "SCT",
      "cldBas2": "150",
      "visib": 9.00,
      "fltcat": "VFR",
      "altim": 1021.8,
      "slp": 1021.4,
      "rawOb": "KMSP 271353Z 00000KT 9SM FEW038 SCT150 17/12 A3017 RMK AO2 SLP214 T01670122"
    },
    "geometry": {
      "type": "Point",
      "coordinates": [-93.231,44.885]
    } 
  }]}
