{ "type": "FeatureCollection",
  "features": [
  { "type": "Feature",
    "properties": {
      "data": "METAR",
      "beg_time": "1697321407",
      "end_time": "1697328607",
      "wrap": "",
      "bbox": "-93.2717,44.8398,-93.1411,44.9201"
    }
  },
  { "type": "Feature",
    "id": "1349290931",
    "properties": {
      "data": "METAR",
      "id": "KMSP",
      "site": "Minneapolis-St Paul",
      "prior": 1,
      "obsTime": "2023-10-14T23:53:00Z",
      "temp": 10.0,
      "dewp": 4.4,
      "wspd": 9,
      "wdir": 10,
      "ceil": 65,
      "cover": "BKN",
      "cldCvg1": "FEW",
      "cldBas1": "30",
      "cldCvg2": "SCT",
      "cldBas2": "44",
      "cldCvg3": "BKN",
      "cldBas3": "65",
      "visib": 10.00,
      "fltcat": "VFR",
      "altim": 1024.5,
      "slp": 1024.8,
      "rawOb": "KMSP 142353Z 01009KT 310V020 10SM FEW030 SCT044 BKN065 10/04 A3025 RMK AO2 SLP248 60000 T01000044 10133 20100 53012"
    },
    "geometry": {
      "type": "Point",
      "coordinates": [-93.231,44.885]
    } 
  }]}
