{ "type": "FeatureCollection",
  "features": [
  { "type": "Feature",
    "properties": {
      "data": "METAR",
      "beg_time": "1695244206",
      "end_time": "1695251406",
      "wrap": "",
      "bbox": "-93.2717,44.8398,-93.1411,44.9201"
    }
  },
  { "type": "Feature",
    "id": "1323755189",
    "properties": {
      "data": "METAR",
      "id": "KMSP",
      "site": "Minneapolis-St Paul",
      "prior": 1,
      "obsTime": "2023-09-20T22:53:00Z",
      "temp": 28.9,
      "dewp": 13.9,
      "wspd": 8,
      "wdir": 150,
      "cover": "FEW",
      "cldCvg1": "FEW",
      "cldBas1": "50",
      "cldCvg2": "FEW",
      "cldBas2": "200",
      "visib": 10.00,
      "fltcat": "VFR",
      "altim": 1014.0,
      "slp": 1013.4,
      "rawOb": "KMSP 202253Z 15008KT 10SM FEW050 FEW200 29/14 A2994 RMK AO2 SLP134 T02890139"
    },
    "geometry": {
      "type": "Point",
      "coordinates": [-93.231,44.885]
    } 
  }]}
