KMSP 301953Z 31010KT 9SM -SN OVC013 M02/M06 A2982 RMK AO2 SNB07 SLP108 P0000 T10221056
KMSP 301907Z 32008KT 10SM -SN OVC012 M02/M04 A2982 RMK AO2 SNB07 P0000 T10171044
KMSP 301853Z 31011KT 10SM OVC013 M02/M05 A2982 RMK AO2 SLP109 T10221050
KMSP 301820Z 32013KT 10SM OVC014 M02/M05 A2982 RMK AO2 T10171050
