{ "type": "FeatureCollection",
  "features": [
  { "type": "Feature",
    "properties": {
      "data": "METAR",
      "beg_time": "1694819407",
      "end_time": "1694826607",
      "wrap": "",
      "bbox": "-93.2717,44.8398,-93.1411,44.9201"
    }
  },
  { "type": "Feature",
    "id": "1318729305",
    "properties": {
      "data": "METAR",
      "id": "KMSP",
      "site": "Minneapolis-St Paul",
      "prior": 1,
      "obsTime": "2023-09-16T00:53:00Z",
      "temp": 20.0,
      "dewp": 15.6,
      "wspd": 5,
      "wdir": 220,
      "cover": "FEW",
      "cldCvg1": "FEW",
      "cldBas1": "250",
      "visib": 10.00,
      "fltcat": "VFR",
      "altim": 1015.7,
      "slp": 1015.5,
      "rawOb": "KMSP 160053Z 22005KT 10SM FEW250 20/16 A2999 RMK AO2 SLP155 T02000156"
    },
    "geometry": {
      "type": "Point",
      "coordinates": [-93.231,44.885]
    } 
  }]}
