{ "type": "FeatureCollection",
  "features": [
  { "type": "Feature",
    "properties": {
      "data": "METAR",
      "beg_time": "1694502607",
      "end_time": "1694509807",
      "wrap": "",
      "bbox": "-93.2717,44.8398,-93.1411,44.9201"
    }
  },
  { "type": "Feature",
    "id": "1314848413",
    "properties": {
      "data": "METAR",
      "id": "KMSP",
      "site": "Minneapolis-St Paul",
      "prior": 1,
      "obsTime": "2023-09-12T08:53:00Z",
      "temp": 13.9,
      "dewp": 11.1,
      "wspd": 5,
      "wdir": 250,
      "ceil": 90,
      "cover": "BKN",
      "cldCvg1": "BKN",
      "cldBas1": "90",
      "cldCvg2": "BKN",
      "cldBas2": "120",
      "visib": 10.00,
      "fltcat": "VFR",
      "altim": 1020.4,
      "slp": 1020.1,
      "rawOb": "KMSP 120853Z 25005KT 10SM BKN090 BKN120 14/11 A3013 RMK AO2 SLP201 T01390111 58008 $"
    },
    "geometry": {
      "type": "Point",
      "coordinates": [-93.231,44.885]
    } 
  }]}
