{ "type": "FeatureCollection",
  "features": [
  { "type": "Feature",
    "properties": {
      "data": "METAR",
      "beg_time": "1696662607",
      "end_time": "1696669807",
      "wrap": "",
      "bbox": "-93.2717,44.8398,-93.1411,44.9201"
    }
  },
  { "type": "Feature",
    "id": "1418285628",
    "properties": {
      "data": "METAR",
      "id": "KMSP",
      "site": "Minneapolis-St Paul",
      "prior": 1,
      "obsTime": "2023-10-07T08:53:00Z",
      "temp": 7.2,
      "dewp": 3.3,
      "wspd": 7,
      "wdir": 320,
      "cover": "SCT",
      "cldCvg1": "SCT",
      "cldBas1": "46",
      "visib": 10.00,
      "fltcat": "VFR",
      "altim": 1023.5,
      "slp": 1023.8,
      "rawOb": "KMSP 070853Z 32007KT 10SM SCT046 07/03 A3022 RMK AO2 SLP238 T00720033 53006"
    },
    "geometry": {
      "type": "Point",
      "coordinates": [-93.231,44.885]
    } 
  }]}
