{ "type": "FeatureCollection",
  "features": [
  { "type": "Feature",
    "properties": {
      "data": "METAR",
      "beg_time": "1695780606",
      "end_time": "1695787806",
      "wrap": "",
      "bbox": "-93.2717,44.8398,-93.1411,44.9201"
    }
  },
  { "type": "Feature",
    "id": "1330277653",
    "properties": {
      "data": "METAR",
      "id": "KMSP",
      "site": "Minneapolis-St Paul",
      "prior": 1,
      "obsTime": "2023-09-27T03:53:00Z",
      "temp": 17.2,
      "dewp": 13.9,
      "wspd": 7,
      "wdir": 70,
      "ceil": 44,
      "cover": "OVC",
      "cldCvg1": "BKN",
      "cldBas1": "44",
      "cldCvg2": "OVC",
      "cldBas2": "55",
      "visib": 10.00,
      "fltcat": "VFR",
      "altim": 1021.4,
      "slp": 1021.3,
      "rawOb": "KMSP 270353Z 07007KT 10SM BKN044 OVC055 17/14 A3016 RMK AO2 SLP213 T01720139"
    },
    "geometry": {
      "type": "Point",
      "coordinates": [-93.231,44.885]
    } 
  }]}
