{ "type": "FeatureCollection",
  "features": [
  { "type": "Feature",
    "properties": {
      "data": "METAR",
      "beg_time": "1693519807",
      "end_time": "1693527007",
      "wrap": "",
      "bbox": "-93.2717,44.8398,-93.1411,44.9201"
    }
  },
  { "type": "Feature",
    "id": "1380267510",
    "properties": {
      "data": "METAR",
      "id": "KMSP",
      "site": "Minneapolis-St Paul",
      "prior": 1,
      "obsTime": "2023-08-31T23:53:00Z",
      "temp": 26.7,
      "dewp": 7.2,
      "wspd": 12,
      "wgst": 21,
      "wdir": 160,
      "cover": "CLR",
      "cldCvg1": "CLR",
      "visib": 10.00,
      "fltcat": "VFR",
      "altim": 1014.6,
      "slp": 1014.3,
      "rawOb": "KMSP 312353Z 16012G21KT 10SM CLR 27/07 A2996 RMK AO2 PK WND 15030/2254 SLP143 T02670072 10283 20256 58007"
    },
    "geometry": {
      "type": "Point",
      "coordinates": [-93.231,44.885]
    } 
  }]}
