{ "type": "FeatureCollection",
  "features": [
  { "type": "Feature",
    "properties": {
      "data": "METAR",
      "beg_time": "1693894207",
      "end_time": "1693901407",
      "wrap": "",
      "bbox": "-93.2717,44.8398,-93.1411,44.9201"
    }
  },
  { "type": "Feature",
    "id": "1384714474",
    "properties": {
      "data": "METAR",
      "id": "KMSP",
      "site": "Minneapolis-St Paul",
      "prior": 1,
      "obsTime": "2023-09-05T07:53:00Z",
      "temp": 25.6,
      "dewp": 17.8,
      "wspd": 8,
      "wdir": 150,
      "cover": "CLR",
      "cldCvg1": "CLR",
      "visib": 10.00,
      "fltcat": "VFR",
      "altim": 1005.2,
      "slp": 1004.2,
      "rawOb": "KMSP 050753Z 15008KT 10SM CLR 26/18 A2968 RMK AO2 SLP042 T02560178"
    },
    "geometry": {
      "type": "Point",
      "coordinates": [-93.231,44.885]
    } 
  }]}
