{ "type": "FeatureCollection",
  "features": [
  { "type": "Feature",
    "properties": {
      "data": "METAR",
      "beg_time": "1692745804",
      "end_time": "1692753004",
      "wrap": "",
      "bbox": "-93.2717,44.8398,-93.1411,44.9201"
    }
  },
  { "type": "Feature",
    "id": "1370920890",
    "properties": {
      "data": "METAR",
      "id": "KMSP",
      "site": "Minneapolis-St Paul",
      "prior": 1,
      "obsTime": "2023-08-23T00:53:00Z",
      "temp": 34.4,
      "dewp": 25.6,
      "wspd": 7,
      "wgst": 17,
      "wdir": 230,
      "cover": "CLR",
      "cldCvg1": "CLR",
      "visib": 10.00,
      "fltcat": "VFR",
      "altim": 1012.6,
      "slp": 1011.8,
      "rawOb": "KMSP 230053Z 23007G17KT 10SM CLR 34/26 A2990 RMK AO2 SLP118 T03440256"
    },
    "geometry": {
      "type": "Point",
      "coordinates": [-93.231,44.885]
    } 
  }]}
