{ "type": "FeatureCollection",
  "features": [
  { "type": "Feature",
    "properties": {
      "data": "METAR",
      "beg_time": "1695373806",
      "end_time": "1695381006",
      "wrap": "",
      "bbox": "-93.2717,44.8398,-93.1411,44.9201"
    }
  },
  { "type": "Feature",
    "id": "1325331623",
    "properties": {
      "data": "METAR",
      "id": "KMSP",
      "site": "Minneapolis-St Paul",
      "prior": 1,
      "obsTime": "2023-09-22T10:53:00Z",
      "temp": 19.4,
      "dewp": 13.9,
      "wspd": 7,
      "wdir": 100,
      "ceil": 50,
      "cover": "OVC",
      "cldCvg1": "OVC",
      "cldBas1": "50",
      "visib": 10.00,
      "fltcat": "VFR",
      "altim": 1020.4,
      "slp": 1019.9,
      "rawOb": "KMSP 221053Z 10007KT 10SM OVC050 19/14 A3013 RMK AO2 SLP199 T01940139"
    },
    "geometry": {
      "type": "Point",
      "coordinates": [-93.231,44.885]
    } 
  }]}
