{ "type": "FeatureCollection",
  "features": [
  { "type": "Feature",
    "properties": {
      "data": "METAR",
      "beg_time": "1695035406",
      "end_time": "1695042606",
      "wrap": "",
      "bbox": "-93.2717,44.8398,-93.1411,44.9201"
    }
  },
  { "type": "Feature",
    "id": "1321350435",
    "properties": {
      "data": "METAR",
      "id": "KMSP",
      "site": "Minneapolis-St Paul",
      "prior": 1,
      "obsTime": "2023-09-18T12:53:00Z",
      "temp": 12.8,
      "dewp": 9.4,
      "wspd": 4,
      "wdir": 140,
      "cover": "FEW",
      "cldCvg1": "FEW",
      "cldBas1": "100",
      "visib": 10.00,
      "fltcat": "VFR",
      "altim": 1016.3,
      "slp": 1016.2,
      "rawOb": "KMSP 181253Z 14004KT 10SM FEW100 13/09 A3001 RMK AO2 SLP162 T01280094"
    },
    "geometry": {
      "type": "Point",
      "coordinates": [-93.231,44.885]
    } 
  }]}
