{ "type": "FeatureCollection",
  "features": [
  { "type": "Feature",
    "properties": {
      "data": "METAR",
      "beg_time": "1697062206",
      "end_time": "1697069406",
      "wrap": "",
      "bbox": "-93.2717,44.8398,-93.1411,44.9201"
    }
  },
  { "type": "Feature",
    "id": "1423153544",
    "properties": {
      "data": "METAR",
      "id": "KMSP",
      "site": "Minneapolis-St Paul",
      "prior": 1,
      "obsTime": "2023-10-11T23:53:00Z",
      "temp": 13.9,
      "dewp": 5.0,
      "wspd": 9,
      "wdir": 80,
      "cover": "FEW",
      "cldCvg1": "FEW",
      "cldBas1": "40",
      "cldCvg2": "FEW",
      "cldBas2": "250",
      "visib": 10.00,
      "fltcat": "VFR",
      "altim": 1008.2,
      "slp": 1008.5,
      "rawOb": "KMSP 112353Z 08009KT 10SM FEW040 FEW250 14/05 A2977 RMK AO2 SLP085 T01390050 10167 20139 53008"
    },
    "geometry": {
      "type": "Point",
      "coordinates": [-93.231,44.885]
    } 
  }]}
