{ "type": "FeatureCollection",
  "features": [
  { "type": "Feature",
    "properties": {
      "data": "METAR",
      "beg_time": "1697080207",
      "end_time": "1697087407",
      "wrap": "",
      "bbox": "-93.2717,44.8398,-93.1411,44.9201"
    }
  },
  { "type": "Feature",
    "id": "1423375230",
    "properties": {
      "data": "METAR",
      "id": "KMSP",
      "site": "Minneapolis-St Paul",
      "prior": 1,
      "obsTime": "2023-10-12T04:53:00Z",
      "temp": 10.0,
      "dewp": 3.9,
      "wspd": 8,
      "wdir": 80,
      "cover": "CLR",
      "cldCvg1": "CLR",
      "visib": 10.00,
      "fltcat": "VFR",
      "altim": 1009.9,
      "slp": 1010.0,
      "rawOb": "KMSP 120453Z 08008KT 10SM CLR 10/04 A2982 RMK AO2 SLP100 T01000039"
    },
    "geometry": {
      "type": "Point",
      "coordinates": [-93.231,44.885]
    } 
  }]}
