{ "type": "FeatureCollection",
  "features": [
  { "type": "Feature",
    "properties": {
      "data": "METAR",
      "beg_time": "1696893006",
      "end_time": "1696900206",
      "wrap": "",
      "bbox": "-93.2717,44.8398,-93.1411,44.9201"
    }
  },
  { "type": "Feature",
    "id": "1421089010",
    "properties": {
      "data": "METAR",
      "id": "KMSP",
      "site": "Minneapolis-St Paul",
      "prior": 1,
      "obsTime": "2023-10-10T00:53:00Z",
      "temp": 10.0,
      "dewp": -1.1,
      "wspd": 4,
      "wdir": 300,
      "cover": "FEW",
      "cldCvg1": "FEW",
      "cldBas1": "100",
      "visib": 10.00,
      "fltcat": "VFR",
      "altim": 1011.3,
      "slp": 1011.5,
      "rawOb": "KMSP 100053Z 30004KT 10SM FEW100 10/M01 A2986 RMK AO2 SLP115 T01001011"
    },
    "geometry": {
      "type": "Point",
      "coordinates": [-93.231,44.885]
    } 
  }]}
