{ "type": "FeatureCollection",
  "features": [
  { "type": "Feature",
    "properties": {
      "data": "METAR",
      "beg_time": "1694243407",
      "end_time": "1694250607",
      "wrap": "",
      "bbox": "-93.2717,44.8398,-93.1411,44.9201"
    }
  },
  { "type": "Feature",
    "id": "1311670695",
    "properties": {
      "data": "METAR",
      "id": "KMSP",
      "site": "Minneapolis-St Paul",
      "prior": 1,
      "obsTime": "2023-09-09T08:53:00Z",
      "temp": 16.7,
      "dewp": 10.0,
      "wspd": 5,
      "wdir": 140,
      "ceil": 70,
      "cover": "BKN",
      "cldCvg1": "BKN",
      "cldBas1": "70",
      "visib": 10.00,
      "fltcat": "VFR",
      "altim": 1020.7,
      "slp": 1020.4,
      "rawOb": "KMSP 090853Z 14005KT 10SM BKN070 17/10 A3014 RMK AO2 SLP204 T01670100 53001"
    },
    "geometry": {
      "type": "Point",
      "coordinates": [-93.231,44.885]
    } 
  }]}
