{ "type": "FeatureCollection",
  "features": [
  { "type": "Feature",
    "properties": {
      "data": "METAR",
      "beg_time": "1695312606",
      "end_time": "1695319806",
      "wrap": "",
      "bbox": "-93.2717,44.8398,-93.1411,44.9201"
    }
  },
  { "type": "Feature",
    "id": "1324587591",
    "properties": {
      "data": "METAR",
      "id": "KMSP",
      "site": "Minneapolis-St Paul",
      "prior": 1,
      "obsTime": "2023-09-21T17:53:00Z",
      "temp": 27.8,
      "dewp": 12.2,
      "wspd": 6,
      "wdir": 0,
      "ceil": 250,
      "cover": "BKN",
      "cldCvg1": "FEW",
      "cldBas1": "150",
      "cldCvg2": "BKN",
      "cldBas2": "250",
      "visib": 10.00,
      "fltcat": "VFR",
      "altim": 1021.8,
      "slp": 1021.2,
      "rawOb": "KMSP 211753Z VRB06KT 10SM FEW150 BKN250 28/12 A3017 RMK AO2 SLP212 T02780122 10278 20172 57003"
    },
    "geometry": {
      "type": "Point",
      "coordinates": [-93.231,44.885]
    } 
  }]}
