{ "type": "FeatureCollection",
  "features": [
  { "type": "Feature",
    "properties": {
      "data": "METAR",
      "beg_time": "1695805806",
      "end_time": "1695813006",
      "wrap": "",
      "bbox": "-93.2717,44.8398,-93.1411,44.9201"
    }
  },
  { "type": "Feature",
    "id": "1407728394",
    "properties": {
      "data": "METAR",
      "id": "KMSP",
      "site": "Minneapolis-St Paul",
      "prior": 1,
      "obsTime": "2023-09-27T10:53:00Z",
      "temp": 16.7,
      "dewp": 13.9,
      "wspd": 8,
      "wdir": 70,
      "ceil": 12,
      "cover": "OVC",
      "cldCvg1": "OVC",
      "cldBas1": "12",
      "visib": 10.00,
      "fltcat": "MVFR",
      "altim": 1020.7,
      "slp": 1020.4,
      "rawOb": "KMSP 271053Z 07008KT 10SM OVC012 17/14 A3014 RMK AO2 SLP204 T01670139"
    },
    "geometry": {
      "type": "Point",
      "coordinates": [-93.231,44.885]
    } 
  }]}
