{ "type": "FeatureCollection",
  "features": [
  { "type": "Feature",
    "properties": {
      "data": "METAR",
      "beg_time": "1696561807",
      "end_time": "1696569007",
      "wrap": "",
      "bbox": "-93.2717,44.8398,-93.1411,44.9201"
    }
  },
  { "type": "Feature",
    "id": "1417041916",
    "properties": {
      "data": "METAR",
      "id": "KMSP",
      "site": "Minneapolis-St Paul",
      "prior": 1,
      "obsTime": "2023-10-06T04:53:00Z",
      "temp": 11.7,
      "dewp": 5.6,
      "wspd": 13,
      "wdir": 280,
      "ceil": 100,
      "cover": "BKN",
      "cldCvg1": "FEW",
      "cldBas1": "70",
      "cldCvg2": "BKN",
      "cldBas2": "100",
      "visib": 10.00,
      "fltcat": "VFR",
      "altim": 1013.0,
      "slp": 1012.9,
      "rawOb": "KMSP 060453Z 28013KT 10SM FEW070 BKN100 12/06 A2991 RMK AO2 PK WND 27027/0437 SLP129 T01170056"
    },
    "geometry": {
      "type": "Point",
      "coordinates": [-93.231,44.885]
    } 
  }]}
