{ "type": "FeatureCollection",
  "features": [
  { "type": "Feature",
    "properties": {
      "data": "METAR",
      "beg_time": "1697296207",
      "end_time": "1697303407",
      "wrap": "",
      "bbox": "-93.2717,44.8398,-93.1411,44.9201"
    }
  },
  { "type": "Feature",
    "id": "1426088978",
    "properties": {
      "data": "METAR",
      "id": "KMSP",
      "site": "Minneapolis-St Paul",
      "prior": 1,
      "obsTime": "2023-10-14T16:53:00Z",
      "temp": 10.6,
      "dewp": 5.6,
      "wspd": 10,
      "wgst": 18,
      "wdir": 20,
      "ceil": 31,
      "cover": "OVC",
      "cldCvg1": "SCT",
      "cldBas1": "25",
      "cldCvg2": "OVC",
      "cldBas2": "31",
      "visib": 10.00,
      "fltcat": "VFR",
      "altim": 1022.8,
      "slp": 1023.2,
      "rawOb": "KMSP 141653Z 02010G18KT 330V030 10SM SCT025 OVC031 11/06 A3020 RMK AO2 SLP232 T01060056"
    },
    "geometry": {
      "type": "Point",
      "coordinates": [-93.231,44.885]
    } 
  }]}
