{ "type": "FeatureCollection",
  "features": [
  { "type": "Feature",
    "properties": {
      "data": "METAR",
      "beg_time": "1694131807",
      "end_time": "1694139007",
      "wrap": "",
      "bbox": "-93.2717,44.8398,-93.1411,44.9201"
    }
  },
  { "type": "Feature",
    "id": "1310304051",
    "properties": {
      "data": "METAR",
      "id": "KMSP",
      "site": "Minneapolis-St Paul",
      "prior": 1,
      "obsTime": "2023-09-08T01:53:00Z",
      "temp": 16.7,
      "dewp": 10.0,
      "wspd": 0,
      "wdir": 0,
      "ceil": 34,
      "cover": "BKN",
      "cldCvg1": "BKN",
      "cldBas1": "34",
      "visib": 10.00,
      "fltcat": "VFR",
      "altim": 1018.0,
      "slp": 1017.8,
      "rawOb": "KMSP 080153Z 00000KT 10SM BKN034 17/10 A3006 RMK AO2 SLP178 T01670100"
    },
    "geometry": {
      "type": "Point",
      "coordinates": [-93.231,44.885]
    } 
  }]}
