{ "type": "FeatureCollection",
  "features": [
  { "type": "Feature",
    "properties": {
      "data": "METAR",
      "beg_time": "1695219006",
      "end_time": "1695226206",
      "wrap": "",
      "bbox": "-93.2717,44.8398,-93.1411,44.9201"
    }
  },
  { "type": "Feature",
    "id": "1323449953",
    "properties": {
      "data": "METAR",
      "id": "KMSP",
      "site": "Minneapolis-St Paul",
      "prior": 1,
      "obsTime": "2023-09-20T15:53:00Z",
      "temp": 23.3,
      "dewp": 13.9,
      "wspd": 5,
      "wdir": 130,
      "cover": "FEW",
      "cldCvg1": "FEW",
      "cldBas1": "100",
      "cldCvg2": "FEW",
      "cldBas2": "250",
      "visib": 10.00,
      "fltcat": "VFR",
      "altim": 1014.6,
      "slp": 1014.1,
      "rawOb": "KMSP 201553Z 13005KT 10SM FEW100 FEW250 23/14 A2996 RMK AO2 SLP141 T02330139"
    },
    "geometry": {
      "type": "Point",
      "coordinates": [-93.231,44.885]
    } 
  }]}
