{ "type": "FeatureCollection",
  "features": [
  { "type": "Feature",
    "properties": {
      "data": "METAR",
      "beg_time": "1693995007",
      "end_time": "1694002207",
      "wrap": "",
      "bbox": "-93.2717,44.8398,-93.1411,44.9201"
    }
  },
  { "type": "Feature",
    "id": "1385907494",
    "properties": {
      "data": "METAR",
      "id": "KMSP",
      "site": "Minneapolis-St Paul",
      "prior": 1,
      "obsTime": "2023-09-06T11:53:00Z",
      "temp": 18.3,
      "dewp": 14.4,
      "wspd": 14,
      "wgst": 25,
      "wdir": 330,
      "ceil": 13,
      "cover": "OVC",
      "cldCvg1": "OVC",
      "cldBas1": "13",
      "visib": 10.00,
      "fltcat": "MVFR",
      "altim": 1010.2,
      "slp": 1009.5,
      "rawOb": "KMSP 061153Z 33014G25KT 10SM OVC013 18/14 A2983 RMK AO2 PK WND 34028/1143 SLP095 70001 T01830144 10222 20183 53023 $"
    },
    "geometry": {
      "type": "Point",
      "coordinates": [-93.231,44.885]
    } 
  }]}
