{ "type": "FeatureCollection",
  "features": [
  { "type": "Feature",
    "properties": {
      "data": "METAR",
      "beg_time": "1696749007",
      "end_time": "1696756207",
      "wrap": "",
      "bbox": "-93.2717,44.8398,-93.1411,44.9201"
    }
  },
  { "type": "Feature",
    "id": "1419348828",
    "properties": {
      "data": "METAR",
      "id": "KMSP",
      "site": "Minneapolis-St Paul",
      "prior": 1,
      "obsTime": "2023-10-08T08:53:00Z",
      "temp": 8.3,
      "dewp": 2.2,
      "wspd": 6,
      "wdir": 120,
      "ceil": 110,
      "cover": "OVC",
      "cldCvg1": "OVC",
      "cldBas1": "110",
      "visib": 10.00,
      "fltcat": "VFR",
      "altim": 1016.0,
      "slp": 1016.3,
      "rawOb": "KMSP 080853Z 12006KT 10SM OVC110 08/02 A3000 RMK AO2 SLP163 T00830022 58010"
    },
    "geometry": {
      "type": "Point",
      "coordinates": [-93.231,44.885]
    } 
  }]}
