{ "type": "FeatureCollection",
  "features": [
  { "type": "Feature",
    "properties": {
      "data": "METAR",
      "beg_time": "1697015406",
      "end_time": "1697022606",
      "wrap": "",
      "bbox": "-93.2717,44.8398,-93.1411,44.9201"
    }
  },
  { "type": "Feature",
    "id": "1422578166",
    "properties": {
      "data": "METAR",
      "id": "KMSP",
      "site": "Minneapolis-St Paul",
      "prior": 1,
      "obsTime": "2023-10-11T10:53:00Z",
      "temp": 4.4,
      "dewp": 2.2,
      "wspd": 4,
      "wdir": 20,
      "cover": "CLR",
      "cldCvg1": "CLR",
      "visib": 10.00,
      "fltcat": "VFR",
      "altim": 1008.9,
      "slp": 1009.2,
      "rawOb": "KMSP 111053Z 02004KT 10SM CLR 04/02 A2979 RMK AO2 SLP092 T00440022"
    },
    "geometry": {
      "type": "Point",
      "coordinates": [-93.231,44.885]
    } 
  }]}
