{ "type": "FeatureCollection",
  "features": [
  { "type": "Feature",
    "properties": {
      "data": "METAR",
      "beg_time": "1694970607",
      "end_time": "1694977807",
      "wrap": "",
      "bbox": "-93.2717,44.8398,-93.1411,44.9201"
    }
  },
  { "type": "Feature",
    "id": "1320555695",
    "properties": {
      "data": "METAR",
      "id": "KMSP",
      "site": "Minneapolis-St Paul",
      "prior": 1,
      "obsTime": "2023-09-17T18:53:00Z",
      "temp": 21.1,
      "dewp": 9.4,
      "wspd": 3,
      "wdir": 0,
      "cover": "SCT",
      "cldCvg1": "SCT",
      "cldBas1": "48",
      "visib": 10.00,
      "fltcat": "VFR",
      "altim": 1019.0,
      "slp": 1018.9,
      "rawOb": "KMSP 171853Z VRB03KT 10SM SCT048 21/09 A3009 RMK AO2 SLP189 T02110094 $"
    },
    "geometry": {
      "type": "Point",
      "coordinates": [-93.231,44.885]
    } 
  }]}
