{ "type": "FeatureCollection",
  "features": [
  { "type": "Feature",
    "properties": {
      "data": "METAR",
      "beg_time": "1692652207",
      "end_time": "1692659407",
      "wrap": "",
      "bbox": "-93.2717,44.8398,-93.1411,44.9201"
    }
  },
  { "type": "Feature",
    "id": "1292565601",
    "properties": {
      "data": "METAR",
      "id": "KMSP",
      "site": "Minneapolis-St Paul",
      "prior": 1,
      "obsTime": "2023-08-21T22:53:00Z",
      "temp": 23.3,
      "dewp": 17.2,
      "wspd": 12,
      "wdir": 100,
      "ceil": 22,
      "cover": "OVC",
      "cldCvg1": "BKN",
      "cldBas1": "22",
      "cldCvg2": "OVC",
      "cldBas2": "35",
      "visib": 9.00,
      "fltcat": "MVFR",
      "altim": 1021.4,
      "slp": 1021.1,
      "rawOb": "KMSP 212253Z 10012KT 9SM BKN022 OVC035 23/17 A3016 RMK AO2 SLP211 T02330172"
    },
    "geometry": {
      "type": "Point",
      "coordinates": [-93.231,44.885]
    } 
  }]}
