{ "type": "FeatureCollection",
  "features": [
  { "type": "Feature",
    "properties": {
      "data": "METAR",
      "beg_time": "1697285407",
      "end_time": "1697292607",
      "wrap": "",
      "bbox": "-93.2717,44.8398,-93.1411,44.9201"
    }
  },
  { "type": "Feature",
    "id": "1425962698",
    "properties": {
      "data": "METAR",
      "id": "KMSP",
      "site": "Minneapolis-St Paul",
      "prior": 1,
      "obsTime": "2023-10-14T13:53:00Z",
      "temp": 8.9,
      "dewp": 5.6,
      "wspd": 11,
      "wdir": 20,
      "cover": "SCT",
      "cldCvg1": "SCT",
      "cldBas1": "100",
      "cldCvg2": "SCT",
      "cldBas2": "250",
      "visib": 10.00,
      "fltcat": "VFR",
      "altim": 1021.4,
      "slp": 1021.8,
      "rawOb": "KMSP 141353Z 02011KT 10SM SCT100 SCT250 09/06 A3016 RMK AO2 SLP218 T00890056"
    },
    "geometry": {
      "type": "Point",
      "coordinates": [-93.231,44.885]
    } 
  }]}
