{ "type": "FeatureCollection",
  "features": [
  { "type": "Feature",
    "properties": {
      "data": "METAR",
      "beg_time": "1696083007",
      "end_time": "1696090207",
      "wrap": "",
      "bbox": "-93.2717,44.8398,-93.1411,44.9201"
    }
  },
  { "type": "Feature",
    "id": "1411131670",
    "properties": {
      "data": "METAR",
      "id": "KMSP",
      "site": "Minneapolis-St Paul",
      "prior": 1,
      "obsTime": "2023-09-30T15:53:00Z",
      "temp": 25.0,
      "dewp": 18.9,
      "wspd": 5,
      "wdir": 0,
      "cover": "SCT",
      "cldCvg1": "FEW",
      "cldBas1": "150",
      "cldCvg2": "SCT",
      "cldBas2": "250",
      "visib": 9.00,
      "fltcat": "VFR",
      "altim": 1017.0,
      "slp": 1016.5,
      "rawOb": "KMSP 301553Z VRB05KT 9SM FEW150 SCT250 25/19 A3003 RMK AO2 SLP165 T02500189"
    },
    "geometry": {
      "type": "Point",
      "coordinates": [-93.231,44.885]
    } 
  }]}
