{ "type": "FeatureCollection",
  "features": [
  { "type": "Feature",
    "properties": {
      "data": "METAR",
      "beg_time": "1697429407",
      "end_time": "1697436607",
      "wrap": "",
      "bbox": "-93.2717,44.8398,-93.1411,44.9201"
    }
  },
  { "type": "Feature",
    "id": "1350594343",
    "properties": {
      "data": "METAR",
      "id": "KMSP",
      "site": "Minneapolis-St Paul",
      "prior": 1,
      "obsTime": "2023-10-16T05:53:00Z",
      "temp": 7.8,
      "dewp": 3.9,
      "wspd": 6,
      "wdir": 350,
      "cover": "CLR",
      "cldCvg1": "CLR",
      "visib": 10.00,
      "fltcat": "VFR",
      "altim": 1022.8,
      "slp": 1023.0,
      "rawOb": "KMSP 160553Z 35006KT 10SM CLR 08/04 A3020 RMK AO2 SLP230 T00780039 10117 20078 401390056 53003"
    },
    "geometry": {
      "type": "Point",
      "coordinates": [-93.231,44.885]
    } 
  }]}
