{ "type": "FeatureCollection",
  "features": [
  { "type": "Feature",
    "properties": {
      "data": "METAR",
      "beg_time": "1692699006",
      "end_time": "1692706206",
      "wrap": "",
      "bbox": "-93.2717,44.8398,-93.1411,44.9201"
    }
  },
  { "type": "Feature",
    "id": "1293133979",
    "properties": {
      "data": "METAR",
      "id": "KMSP",
      "site": "Minneapolis-St Paul",
      "prior": 1,
      "obsTime": "2023-08-22T12:04:00Z",
      "temp": 22.8,
      "dewp": 20.6,
      "wspd": 7,
      "wdir": 160,
      "ceil": 10,
      "cover": "BKN",
      "cldCvg1": "BKN",
      "cldBas1": "10",
      "cldCvg2": "BKN",
      "cldBas2": "20",
      "cldCvg3": "BKN",
      "cldBas3": "200",
      "visib": 7.00,
      "fltcat": "MVFR",
      "altim": 1018.7,
      "rawOb": "KMSP 221204Z 16007KT 7SM BKN010 BKN020 BKN200 23/21 A3008 RMK AO2 T02280206"
    },
    "geometry": {
      "type": "Point",
      "coordinates": [-93.231,44.885]
    } 
  }]}
