{ "type": "FeatureCollection",
  "features": [
  { "type": "Feature",
    "properties": {
      "data": "METAR",
      "beg_time": "1692853807",
      "end_time": "1692861007",
      "wrap": "",
      "bbox": "-93.2717,44.8398,-93.1411,44.9201"
    }
  },
  { "type": "Feature",
    "id": "1372203646",
    "properties": {
      "data": "METAR",
      "id": "KMSP",
      "site": "Minneapolis-St Paul",
      "prior": 1,
      "obsTime": "2023-08-24T06:53:00Z",
      "temp": 26.1,
      "dewp": 23.3,
      "wspd": 5,
      "wdir": 40,
      "cover": "CLR",
      "cldCvg1": "CLR",
      "visib": 9.00,
      "fltcat": "VFR",
      "altim": 1008.9,
      "slp": 1008.0,
      "rawOb": "KMSP 240653Z 04005KT 9SM CLR 26/23 A2979 RMK AO2 SLP080 T02610233"
    },
    "geometry": {
      "type": "Point",
      "coordinates": [-93.231,44.885]
    } 
  }]}
