{ "type": "FeatureCollection",
  "features": [
  { "type": "Feature",
    "properties": {
      "data": "METAR",
      "beg_time": "1697386207",
      "end_time": "1697393407",
      "wrap": "",
      "bbox": "-93.2717,44.8398,-93.1411,44.9201"
    }
  },
  { "type": "Feature",
    "id": "1350082309",
    "properties": {
      "data": "METAR",
      "id": "KMSP",
      "site": "Minneapolis-St Paul",
      "prior": 1,
      "obsTime": "2023-10-15T17:53:00Z",
      "temp": 10.0,
      "dewp": 4.4,
      "wspd": 9,
      "wdir": 320,
      "cover": "FEW",
      "cldCvg1": "FEW",
      "cldBas1": "21",
      "cldCvg2": "FEW",
      "cldBas2": "150",
      "visib": 10.00,
      "fltcat": "VFR",
      "altim": 1024.8,
      "slp": 1025.3,
      "rawOb": "KMSP 151753Z 32009KT 10SM FEW021 FEW150 10/04 A3026 RMK AO2 SLP253 T01000044 10106 20056 58014"
    },
    "geometry": {
      "type": "Point",
      "coordinates": [-93.231,44.885]
    } 
  }]}
