{ "type": "FeatureCollection",
  "features": [
  { "type": "Feature",
    "properties": {
      "data": "METAR",
      "beg_time": "1695784206",
      "end_time": "1695791406",
      "wrap": "",
      "bbox": "-93.2717,44.8398,-93.1411,44.9201"
    }
  },
  { "type": "Feature",
    "id": "1330322265",
    "properties": {
      "data": "METAR",
      "id": "KMSP",
      "site": "Minneapolis-St Paul",
      "prior": 1,
      "obsTime": "2023-09-27T04:53:00Z",
      "temp": 17.2,
      "dewp": 13.9,
      "wspd": 9,
      "wdir": 70,
      "ceil": 40,
      "cover": "OVC",
      "cldCvg1": "BKN",
      "cldBas1": "40",
      "cldCvg2": "OVC",
      "cldBas2": "50",
      "visib": 10.00,
      "fltcat": "VFR",
      "altim": 1021.1,
      "slp": 1020.9,
      "rawOb": "KMSP 270453Z 07009KT 10SM BKN040 OVC050 17/14 A3015 RMK AO2 SLP209 T01720139"
    },
    "geometry": {
      "type": "Point",
      "coordinates": [-93.231,44.885]
    } 
  }]}
