{ "type": "FeatureCollection",
  "features": [
  { "type": "Feature",
    "properties": {
      "data": "METAR",
      "beg_time": "1692619807",
      "end_time": "1692627007",
      "wrap": "",
      "bbox": "-93.2717,44.8398,-93.1411,44.9201"
    }
  },
  { "type": "Feature",
    "id": "1292178599",
    "properties": {
      "data": "METAR",
      "id": "KMSP",
      "site": "Minneapolis-St Paul",
      "prior": 1,
      "obsTime": "2023-08-21T13:53:00Z",
      "temp": 19.4,
      "dewp": 15.6,
      "wspd": 5,
      "wdir": 80,
      "ceil": 43,
      "cover": "BKN",
      "cldCvg1": "BKN",
      "cldBas1": "43",
      "cldCvg2": "BKN",
      "cldBas2": "60",
      "cldCvg3": "BKN",
      "cldBas3": "250",
      "visib": 9.00,
      "fltcat": "VFR",
      "altim": 1023.8,
      "slp": 1023.3,
      "rawOb": "KMSP 211353Z 08005KT 9SM BKN043 BKN060 BKN250 19/16 A3023 RMK AO2 SLP233 T01940156"
    },
    "geometry": {
      "type": "Point",
      "coordinates": [-93.231,44.885]
    } 
  }]}
