{ "type": "FeatureCollection",
  "features": [
  { "type": "Feature",
    "properties": {
      "data": "METAR",
      "beg_time": "1692846607",
      "end_time": "1692853807",
      "wrap": "",
      "bbox": "-93.2717,44.8398,-93.1411,44.9201"
    }
  },
  { "type": "Feature",
    "id": "1372117380",
    "properties": {
      "data": "METAR",
      "id": "KMSP",
      "site": "Minneapolis-St Paul",
      "prior": 1,
      "obsTime": "2023-08-24T04:53:00Z",
      "temp": 27.2,
      "dewp": 23.3,
      "wspd": 3,
      "wdir": 60,
      "cover": "CLR",
      "cldCvg1": "CLR",
      "visib": 10.00,
      "fltcat": "VFR",
      "altim": 1009.6,
      "slp": 1008.7,
      "rawOb": "KMSP 240453Z 06003KT 10SM CLR 27/23 A2981 RMK AO2 SLP087 T02720233"
    },
    "geometry": {
      "type": "Point",
      "coordinates": [-93.231,44.885]
    } 
  }]}
