{ "type": "FeatureCollection",
  "features": [
  { "type": "Feature",
    "properties": {
      "data": "METAR",
      "beg_time": "1696439407",
      "end_time": "1696446607",
      "wrap": "",
      "bbox": "-93.2717,44.8398,-93.1411,44.9201"
    }
  },
  { "type": "Feature",
    "id": "1415528084",
    "properties": {
      "data": "METAR",
      "id": "KMSP",
      "site": "Minneapolis-St Paul",
      "prior": 1,
      "obsTime": "2023-10-04T18:53:00Z",
      "temp": 17.2,
      "dewp": 9.4,
      "wspd": 12,
      "wdir": 270,
      "ceil": 43,
      "cover": "OVC",
      "cldCvg1": "BKN",
      "cldBas1": "43",
      "cldCvg2": "OVC",
      "cldBas2": "55",
      "visib": 10.00,
      "fltcat": "VFR",
      "altim": 1010.9,
      "slp": 1010.6,
      "rawOb": "KMSP 041853Z 27012KT 10SM BKN043 OVC055 17/09 A2985 RMK AO2 PK WND 27026/1806 SLP106 T01720094"
    },
    "geometry": {
      "type": "Point",
      "coordinates": [-93.231,44.885]
    } 
  }]}
