[{"icaoId":"KMSP","receiptTime":"2026-03-22T19:49:05.322Z","obsTime":1774208760,"reportTime":"2026-03-22T19:46:00.000Z","temp":3.3,"dewp":-5.6,"wdir":360,"wspd":10,"wgst":19,"visib":"10+","altim":1021.1,"qcField":4,"metarType":"SPECI","rawOb":"SPECI KMSP 221946Z 36010G19KT 10SM OVC031 03/M06 A3015 RMK AO2 T00331056","lat":44.8852,"lon":-93.2313,"elev":255,"name":"Minneapolis-St Paul Intl, MN, US","cover":"OVC","clouds":[{"cover":"OVC","base":3100}],"fltCat":"VFR"},{"icaoId":"KMSP","receiptTime":"2026-03-22T19:01:00.217Z","obsTime":1774205580,"reportTime":"2026-03-22T19:00:00.000Z","temp":2.8,"dewp":-5,"wdir":350,"wspd":12,"visib":"10+","altim":1021.1,"slp":1021.7,"qcField":4,"metarType":"METAR","rawOb":"METAR KMSP 221853Z 35012KT 10SM OVC028 03/M05 A3015 RMK AO2 SLP217 T00281050","lat":44.8852,"lon":-93.2313,"elev":255,"name":"Minneapolis-St Paul Intl, MN, US","cover":"OVC","clouds":[{"cover":"OVC","base":2800}],"fltCat":"MVFR"},{"icaoId":"KMSP","receiptTime":"2026-03-22T17:59:38.623Z","obsTime":1774201980,"reportTime":"2026-03-22T18:00:00.000Z","temp":2.8,"dewp":-5,"wdir":360,"wspd":14,"visib":"10+","altim":1020.7,"slp":1021.3,"qcField":4,"presTend":2.3,"maxT":3.3,"minT":1.1,"metarType":"METAR","rawOb":"METAR KMSP 221753Z 36014KT 10SM OVC027 03/M05 A3014 RMK AO2 SLP213 T00281050 10033 20011 51023","lat":44.8852,"lon":-93.2313,"elev":255,"name":"Minneapolis-St Paul Intl, MN, US","cover":"OVC","clouds":[{"cover":"OVC","base":2700}],"fltCat":"MVFR"}]