{ "type": "FeatureCollection",
  "features": [
  { "type": "Feature",
    "properties": {
      "data": "METAR",
      "beg_time": "1697361007",
      "end_time": "1697368207",
      "wrap": "",
      "bbox": "-93.2717,44.8398,-93.1411,44.9201"
    }
  },
  { "type": "Feature",
    "id": "1349776545",
    "properties": {
      "data": "METAR",
      "id": "KMSP",
      "site": "Minneapolis-St Paul",
      "prior": 1,
      "obsTime": "2023-10-15T10:53:00Z",
      "temp": 6.7,
      "dewp": 3.9,
      "wspd": 7,
      "wdir": 340,
      "ceil": 48,
      "cover": "OVC",
      "cldCvg1": "OVC",
      "cldBas1": "48",
      "visib": 10.00,
      "fltcat": "VFR",
      "altim": 1025.8,
      "slp": 1026.3,
      "rawOb": "KMSP 151053Z 34007KT 10SM OVC048 07/04 A3029 RMK AO2 SLP263 T00670039"
    },
    "geometry": {
      "type": "Point",
      "coordinates": [-93.231,44.885]
    } 
  }]}
