{ "type": "FeatureCollection",
  "features": [
  { "type": "Feature",
    "properties": {
      "data": "METAR",
      "beg_time": "1696954206",
      "end_time": "1696961406",
      "wrap": "",
      "bbox": "-93.2717,44.8398,-93.1411,44.9201"
    }
  },
  { "type": "Feature",
    "id": "1421826648",
    "properties": {
      "data": "METAR",
      "id": "KMSP",
      "site": "Minneapolis-St Paul",
      "prior": 1,
      "obsTime": "2023-10-10T17:53:00Z",
      "temp": 12.2,
      "dewp": 0.0,
      "wspd": 6,
      "wgst": 15,
      "wdir": 330,
      "cover": "FEW",
      "cldCvg1": "FEW",
      "cldBas1": "100",
      "visib": 10.00,
      "fltcat": "VFR",
      "altim": 1010.2,
      "slp": 1010.6,
      "rawOb": "KMSP 101753Z 33006G15KT 10SM FEW100 12/00 A2983 RMK AO2 SLP106 T01220000 10122 20033 58009"
    },
    "geometry": {
      "type": "Point",
      "coordinates": [-93.231,44.885]
    } 
  }]}
