{ "type": "FeatureCollection",
  "features": [
  { "type": "Feature",
    "properties": {
      "data": "METAR",
      "beg_time": "1693775407",
      "end_time": "1693782607",
      "wrap": "",
      "bbox": "-93.2717,44.8398,-93.1411,44.9201"
    }
  },
  { "type": "Feature",
    "id": "1383303034",
    "properties": {
      "data": "METAR",
      "id": "KMSP",
      "site": "Minneapolis-St Paul",
      "prior": 1,
      "obsTime": "2023-09-03T22:53:00Z",
      "temp": 35.0,
      "dewp": 17.8,
      "wspd": 10,
      "wdir": 210,
      "cover": "FEW",
      "cldCvg1": "FEW",
      "cldBas1": "250",
      "visib": 10.00,
      "fltcat": "VFR",
      "altim": 1006.9,
      "slp": 1006.0,
      "rawOb": "KMSP 032253Z 21010KT 10SM FEW250 35/18 A2973 RMK AO2 SLP060 T03500178"
    },
    "geometry": {
      "type": "Point",
      "coordinates": [-93.231,44.885]
    } 
  }]}
