{ "type": "FeatureCollection",
  "features": [
  { "type": "Feature",
    "properties": {
      "data": "METAR",
      "beg_time": "1692774606",
      "end_time": "1692781806",
      "wrap": "",
      "bbox": "-93.2717,44.8398,-93.1411,44.9201"
    }
  },
  { "type": "Feature",
    "id": "1371263908",
    "properties": {
      "data": "METAR",
      "id": "KMSP",
      "site": "Minneapolis-St Paul",
      "prior": 1,
      "obsTime": "2023-08-23T08:53:00Z",
      "temp": 28.9,
      "dewp": 25.6,
      "wspd": 8,
      "wdir": 240,
      "cover": "CLR",
      "cldCvg1": "CLR",
      "visib": 9.00,
      "fltcat": "VFR",
      "altim": 1012.6,
      "slp": 1011.4,
      "rawOb": "KMSP 230853Z 24008KT 9SM CLR 29/26 A2990 RMK AO2 SLP114 T02890256 55002"
    },
    "geometry": {
      "type": "Point",
      "coordinates": [-93.231,44.885]
    } 
  }]}
