{ "type": "FeatureCollection",
  "features": [
  { "type": "Feature",
    "properties": {
      "data": "METAR",
      "beg_time": "1695085807",
      "end_time": "1695093007",
      "wrap": "",
      "bbox": "-93.2717,44.8398,-93.1411,44.9201"
    }
  },
  { "type": "Feature",
    "id": "1321970463",
    "properties": {
      "data": "METAR",
      "id": "KMSP",
      "site": "Minneapolis-St Paul",
      "prior": 1,
      "obsTime": "2023-09-19T02:53:00Z",
      "temp": 20.6,
      "dewp": 10.0,
      "wspd": 12,
      "wdir": 120,
      "ceil": 85,
      "cover": "BKN",
      "cldCvg1": "BKN",
      "cldBas1": "85",
      "cldCvg2": "BKN",
      "cldBas2": "150",
      "visib": 10.00,
      "fltcat": "VFR",
      "altim": 1011.3,
      "slp": 1011.0,
      "rawOb": "KMSP 190253Z 12012KT 10SM BKN085 BKN150 21/10 A2986 RMK AO2 SLP110 T02060100 58003"
    },
    "geometry": {
      "type": "Point",
      "coordinates": [-93.231,44.885]
    } 
  }]}
