{ "type": "FeatureCollection",
  "features": [
  { "type": "Feature",
    "properties": {
      "data": "METAR",
      "beg_time": "1693980606",
      "end_time": "1693987806",
      "wrap": "",
      "bbox": "-93.2717,44.8398,-93.1411,44.9201"
    }
  },
  { "type": "Feature",
    "id": "1385731312",
    "properties": {
      "data": "METAR",
      "id": "KMSP",
      "site": "Minneapolis-St Paul",
      "prior": 1,
      "obsTime": "2023-09-06T07:53:00Z",
      "temp": 22.2,
      "dewp": 18.3,
      "wspd": 10,
      "wdir": 330,
      "ceil": 20,
      "cover": "OVC",
      "cldCvg1": "OVC",
      "cldBas1": "20",
      "visib": 10.00,
      "fltcat": "MVFR",
      "altim": 1007.5,
      "slp": 1006.8,
      "rawOb": "KMSP 060753Z 33010KT 10SM OVC020 22/18 A2975 RMK AO2 SLP068 T02220183 $"
    },
    "geometry": {
      "type": "Point",
      "coordinates": [-93.231,44.885]
    } 
  }]}
