{ "type": "FeatureCollection",
  "features": [
  { "type": "Feature",
    "properties": {
      "data": "METAR",
      "beg_time": "1695226206",
      "end_time": "1695233406",
      "wrap": "",
      "bbox": "-93.2717,44.8398,-93.1411,44.9201"
    }
  },
  { "type": "Feature",
    "id": "1323537321",
    "properties": {
      "data": "METAR",
      "id": "KMSP",
      "site": "Minneapolis-St Paul",
      "prior": 1,
      "obsTime": "2023-09-20T17:53:00Z",
      "temp": 27.8,
      "dewp": 14.4,
      "wspd": 8,
      "wdir": 150,
      "cover": "FEW",
      "cldCvg1": "FEW",
      "cldBas1": "100",
      "cldCvg2": "FEW",
      "cldBas2": "250",
      "visib": 10.00,
      "fltcat": "VFR",
      "altim": 1014.6,
      "slp": 1014.0,
      "rawOb": "KMSP 201753Z 15008KT 120V180 10SM FEW100 FEW250 28/14 A2996 RMK AO2 SLP140 ACC DSNT NW-N T02780144 10278 20156 50004"
    },
    "geometry": {
      "type": "Point",
      "coordinates": [-93.231,44.885]
    } 
  }]}
