{ "type": "FeatureCollection",
  "features": [
  { "type": "Feature",
    "properties": {
      "data": "METAR",
      "beg_time": "1693091407",
      "end_time": "1693098607",
      "wrap": "",
      "bbox": "-93.2717,44.8398,-93.1411,44.9201"
    }
  },
  { "type": "Feature",
    "id": "1375073700",
    "properties": {
      "data": "METAR",
      "id": "KMSP",
      "site": "Minneapolis-St Paul",
      "prior": 1,
      "obsTime": "2023-08-27T00:53:00Z",
      "temp": 19.4,
      "dewp": 11.7,
      "wspd": 8,
      "wgst": 18,
      "wdir": 40,
      "ceil": 34,
      "cover": "BKN",
      "cldCvg1": "BKN",
      "cldBas1": "34",
      "visib": 10.00,
      "fltcat": "VFR",
      "altim": 1021.8,
      "slp": 1021.4,
      "rawOb": "KMSP 270053Z 04008G18KT 10SM BKN034 19/12 A3017 RMK AO2 SLP214 T01940117"
    },
    "geometry": {
      "type": "Point",
      "coordinates": [-93.231,44.885]
    } 
  }]}
