{ "type": "FeatureCollection",
  "features": [
  { "type": "Feature",
    "properties": {
      "data": "METAR",
      "beg_time": "1694833807",
      "end_time": "1694841007",
      "wrap": "",
      "bbox": "-93.2717,44.8398,-93.1411,44.9201"
    }
  },
  { "type": "Feature",
    "id": "1318898703",
    "properties": {
      "data": "METAR",
      "id": "KMSP",
      "site": "Minneapolis-St Paul",
      "prior": 1,
      "obsTime": "2023-09-16T04:53:00Z",
      "temp": 16.7,
      "dewp": 15.6,
      "wspd": 0,
      "wdir": 0,
      "cover": "FEW",
      "cldCvg1": "FEW",
      "cldBas1": "80",
      "cldCvg2": "FEW",
      "cldBas2": "250",
      "visib": 8.00,
      "fltcat": "VFR",
      "altim": 1016.7,
      "slp": 1016.5,
      "rawOb": "KMSP 160453Z 00000KT 8SM FEW080 FEW250 17/16 A3002 RMK AO2 SLP165 T01670156"
    },
    "geometry": {
      "type": "Point",
      "coordinates": [-93.231,44.885]
    } 
  }]}
