{ "type": "FeatureCollection",
  "features": [
  { "type": "Feature",
    "properties": {
      "data": "METAR",
      "beg_time": "1696338607",
      "end_time": "1696345807",
      "wrap": "",
      "bbox": "-93.2717,44.8398,-93.1411,44.9201"
    }
  },
  { "type": "Feature",
    "id": "1414280232",
    "properties": {
      "data": "METAR",
      "id": "KMSP",
      "site": "Minneapolis-St Paul",
      "prior": 1,
      "obsTime": "2023-10-03T14:53:00Z",
      "temp": 22.2,
      "dewp": 13.9,
      "wspd": 9,
      "wdir": 170,
      "ceil": 100,
      "cover": "BKN",
      "cldCvg1": "BKN",
      "cldBas1": "100",
      "visib": 10.00,
      "fltcat": "VFR",
      "altim": 1013.3,
      "slp": 1012.8,
      "rawOb": "KMSP 031453Z 17009KT 10SM BKN100 22/14 A2992 RMK AO2 SLP128 T02220139 56007"
    },
    "geometry": {
      "type": "Point",
      "coordinates": [-93.231,44.885]
    } 
  }]}
