{ "type": "FeatureCollection",
  "features": [
  { "type": "Feature",
    "properties": {
      "data": "METAR",
      "beg_time": "1694513407",
      "end_time": "1694520607",
      "wrap": "",
      "bbox": "-93.2717,44.8398,-93.1411,44.9201"
    }
  },
  { "type": "Feature",
    "id": "1314985437",
    "properties": {
      "data": "METAR",
      "id": "KMSP",
      "site": "Minneapolis-St Paul",
      "prior": 1,
      "obsTime": "2023-09-12T11:53:00Z",
      "temp": 13.3,
      "dewp": 11.7,
      "wspd": 3,
      "wdir": 350,
      "ceil": 9,
      "cover": "OVC",
      "cldCvg1": "BKN",
      "cldBas1": "9",
      "cldCvg2": "BKN",
      "cldBas2": "14",
      "cldCvg3": "OVC",
      "cldBas3": "75",
      "visib": 10.00,
      "fltcat": "IFR",
      "altim": 1021.1,
      "slp": 1021.0,
      "rawOb": "KMSP 121153Z 35003KT 10SM BKN009 BKN014 OVC075 13/12 A3015 RMK AO2 SLP210 70022 T01330117 10144 20128 53008 $"
    },
    "geometry": {
      "type": "Point",
      "coordinates": [-93.231,44.885]
    } 
  }]}
