{ "type": "FeatureCollection",
  "features": [
  { "type": "Feature",
    "properties": {
      "data": "METAR",
      "beg_time": "1692695407",
      "end_time": "1692702607",
      "wrap": "",
      "bbox": "-93.2717,44.8398,-93.1411,44.9201"
    }
  },
  { "type": "Feature",
    "id": "1293077197",
    "properties": {
      "data": "METAR",
      "id": "KMSP",
      "site": "Minneapolis-St Paul",
      "prior": 1,
      "obsTime": "2023-08-22T10:53:00Z",
      "temp": 22.2,
      "dewp": 20.0,
      "wspd": 7,
      "wdir": 150,
      "cover": "FEW",
      "cldCvg1": "FEW",
      "cldBas1": "24",
      "visib": 8.00,
      "fltcat": "VFR",
      "altim": 1019.0,
      "slp": 1018.6,
      "rawOb": "KMSP 221053Z 15007KT 8SM FEW024 22/20 A3009 RMK AO2 SLP186 T02220200"
    },
    "geometry": {
      "type": "Point",
      "coordinates": [-93.231,44.885]
    } 
  }]}
