{ "type": "FeatureCollection",
  "features": [
  { "type": "Feature",
    "properties": {
      "data": "METAR",
      "beg_time": "1694121006",
      "end_time": "1694128206",
      "wrap": "",
      "bbox": "-93.2717,44.8398,-93.1411,44.9201"
    }
  },
  { "type": "Feature",
    "id": "1310175105",
    "properties": {
      "data": "METAR",
      "id": "KMSP",
      "site": "Minneapolis-St Paul",
      "prior": 1,
      "obsTime": "2023-09-07T22:53:00Z",
      "temp": 17.8,
      "dewp": 10.0,
      "wspd": 6,
      "wdir": 20,
      "ceil": 28,
      "cover": "OVC",
      "cldCvg1": "OVC",
      "cldBas1": "28",
      "visib": 10.00,
      "fltcat": "MVFR",
      "altim": 1017.4,
      "slp": 1017.0,
      "rawOb": "KMSP 072253Z 02006KT 10SM OVC028 18/10 A3004 RMK AO2 SLP170 T01780100"
    },
    "geometry": {
      "type": "Point",
      "coordinates": [-93.231,44.885]
    } 
  }]}
