{ "type": "FeatureCollection",
  "features": [
  { "type": "Feature",
    "properties": {
      "data": "METAR",
      "beg_time": "1695363007",
      "end_time": "1695370207",
      "wrap": "",
      "bbox": "-93.2717,44.8398,-93.1411,44.9201"
    }
  },
  { "type": "Feature",
    "id": "1325197959",
    "properties": {
      "data": "METAR",
      "id": "KMSP",
      "site": "Minneapolis-St Paul",
      "prior": 1,
      "obsTime": "2023-09-22T07:53:00Z",
      "temp": 18.3,
      "dewp": 13.9,
      "wspd": 4,
      "wdir": 80,
      "cover": "SCT",
      "cldCvg1": "SCT",
      "cldBas1": "70",
      "visib": 10.00,
      "fltcat": "VFR",
      "altim": 1020.1,
      "slp": 1019.6,
      "rawOb": "KMSP 220753Z 08004KT 10SM SCT070 18/14 A3012 RMK AO2 SLP196 T01830139"
    },
    "geometry": {
      "type": "Point",
      "coordinates": [-93.231,44.885]
    } 
  }]}
