{ "type": "FeatureCollection",
  "features": [
  { "type": "Feature",
    "properties": {
      "data": "METAR",
      "beg_time": "1695730207",
      "end_time": "1695737407",
      "wrap": "",
      "bbox": "-93.2717,44.8398,-93.1411,44.9201"
    }
  },
  { "type": "Feature",
    "id": "1329673891",
    "properties": {
      "data": "METAR",
      "id": "KMSP",
      "site": "Minneapolis-St Paul",
      "prior": 1,
      "obsTime": "2023-09-26T13:53:00Z",
      "temp": 16.7,
      "dewp": 15.0,
      "wspd": 10,
      "wdir": 60,
      "ceil": 10,
      "cover": "OVC",
      "cldCvg1": "OVC",
      "cldBas1": "10",
      "visib": 7.00,
      "fltcat": "MVFR",
      "altim": 1021.1,
      "slp": 1020.8,
      "wx": "-RA",
      "rawOb": "KMSP 261353Z 06010KT 7SM -RA OVC010 17/15 A3015 RMK AO2 RAE06B47DZB23E47 SLP208 P0000 T01670150"
    },
    "geometry": {
      "type": "Point",
      "coordinates": [-93.231,44.885]
    } 
  }]}
