{ "type": "FeatureCollection",
  "features": [
  { "type": "Feature",
    "properties": {
      "data": "METAR",
      "beg_time": "1693271407",
      "end_time": "1693278607",
      "wrap": "",
      "bbox": "-93.2717,44.8398,-93.1411,44.9201"
    }
  },
  { "type": "Feature",
    "id": "1377246182",
    "properties": {
      "data": "METAR",
      "id": "KMSP",
      "site": "Minneapolis-St Paul",
      "prior": 1,
      "obsTime": "2023-08-29T02:53:00Z",
      "temp": 26.1,
      "dewp": 16.7,
      "wspd": 9,
      "wdir": 280,
      "cover": "SCT",
      "cldCvg1": "FEW",
      "cldBas1": "60",
      "cldCvg2": "SCT",
      "cldBas2": "95",
      "cldCvg3": "SCT",
      "cldBas3": "150",
      "visib": 10.00,
      "fltcat": "VFR",
      "altim": 1013.3,
      "slp": 1012.5,
      "rawOb": "KMSP 290253Z 28009KT 10SM FEW060 SCT095 SCT150 26/17 A2992 RMK AO2 SLP125 T02610167 53007"
    },
    "geometry": {
      "type": "Point",
      "coordinates": [-93.231,44.885]
    } 
  }]}
