{ "type": "FeatureCollection",
  "features": [
  { "type": "Feature",
    "properties": {
      "data": "METAR",
      "beg_time": "1697393406",
      "end_time": "1697400606",
      "wrap": "",
      "bbox": "-93.2717,44.8398,-93.1411,44.9201"
    }
  },
  { "type": "Feature",
    "id": "1350166397",
    "properties": {
      "data": "METAR",
      "id": "KMSP",
      "site": "Minneapolis-St Paul",
      "prior": 1,
      "obsTime": "2023-10-15T19:53:00Z",
      "temp": 12.2,
      "dewp": 4.4,
      "wspd": 11,
      "wdir": 320,
      "cover": "FEW",
      "cldCvg1": "FEW",
      "cldBas1": "25",
      "cldCvg2": "FEW",
      "cldBas2": "150",
      "visib": 10.00,
      "fltcat": "VFR",
      "altim": 1023.1,
      "slp": 1023.4,
      "rawOb": "KMSP 151953Z 32011KT 10SM FEW025 FEW150 12/04 A3021 RMK AO2 SLP234 T01220044"
    },
    "geometry": {
      "type": "Point",
      "coordinates": [-93.231,44.885]
    } 
  }]}
