{ "type": "FeatureCollection",
  "features": [
  { "type": "Feature",
    "properties": {
      "data": "METAR",
      "beg_time": "1693617007",
      "end_time": "1693624207",
      "wrap": "",
      "bbox": "-93.2717,44.8398,-93.1411,44.9201"
    }
  },
  { "type": "Feature",
    "id": "1381428014",
    "properties": {
      "data": "METAR",
      "id": "KMSP",
      "site": "Minneapolis-St Paul",
      "prior": 1,
      "obsTime": "2023-09-02T02:53:00Z",
      "temp": 26.7,
      "dewp": 16.7,
      "wspd": 9,
      "wdir": 180,
      "cover": "SCT",
      "cldCvg1": "SCT",
      "cldBas1": "200",
      "visib": 10.00,
      "fltcat": "VFR",
      "altim": 1014.3,
      "slp": 1013.7,
      "rawOb": "KMSP 020253Z 18009KT 10SM SCT200 27/17 A2995 RMK AO2 SLP137 T02670167 51008"
    },
    "geometry": {
      "type": "Point",
      "coordinates": [-93.231,44.885]
    } 
  }]}
