{ "type": "FeatureCollection",
  "features": [
  { "type": "Feature",
    "properties": {
      "data": "METAR",
      "beg_time": "1695870607",
      "end_time": "1695877807",
      "wrap": "",
      "bbox": "-93.2717,44.8398,-93.1411,44.9201"
    }
  },
  { "type": "Feature",
    "id": "1408524716",
    "properties": {
      "data": "METAR",
      "id": "KMSP",
      "site": "Minneapolis-St Paul",
      "prior": 1,
      "obsTime": "2023-09-28T04:53:00Z",
      "temp": 16.7,
      "dewp": 14.4,
      "wspd": 9,
      "wdir": 120,
      "ceil": 32,
      "cover": "BKN",
      "cldCvg1": "FEW",
      "cldBas1": "23",
      "cldCvg2": "BKN",
      "cldBas2": "32",
      "visib": 10.00,
      "fltcat": "VFR",
      "altim": 1019.4,
      "slp": 1019.0,
      "rawOb": "KMSP 280453Z 12009KT 10SM FEW023 BKN032 17/14 A3010 RMK AO2 SLP190 T01670144 $"
    },
    "geometry": {
      "type": "Point",
      "coordinates": [-93.231,44.885]
    } 
  }]}
