{ "type": "FeatureCollection",
  "features": [
  { "type": "Feature",
    "properties": {
      "data": "METAR",
      "beg_time": "1692483007",
      "end_time": "1692490207",
      "wrap": "",
      "bbox": "-93.2717,44.8398,-93.1411,44.9201"
    }
  },
  { "type": "Feature",
    "id": "1290553093",
    "properties": {
      "data": "METAR",
      "id": "KMSP",
      "site": "Minneapolis-St Paul",
      "prior": 1,
      "obsTime": "2023-08-19T23:53:00Z",
      "temp": 31.1,
      "dewp": 22.2,
      "wspd": 10,
      "wdir": 310,
      "cover": "FEW",
      "cldCvg1": "FEW",
      "cldBas1": "35",
      "visib": 10.00,
      "fltcat": "VFR",
      "altim": 1010.6,
      "slp": 1009.7,
      "rawOb": "KMSP 192353Z 31010KT 10SM FEW035 31/22 A2984 RMK AO2 SLP097 T03110222 10328 20289 53020"
    },
    "geometry": {
      "type": "Point",
      "coordinates": [-93.231,44.885]
    } 
  }]}
