{ "type": "FeatureCollection",
  "features": [
  { "type": "Feature",
    "properties": {
      "data": "METAR",
      "beg_time": "1693865407",
      "end_time": "1693872607",
      "wrap": "",
      "bbox": "-93.2717,44.8398,-93.1411,44.9201"
    }
  },
  { "type": "Feature",
    "id": "1384373844",
    "properties": {
      "data": "METAR",
      "id": "KMSP",
      "site": "Minneapolis-St Paul",
      "prior": 1,
      "obsTime": "2023-09-04T23:53:00Z",
      "temp": 35.0,
      "dewp": 13.9,
      "wspd": 13,
      "wgst": 21,
      "wdir": 180,
      "cover": "CLR",
      "cldCvg1": "CLR",
      "visib": 10.00,
      "fltcat": "VFR",
      "altim": 1003.8,
      "slp": 1003.0,
      "rawOb": "KMSP 042353Z 18013G21KT 10SM CLR 35/14 A2964 RMK AO2 SLP030 T03500139 10367 20344 56004"
    },
    "geometry": {
      "type": "Point",
      "coordinates": [-93.231,44.885]
    } 
  }]}
