{ "type": "FeatureCollection",
  "features": [
  { "type": "Feature",
    "properties": {
      "data": "METAR",
      "beg_time": "1695294607",
      "end_time": "1695301807",
      "wrap": "",
      "bbox": "-93.2717,44.8398,-93.1411,44.9201"
    }
  },
  { "type": "Feature",
    "id": "1324368899",
    "properties": {
      "data": "METAR",
      "id": "KMSP",
      "site": "Minneapolis-St Paul",
      "prior": 1,
      "obsTime": "2023-09-21T12:53:00Z",
      "temp": 17.8,
      "dewp": 15.0,
      "wspd": 6,
      "wdir": 120,
      "ceil": 150,
      "cover": "BKN",
      "cldCvg1": "FEW",
      "cldBas1": "120",
      "cldCvg2": "BKN",
      "cldBas2": "150",
      "cldCvg3": "BKN",
      "cldBas3": "250",
      "visib": 8.00,
      "fltcat": "VFR",
      "altim": 1021.4,
      "slp": 1020.9,
      "rawOb": "KMSP 211253Z 12006KT 8SM FEW120 BKN150 BKN250 18/15 A3016 RMK AO2 SLP209 ACC DSNT N T01780150"
    },
    "geometry": {
      "type": "Point",
      "coordinates": [-93.231,44.885]
    } 
  }]}
