{ "type": "FeatureCollection",
  "features": [
  { "type": "Feature",
    "properties": {
      "data": "METAR",
      "beg_time": "1695967807",
      "end_time": "1695975007",
      "wrap": "",
      "bbox": "-93.2717,44.8398,-93.1411,44.9201"
    }
  },
  { "type": "Feature",
    "id": "1409696940",
    "properties": {
      "data": "METAR",
      "id": "KMSP",
      "site": "Minneapolis-St Paul",
      "prior": 1,
      "obsTime": "2023-09-29T07:53:00Z",
      "temp": 16.7,
      "dewp": 13.9,
      "wspd": 12,
      "wdir": 130,
      "cover": "CLR",
      "cldCvg1": "CLR",
      "visib": 10.00,
      "fltcat": "VFR",
      "altim": 1015.0,
      "slp": 1014.5,
      "rawOb": "KMSP 290753Z 13012KT 10SM CLR 17/14 A2997 RMK AO2 SLP145 T01670139"
    },
    "geometry": {
      "type": "Point",
      "coordinates": [-93.231,44.885]
    } 
  }]}
