{ "type": "FeatureCollection",
  "features": [
  { "type": "Feature",
    "properties": {
      "data": "METAR",
      "beg_time": "1695053407",
      "end_time": "1695060607",
      "wrap": "",
      "bbox": "-93.2717,44.8398,-93.1411,44.9201"
    }
  },
  { "type": "Feature",
    "id": "1321585373",
    "properties": {
      "data": "METAR",
      "id": "KMSP",
      "site": "Minneapolis-St Paul",
      "prior": 1,
      "obsTime": "2023-09-18T17:53:00Z",
      "temp": 23.3,
      "dewp": 8.3,
      "wspd": 9,
      "wdir": 160,
      "cover": "SCT",
      "cldCvg1": "FEW",
      "cldBas1": "100",
      "cldCvg2": "SCT",
      "cldBas2": "250",
      "visib": 10.00,
      "fltcat": "VFR",
      "altim": 1014.6,
      "slp": 1014.1,
      "rawOb": "KMSP 181753Z 16009KT 10SM FEW100 SCT250 23/08 A2996 RMK AO2 SLP141 T02330083 10239 20122 58015"
    },
    "geometry": {
      "type": "Point",
      "coordinates": [-93.231,44.885]
    } 
  }]}
