{ "type": "FeatureCollection",
  "features": [
  { "type": "Feature",
    "properties": {
      "data": "METAR",
      "beg_time": "1695280207",
      "end_time": "1695287407",
      "wrap": "",
      "bbox": "-93.2717,44.8398,-93.1411,44.9201"
    }
  },
  { "type": "Feature",
    "id": "1324187705",
    "properties": {
      "data": "METAR",
      "id": "KMSP",
      "site": "Minneapolis-St Paul",
      "prior": 1,
      "obsTime": "2023-09-21T08:53:00Z",
      "temp": 18.9,
      "dewp": 14.4,
      "wspd": 4,
      "wdir": 140,
      "cover": "CLR",
      "cldCvg1": "CLR",
      "visib": 10.00,
      "fltcat": "VFR",
      "altim": 1019.0,
      "slp": 1018.5,
      "rawOb": "KMSP 210853Z 14004KT 10SM CLR 19/14 A3009 RMK AO2 SLP185 T01890144 52010"
    },
    "geometry": {
      "type": "Point",
      "coordinates": [-93.231,44.885]
    } 
  }]}
