{ "type": "FeatureCollection",
  "features": [
  { "type": "Feature",
    "properties": {
      "data": "METAR",
      "beg_time": "1692767407",
      "end_time": "1692774607",
      "wrap": "",
      "bbox": "-93.2717,44.8398,-93.1411,44.9201"
    }
  },
  { "type": "Feature",
    "id": "1371176688",
    "properties": {
      "data": "METAR",
      "id": "KMSP",
      "site": "Minneapolis-St Paul",
      "prior": 1,
      "obsTime": "2023-08-23T06:53:00Z",
      "temp": 30.0,
      "dewp": 25.6,
      "wspd": 11,
      "wdir": 230,
      "cover": "CLR",
      "cldCvg1": "CLR",
      "visib": 10.00,
      "fltcat": "VFR",
      "altim": 1012.6,
      "slp": 1011.6,
      "rawOb": "KMSP 230653Z 23011KT 10SM CLR 30/26 A2990 RMK AO2 PK WND 25026/0620 SLP116 T03000256"
    },
    "geometry": {
      "type": "Point",
      "coordinates": [-93.231,44.885]
    } 
  }]}
