{ "type": "FeatureCollection",
  "features": [
  { "type": "Feature",
    "properties": {
      "data": "METAR",
      "beg_time": "1693095007",
      "end_time": "1693102207",
      "wrap": "",
      "bbox": "-93.2717,44.8398,-93.1411,44.9201"
    }
  },
  { "type": "Feature",
    "id": "1375117182",
    "properties": {
      "data": "METAR",
      "id": "KMSP",
      "site": "Minneapolis-St Paul",
      "prior": 1,
      "obsTime": "2023-08-27T01:53:00Z",
      "temp": 18.3,
      "dewp": 11.7,
      "wspd": 8,
      "wgst": 19,
      "wdir": 40,
      "ceil": 34,
      "cover": "BKN",
      "cldCvg1": "BKN",
      "cldBas1": "34",
      "visib": 10.00,
      "fltcat": "VFR",
      "altim": 1022.1,
      "slp": 1021.8,
      "rawOb": "KMSP 270153Z 04008G19KT 10SM BKN034 18/12 A3018 RMK AO2 SLP218 T01830117"
    },
    "geometry": {
      "type": "Point",
      "coordinates": [-93.231,44.885]
    } 
  }]}
