{ "type": "FeatureCollection",
  "features": [
  { "type": "Feature",
    "properties": {
      "data": "METAR",
      "beg_time": "1695395407",
      "end_time": "1695402607",
      "wrap": "",
      "bbox": "-93.2717,44.8398,-93.1411,44.9201"
    }
  },
  { "type": "Feature",
    "id": "1325604219",
    "properties": {
      "data": "METAR",
      "id": "KMSP",
      "site": "Minneapolis-St Paul",
      "prior": 1,
      "obsTime": "2023-09-22T16:53:00Z",
      "temp": 21.1,
      "dewp": 14.4,
      "wspd": 9,
      "wdir": 90,
      "ceil": 250,
      "cover": "BKN",
      "cldCvg1": "FEW",
      "cldBas1": "22",
      "cldCvg2": "FEW",
      "cldBas2": "85",
      "cldCvg3": "BKN",
      "cldBas3": "250",
      "visib": 10.00,
      "fltcat": "VFR",
      "altim": 1019.0,
      "slp": 1018.6,
      "rawOb": "KMSP 221653Z 09009KT 10SM FEW022 FEW085 BKN250 21/14 A3009 RMK AO2 SLP186 T02110144"
    },
    "geometry": {
      "type": "Point",
      "coordinates": [-93.231,44.885]
    } 
  }]}
