{ "type": "FeatureCollection",
  "features": [
  { "type": "Feature",
    "properties": {
      "data": "METAR",
      "beg_time": "1693444207",
      "end_time": "1693451407",
      "wrap": "",
      "bbox": "-93.2717,44.8398,-93.1411,44.9201"
    }
  },
  { "type": "Feature",
    "id": "1379357252",
    "properties": {
      "data": "METAR",
      "id": "KMSP",
      "site": "Minneapolis-St Paul",
      "prior": 1,
      "obsTime": "2023-08-31T02:53:00Z",
      "temp": 21.1,
      "dewp": 13.3,
      "wspd": 8,
      "wdir": 130,
      "cover": "CLR",
      "cldCvg1": "CLR",
      "visib": 10.00,
      "fltcat": "VFR",
      "altim": 1017.4,
      "slp": 1016.9,
      "rawOb": "KMSP 310253Z 13008KT 10SM CLR 21/13 A3004 RMK AO2 SLP169 T02110133 53003"
    },
    "geometry": {
      "type": "Point",
      "coordinates": [-93.231,44.885]
    } 
  }]}
