{ "type": "FeatureCollection",
  "features": [
  { "type": "Feature",
    "properties": {
      "data": "METAR",
      "beg_time": "1695449406",
      "end_time": "1695456606",
      "wrap": "",
      "bbox": "-93.2717,44.8398,-93.1411,44.9201"
    }
  },
  { "type": "Feature",
    "id": "1326253215",
    "properties": {
      "data": "METAR",
      "id": "KMSP",
      "site": "Minneapolis-St Paul",
      "prior": 1,
      "obsTime": "2023-09-23T07:53:00Z",
      "temp": 19.4,
      "dewp": 17.2,
      "wspd": 9,
      "wdir": 110,
      "ceil": 11,
      "cover": "OVC",
      "cldCvg1": "BKN",
      "cldBas1": "11",
      "cldCvg2": "OVC",
      "cldBas2": "22",
      "visib": 10.00,
      "fltcat": "MVFR",
      "altim": 1015.7,
      "slp": 1015.0,
      "rawOb": "KMSP 230753Z 11009KT 10SM BKN011 OVC022 19/17 A2999 RMK AO2 SLP150 T01940172"
    },
    "geometry": {
      "type": "Point",
      "coordinates": [-93.231,44.885]
    } 
  }]}
