{ "type": "FeatureCollection",
  "features": [
  { "type": "Feature",
    "properties": {
      "data": "METAR",
      "beg_time": "1696709407",
      "end_time": "1696716607",
      "wrap": "",
      "bbox": "-93.2717,44.8398,-93.1411,44.9201"
    }
  },
  { "type": "Feature",
    "id": "1418883128",
    "properties": {
      "data": "METAR",
      "id": "KMSP",
      "site": "Minneapolis-St Paul",
      "prior": 1,
      "obsTime": "2023-10-07T21:53:00Z",
      "temp": 10.6,
      "dewp": 1.1,
      "wspd": 9,
      "wdir": 260,
      "ceil": 200,
      "cover": "BKN",
      "cldCvg1": "FEW",
      "cldBas1": "41",
      "cldCvg2": "SCT",
      "cldBas2": "100",
      "cldCvg3": "BKN",
      "cldBas3": "200",
      "cldCvg4": "BKN",
      "cldBas4": "250",
      "visib": 10.00,
      "fltcat": "VFR",
      "altim": 1020.7,
      "slp": 1021.1,
      "rawOb": "KMSP 072153Z 26009KT 10SM FEW041 SCT100 BKN200 BKN250 11/01 A3014 RMK AO2 SLP211 T01060011"
    },
    "geometry": {
      "type": "Point",
      "coordinates": [-93.231,44.885]
    } 
  }]}
