{ "type": "FeatureCollection",
  "features": [
  { "type": "Feature",
    "properties": {
      "data": "METAR",
      "beg_time": "1694380207",
      "end_time": "1694387407",
      "wrap": "",
      "bbox": "-93.2717,44.8398,-93.1411,44.9201"
    }
  },
  { "type": "Feature",
    "id": "1313329193",
    "properties": {
      "data": "METAR",
      "id": "KMSP",
      "site": "Minneapolis-St Paul",
      "prior": 1,
      "obsTime": "2023-09-10T22:53:00Z",
      "temp": 22.2,
      "dewp": 10.0,
      "wspd": 8,
      "wdir": 20,
      "ceil": 200,
      "cover": "OVC",
      "cldCvg1": "SCT",
      "cldBas1": "42",
      "cldCvg2": "BKN",
      "cldBas2": "200",
      "cldCvg3": "OVC",
      "cldBas3": "250",
      "visib": 10.00,
      "fltcat": "VFR",
      "altim": 1022.1,
      "slp": 1021.6,
      "rawOb": "KMSP 102253Z 02008KT 340V040 10SM SCT042 BKN200 OVC250 22/10 A3018 RMK AO2 SLP216 T02220100"
    },
    "geometry": {
      "type": "Point",
      "coordinates": [-93.231,44.885]
    } 
  }]}
