{ "type": "FeatureCollection",
  "features": [
  { "type": "Feature",
    "properties": {
      "data": "METAR",
      "beg_time": "1693203007",
      "end_time": "1693210207",
      "wrap": "",
      "bbox": "-93.2717,44.8398,-93.1411,44.9201"
    }
  },
  { "type": "Feature",
    "id": "1376411418",
    "properties": {
      "data": "METAR",
      "id": "KMSP",
      "site": "Minneapolis-St Paul",
      "prior": 1,
      "obsTime": "2023-08-28T07:53:00Z",
      "temp": 18.9,
      "dewp": 14.4,
      "wspd": 4,
      "wdir": 190,
      "cover": "CLR",
      "cldCvg1": "CLR",
      "visib": 10.00,
      "fltcat": "VFR",
      "altim": 1016.0,
      "slp": 1015.5,
      "rawOb": "KMSP 280753Z 19004KT 10SM CLR 19/14 A3000 RMK AO2 SLP155 T01890144"
    },
    "geometry": {
      "type": "Point",
      "coordinates": [-93.231,44.885]
    } 
  }]}
