{ "type": "FeatureCollection",
  "features": [
  { "type": "Feature",
    "properties": {
      "data": "METAR",
      "beg_time": "1694045407",
      "end_time": "1694052607",
      "wrap": "",
      "bbox": "-93.2717,44.8398,-93.1411,44.9201"
    }
  },
  { "type": "Feature",
    "id": "1309266205",
    "properties": {
      "data": "METAR",
      "id": "KMSP",
      "site": "Minneapolis-St Paul",
      "prior": 1,
      "obsTime": "2023-09-07T01:53:00Z",
      "temp": 16.7,
      "dewp": 11.7,
      "wspd": 10,
      "wdir": 360,
      "ceil": 22,
      "cover": "OVC",
      "cldCvg1": "BKN",
      "cldBas1": "22",
      "cldCvg2": "OVC",
      "cldBas2": "28",
      "visib": 10.00,
      "fltcat": "MVFR",
      "altim": 1016.0,
      "slp": 1015.8,
      "rawOb": "KMSP 070153Z 36010KT 10SM BKN022 OVC028 17/12 A3000 RMK AO2 SLP158 T01670117"
    },
    "geometry": {
      "type": "Point",
      "coordinates": [-93.231,44.885]
    } 
  }]}
