{ "type": "FeatureCollection",
  "features": [
  { "type": "Feature",
    "properties": {
      "data": "METAR",
      "beg_time": "1695305407",
      "end_time": "1695312607",
      "wrap": "",
      "bbox": "-93.2717,44.8398,-93.1411,44.9201"
    }
  },
  { "type": "Feature",
    "id": "1324504521",
    "properties": {
      "data": "METAR",
      "id": "KMSP",
      "site": "Minneapolis-St Paul",
      "prior": 1,
      "obsTime": "2023-09-21T15:53:00Z",
      "temp": 24.4,
      "dewp": 15.0,
      "wspd": 3,
      "wdir": 0,
      "cover": "SCT",
      "cldCvg1": "FEW",
      "cldBas1": "150",
      "cldCvg2": "SCT",
      "cldBas2": "250",
      "visib": 10.00,
      "fltcat": "VFR",
      "altim": 1022.1,
      "slp": 1021.5,
      "rawOb": "KMSP 211553Z VRB03KT 10SM FEW150 SCT250 24/15 A3018 RMK AO2 SLP215 T02440150"
    },
    "geometry": {
      "type": "Point",
      "coordinates": [-93.231,44.885]
    } 
  }]}
