{ "type": "FeatureCollection",
  "features": [
  { "type": "Feature",
    "properties": {
      "data": "METAR",
      "beg_time": "1697227807",
      "end_time": "1697235007",
      "wrap": "",
      "bbox": "-93.2717,44.8398,-93.1411,44.9201"
    }
  },
  { "type": "Feature",
    "id": "1425240346",
    "properties": {
      "data": "METAR",
      "id": "KMSP",
      "site": "Minneapolis-St Paul",
      "prior": 1,
      "obsTime": "2023-10-13T21:53:00Z",
      "temp": 9.4,
      "dewp": 7.2,
      "wspd": 15,
      "wgst": 26,
      "wdir": 60,
      "ceil": 13,
      "cover": "OVC",
      "cldCvg1": "OVC",
      "cldBas1": "13",
      "visib": 10.00,
      "fltcat": "MVFR",
      "altim": 1011.6,
      "slp": 1011.9,
      "wx": "-RA",
      "rawOb": "KMSP 132153Z 06015G26KT 10SM -RA OVC013 09/07 A2987 RMK AO2 PK WND 05029/2114 SLP119 P0005 T00940072"
    },
    "geometry": {
      "type": "Point",
      "coordinates": [-93.231,44.885]
    } 
  }]}
