{ "type": "FeatureCollection",
  "features": [
  { "type": "Feature",
    "properties": {
      "data": "METAR",
      "beg_time": "1693397407",
      "end_time": "1693404607",
      "wrap": "",
      "bbox": "-93.2717,44.8398,-93.1411,44.9201"
    }
  },
  { "type": "Feature",
    "id": "1378790052",
    "properties": {
      "data": "METAR",
      "id": "KMSP",
      "site": "Minneapolis-St Paul",
      "prior": 1,
      "obsTime": "2023-08-30T13:53:00Z",
      "temp": 17.2,
      "dewp": 11.1,
      "wspd": 8,
      "wdir": 130,
      "cover": "FEW",
      "cldCvg1": "FEW",
      "cldBas1": "50",
      "cldCvg2": "FEW",
      "cldBas2": "65",
      "visib": 10.00,
      "fltcat": "VFR",
      "altim": 1021.1,
      "slp": 1020.8,
      "rawOb": "KMSP 301353Z 13008KT 10SM FEW050 FEW065 17/11 A3015 RMK AO2 SLP208 T01720111"
    },
    "geometry": {
      "type": "Point",
      "coordinates": [-93.231,44.885]
    } 
  }]}
