{ "type": "FeatureCollection",
  "features": [
  { "type": "Feature",
    "properties": {
      "data": "METAR",
      "beg_time": "1695946207",
      "end_time": "1695953407",
      "wrap": "",
      "bbox": "-93.2717,44.8398,-93.1411,44.9201"
    }
  },
  { "type": "Feature",
    "id": "1409445710",
    "properties": {
      "data": "METAR",
      "id": "KMSP",
      "site": "Minneapolis-St Paul",
      "prior": 1,
      "obsTime": "2023-09-29T01:53:00Z",
      "temp": 18.3,
      "dewp": 14.4,
      "wspd": 12,
      "wdir": 140,
      "cover": "CLR",
      "cldCvg1": "CLR",
      "visib": 10.00,
      "fltcat": "VFR",
      "altim": 1015.7,
      "slp": 1015.2,
      "rawOb": "KMSP 290153Z 14012KT 10SM CLR 18/14 A2999 RMK AO2 SLP152 T01830144"
    },
    "geometry": {
      "type": "Point",
      "coordinates": [-93.231,44.885]
    } 
  }]}
