{ "type": "FeatureCollection",
  "features": [
  { "type": "Feature",
    "properties": {
      "data": "METAR",
      "beg_time": "1694020207",
      "end_time": "1694027407",
      "wrap": "",
      "bbox": "-93.2717,44.8398,-93.1411,44.9201"
    }
  },
  { "type": "Feature",
    "id": "1308967713",
    "properties": {
      "data": "METAR",
      "id": "KMSP",
      "site": "Minneapolis-St Paul",
      "prior": 1,
      "obsTime": "2023-09-06T18:53:00Z",
      "temp": 19.4,
      "dewp": 12.8,
      "wspd": 14,
      "wgst": 21,
      "wdir": 340,
      "ceil": 21,
      "cover": "OVC",
      "cldCvg1": "OVC",
      "cldBas1": "21",
      "visib": 10.00,
      "fltcat": "MVFR",
      "altim": 1013.3,
      "slp": 1013.0,
      "rawOb": "KMSP 061853Z 34014G21KT 10SM OVC021 19/13 A2992 RMK AO2 SLP130 T01940128"
    },
    "geometry": {
      "type": "Point",
      "coordinates": [-93.231,44.885]
    } 
  }]}
