{ "type": "FeatureCollection",
  "features": [
  { "type": "Feature",
    "properties": {
      "data": "METAR",
      "beg_time": "1693156207",
      "end_time": "1693163407",
      "wrap": "",
      "bbox": "-93.2717,44.8398,-93.1411,44.9201"
    }
  },
  { "type": "Feature",
    "id": "1375851696",
    "properties": {
      "data": "METAR",
      "id": "KMSP",
      "site": "Minneapolis-St Paul",
      "prior": 1,
      "obsTime": "2023-08-27T18:53:00Z",
      "temp": 23.3,
      "dewp": 12.2,
      "wspd": 7,
      "wdir": 150,
      "cover": "SCT",
      "cldCvg1": "SCT",
      "cldBas1": "39",
      "visib": 10.00,
      "fltcat": "VFR",
      "altim": 1018.7,
      "slp": 1018.5,
      "rawOb": "KMSP 271853Z 15007KT 10SM SCT039 23/12 A3008 RMK AO2 SLP185 T02330122"
    },
    "geometry": {
      "type": "Point",
      "coordinates": [-93.231,44.885]
    } 
  }]}
