{ "type": "FeatureCollection",
  "features": [
  { "type": "Feature",
    "properties": {
      "data": "METAR",
      "beg_time": "1696828206",
      "end_time": "1696835406",
      "wrap": "",
      "bbox": "-93.2717,44.8398,-93.1411,44.9201"
    }
  },
  { "type": "Feature",
    "id": "1420300260",
    "properties": {
      "data": "METAR",
      "id": "KMSP",
      "site": "Minneapolis-St Paul",
      "prior": 1,
      "obsTime": "2023-10-09T06:53:00Z",
      "temp": 7.2,
      "dewp": 1.7,
      "wspd": 6,
      "wdir": 350,
      "cover": "FEW",
      "cldCvg1": "FEW",
      "cldBas1": "80",
      "visib": 10.00,
      "fltcat": "VFR",
      "altim": 1014.6,
      "slp": 1014.8,
      "rawOb": "KMSP 090653Z 35006KT 10SM FEW080 07/02 A2996 RMK AO2 SLP148 T00720017"
    },
    "geometry": {
      "type": "Point",
      "coordinates": [-93.231,44.885]
    } 
  }]}
