{ "type": "FeatureCollection",
  "features": [
  { "type": "Feature",
    "properties": {
      "data": "METAR",
      "beg_time": "1694952606",
      "end_time": "1694959806",
      "wrap": "",
      "bbox": "-93.2717,44.8398,-93.1411,44.9201"
    }
  },
  { "type": "Feature",
    "id": "1320337669",
    "properties": {
      "data": "METAR",
      "id": "KMSP",
      "site": "Minneapolis-St Paul",
      "prior": 1,
      "obsTime": "2023-09-17T13:53:00Z",
      "temp": 13.3,
      "dewp": 11.1,
      "wspd": 5,
      "wdir": 40,
      "cover": "SCT",
      "cldCvg1": "SCT",
      "cldBas1": "2",
      "visib": 8.00,
      "fltcat": "VFR",
      "altim": 1020.1,
      "slp": 1020.0,
      "wx": "BCFG",
      "rawOb": "KMSP 171353Z 04005KT 8SM BCFG SCT002 13/11 A3012 RMK AO2 SLP200 BCFG NE-E T01330111 $"
    },
    "geometry": {
      "type": "Point",
      "coordinates": [-93.231,44.885]
    } 
  }]}
