{ "type": "FeatureCollection",
  "features": [
  { "type": "Feature",
    "properties": {
      "data": "METAR",
      "beg_time": "1697245802",
      "end_time": "1697253002",
      "wrap": "",
      "bbox": "-93.2717,44.8398,-93.1411,44.9201"
    }
  },
  { "type": "Feature",
    "id": "1425472658",
    "properties": {
      "data": "METAR",
      "id": "KMSP",
      "site": "Minneapolis-St Paul",
      "prior": 1,
      "obsTime": "2023-10-14T03:01:00Z",
      "temp": 8.9,
      "dewp": 6.7,
      "wspd": 15,
      "wgst": 25,
      "wdir": 50,
      "ceil": 14,
      "cover": "OVC",
      "cldCvg1": "OVC",
      "cldBas1": "14",
      "visib": 10.00,
      "fltcat": "MVFR",
      "altim": 1015.3,
      "wx": "-RA",
      "rawOb": "KMSP 140301Z 05015G25KT 10SM -RA OVC014 09/07 A2998 RMK AO2 P0000 T00890067"
    },
    "geometry": {
      "type": "Point",
      "coordinates": [-93.231,44.885]
    } 
  }]}
