{ "type": "FeatureCollection",
  "features": [
  { "type": "Feature",
    "properties": {
      "data": "METAR",
      "beg_time": "1693066202",
      "end_time": "1693073402",
      "wrap": "",
      "bbox": "-93.2717,44.8398,-93.1411,44.9201"
    }
  },
  { "type": "Feature",
    "id": "1374773948",
    "properties": {
      "data": "METAR",
      "id": "KMSP",
      "site": "Minneapolis-St Paul",
      "prior": 1,
      "obsTime": "2023-08-26T17:53:00Z",
      "temp": 21.7,
      "dewp": 12.8,
      "wspd": 13,
      "wgst": 22,
      "wdir": 20,
      "ceil": 32,
      "cover": "BKN",
      "cldCvg1": "BKN",
      "cldBas1": "32",
      "visib": 10.00,
      "fltcat": "VFR",
      "altim": 1022.4,
      "slp": 1022.0,
      "rawOb": "KMSP 261753Z 02013G22KT 10SM BKN032 22/13 A3019 RMK AO2 SLP220 T02170128 10228 20167 58004"
    },
    "geometry": {
      "type": "Point",
      "coordinates": [-93.231,44.885]
    } 
  }]}
