{ "type": "FeatureCollection",
  "features": [
  { "type": "Feature",
    "properties": {
      "data": "METAR",
      "beg_time": "1695204607",
      "end_time": "1695211807",
      "wrap": "",
      "bbox": "-93.2717,44.8398,-93.1411,44.9201"
    }
  },
  { "type": "Feature",
    "id": "1323267151",
    "properties": {
      "data": "METAR",
      "id": "KMSP",
      "site": "Minneapolis-St Paul",
      "prior": 1,
      "obsTime": "2023-09-20T11:53:00Z",
      "temp": 15.6,
      "dewp": 12.8,
      "wspd": 5,
      "wdir": 140,
      "cover": "FEW",
      "cldCvg1": "FEW",
      "cldBas1": "120",
      "cldCvg2": "FEW",
      "cldBas2": "250",
      "visib": 10.00,
      "fltcat": "VFR",
      "altim": 1013.3,
      "slp": 1012.9,
      "rawOb": "KMSP 201153Z 14005KT 10SM FEW120 FEW250 16/13 A2992 RMK AO2 SLP129 T01560128 10183 20156 51014"
    },
    "geometry": {
      "type": "Point",
      "coordinates": [-93.231,44.885]
    } 
  }]}
