{ "type": "FeatureCollection",
  "features": [
  { "type": "Feature",
    "properties": {
      "data": "METAR",
      "beg_time": "1694095807",
      "end_time": "1694103007",
      "wrap": "",
      "bbox": "-93.2717,44.8398,-93.1411,44.9201"
    }
  },
  { "type": "Feature",
    "id": "1309874399",
    "properties": {
      "data": "METAR",
      "id": "KMSP",
      "site": "Minneapolis-St Paul",
      "prior": 1,
      "obsTime": "2023-09-07T15:53:00Z",
      "temp": 15.6,
      "dewp": 10.0,
      "wspd": 8,
      "wdir": 40,
      "ceil": 23,
      "cover": "OVC",
      "cldCvg1": "OVC",
      "cldBas1": "23",
      "visib": 10.00,
      "fltcat": "MVFR",
      "altim": 1018.4,
      "slp": 1018.3,
      "rawOb": "KMSP 071553Z 04008KT 10SM OVC023 16/10 A3007 RMK AO2 SLP183 T01560100"
    },
    "geometry": {
      "type": "Point",
      "coordinates": [-93.231,44.885]
    } 
  }]}
