{ "type": "FeatureCollection",
  "features": [
  { "type": "Feature",
    "properties": {
      "data": "METAR",
      "beg_time": "1693851007",
      "end_time": "1693858207",
      "wrap": "",
      "bbox": "-93.2717,44.8398,-93.1411,44.9201"
    }
  },
  { "type": "Feature",
    "id": "1384205608",
    "properties": {
      "data": "METAR",
      "id": "KMSP",
      "site": "Minneapolis-St Paul",
      "prior": 1,
      "obsTime": "2023-09-04T19:53:00Z",
      "temp": 36.7,
      "dewp": 15.0,
      "wspd": 15,
      "wgst": 24,
      "wdir": 190,
      "cover": "CLR",
      "cldCvg1": "CLR",
      "visib": 10.00,
      "fltcat": "VFR",
      "altim": 1004.8,
      "slp": 1003.7,
      "rawOb": "KMSP 041953Z 19015G24KT 10SM CLR 37/15 A2967 RMK AO2 PK WND 22031/1921 SLP037 T03670150"
    },
    "geometry": {
      "type": "Point",
      "coordinates": [-93.231,44.885]
    } 
  }]}
