{ "type": "FeatureCollection",
  "features": [
  { "type": "Feature",
    "properties": {
      "data": "METAR",
      "beg_time": "1695957007",
      "end_time": "1695964207",
      "wrap": "",
      "bbox": "-93.2717,44.8398,-93.1411,44.9201"
    }
  },
  { "type": "Feature",
    "id": "1409581674",
    "properties": {
      "data": "METAR",
      "id": "KMSP",
      "site": "Minneapolis-St Paul",
      "prior": 1,
      "obsTime": "2023-09-29T04:53:00Z",
      "temp": 16.7,
      "dewp": 13.9,
      "wspd": 11,
      "wdir": 140,
      "cover": "CLR",
      "cldCvg1": "CLR",
      "visib": 10.00,
      "fltcat": "VFR",
      "altim": 1016.3,
      "slp": 1015.9,
      "rawOb": "KMSP 290453Z 14011KT 10SM CLR 17/14 A3001 RMK AO2 SLP159 T01670139"
    },
    "geometry": {
      "type": "Point",
      "coordinates": [-93.231,44.885]
    } 
  }]}
