{ "type": "FeatureCollection",
  "features": [
  { "type": "Feature",
    "properties": {
      "data": "METAR",
      "beg_time": "1696270207",
      "end_time": "1696277407",
      "wrap": "",
      "bbox": "-93.2717,44.8398,-93.1411,44.9201"
    }
  },
  { "type": "Feature",
    "id": "1413422820",
    "properties": {
      "data": "METAR",
      "id": "KMSP",
      "site": "Minneapolis-St Paul",
      "prior": 1,
      "obsTime": "2023-10-02T19:53:00Z",
      "temp": 31.7,
      "dewp": 12.8,
      "wspd": 14,
      "wgst": 23,
      "wdir": 200,
      "cover": "FEW",
      "cldCvg1": "FEW",
      "cldBas1": "250",
      "visib": 10.00,
      "fltcat": "VFR",
      "altim": 1015.7,
      "slp": 1014.7,
      "rawOb": "KMSP 021953Z 20014G23KT 10SM FEW250 32/13 A2999 RMK AO2 SLP147 T03170128"
    },
    "geometry": {
      "type": "Point",
      "coordinates": [-93.231,44.885]
    } 
  }]}
