{ "type": "FeatureCollection",
  "features": [
  { "type": "Feature",
    "properties": {
      "data": "METAR",
      "beg_time": "1694405408",
      "end_time": "1694412608",
      "wrap": "",
      "bbox": "-93.2717,44.8398,-93.1411,44.9201"
    }
  },
  { "type": "Feature",
    "id": "1313636171",
    "properties": {
      "data": "METAR",
      "id": "KMSP",
      "site": "Minneapolis-St Paul",
      "prior": 1,
      "obsTime": "2023-09-11T05:53:00Z",
      "temp": 14.4,
      "dewp": 10.6,
      "wspd": 5,
      "wdir": 350,
      "cover": "CLR",
      "cldCvg1": "CLR",
      "visib": 10.00,
      "fltcat": "VFR",
      "altim": 1022.8,
      "slp": 1022.4,
      "rawOb": "KMSP 110553Z 35005KT 10SM CLR 14/11 A3020 RMK AO2 SLP224 T01440106 10217 20144 402280144 58000"
    },
    "geometry": {
      "type": "Point",
      "coordinates": [-93.231,44.885]
    } 
  }]}
