{ "type": "FeatureCollection",
  "features": [
  { "type": "Feature",
    "properties": {
      "data": "METAR",
      "beg_time": "1695892206",
      "end_time": "1695899406",
      "wrap": "",
      "bbox": "-93.2717,44.8398,-93.1411,44.9201"
    }
  },
  { "type": "Feature",
    "id": "1408798038",
    "properties": {
      "data": "METAR",
      "id": "KMSP",
      "site": "Minneapolis-St Paul",
      "prior": 1,
      "obsTime": "2023-09-28T10:53:00Z",
      "temp": 17.2,
      "dewp": 15.0,
      "wspd": 8,
      "wdir": 120,
      "ceil": 11,
      "cover": "OVC",
      "cldCvg1": "OVC",
      "cldBas1": "11",
      "visib": 10.00,
      "fltcat": "MVFR",
      "altim": 1019.4,
      "slp": 1019.0,
      "rawOb": "KMSP 281053Z 12008KT 10SM OVC011 17/15 A3010 RMK AO2 SLP190 T01720150 /"
    },
    "geometry": {
      "type": "Point",
      "coordinates": [-93.231,44.885]
    } 
  }]}
