{ "type": "FeatureCollection",
  "features": [
  { "type": "Feature",
    "properties": {
      "data": "METAR",
      "beg_time": "1695319807",
      "end_time": "1695327007",
      "wrap": "",
      "bbox": "-93.2717,44.8398,-93.1411,44.9201"
    }
  },
  { "type": "Feature",
    "id": "1324675651",
    "properties": {
      "data": "METAR",
      "id": "KMSP",
      "site": "Minneapolis-St Paul",
      "prior": 1,
      "obsTime": "2023-09-21T19:53:00Z",
      "temp": 28.3,
      "dewp": 12.2,
      "wspd": 7,
      "wdir": 140,
      "ceil": 250,
      "cover": "BKN",
      "cldCvg1": "FEW",
      "cldBas1": "60",
      "cldCvg2": "BKN",
      "cldBas2": "250",
      "visib": 10.00,
      "fltcat": "VFR",
      "altim": 1020.7,
      "slp": 1020.2,
      "rawOb": "KMSP 211953Z 14007KT 10SM FEW060 BKN250 28/12 A3014 RMK AO2 SLP202 T02830122"
    },
    "geometry": {
      "type": "Point",
      "coordinates": [-93.231,44.885]
    } 
  }]}
