{ "type": "FeatureCollection",
  "features": [
  { "type": "Feature",
    "properties": {
      "data": "METAR",
      "beg_time": "1694092207",
      "end_time": "1694099407",
      "wrap": "",
      "bbox": "-93.2717,44.8398,-93.1411,44.9201"
    }
  },
  { "type": "Feature",
    "id": "1309832277",
    "properties": {
      "data": "METAR",
      "id": "KMSP",
      "site": "Minneapolis-St Paul",
      "prior": 1,
      "obsTime": "2023-09-07T14:53:00Z",
      "temp": 15.6,
      "dewp": 10.6,
      "wspd": 6,
      "wdir": 20,
      "ceil": 20,
      "cover": "OVC",
      "cldCvg1": "BKN",
      "cldBas1": "20",
      "cldCvg2": "OVC",
      "cldBas2": "26",
      "visib": 10.00,
      "fltcat": "MVFR",
      "altim": 1018.0,
      "slp": 1017.9,
      "rawOb": "KMSP 071453Z 02006KT 10SM BKN020 OVC026 16/11 A3006 RMK AO2 SLP179 T01560106 51005"
    },
    "geometry": {
      "type": "Point",
      "coordinates": [-93.231,44.885]
    } 
  }]}
