{ "type": "FeatureCollection",
  "features": [
  { "type": "Feature",
    "properties": {
      "data": "METAR",
      "beg_time": "1695845407",
      "end_time": "1695852607",
      "wrap": "",
      "bbox": "-93.2717,44.8398,-93.1411,44.9201"
    }
  },
  { "type": "Feature",
    "id": "1408221732",
    "properties": {
      "data": "METAR",
      "id": "KMSP",
      "site": "Minneapolis-St Paul",
      "prior": 1,
      "obsTime": "2023-09-27T21:53:00Z",
      "temp": 22.2,
      "dewp": 14.4,
      "wspd": 8,
      "wgst": 22,
      "wdir": 110,
      "ceil": 50,
      "cover": "BKN",
      "cldCvg1": "FEW",
      "cldBas1": "35",
      "cldCvg2": "BKN",
      "cldBas2": "50",
      "cldCvg3": "BKN",
      "cldBas3": "75",
      "visib": 10.00,
      "fltcat": "VFR",
      "altim": 1018.0,
      "slp": 1017.8,
      "rawOb": "KMSP 272153Z 11008G22KT 10SM FEW035 BKN050 BKN075 22/14 A3006 RMK AO2 SLP178 PRESENT WX VCSH T02220144"
    },
    "geometry": {
      "type": "Point",
      "coordinates": [-93.231,44.885]
    } 
  }]}
