{ "type": "FeatureCollection",
  "features": [
  { "type": "Feature",
    "properties": {
      "data": "METAR",
      "beg_time": "1697325007",
      "end_time": "1697332207",
      "wrap": "",
      "bbox": "-93.2717,44.8398,-93.1411,44.9201"
    }
  },
  { "type": "Feature",
    "id": "1349335239",
    "properties": {
      "data": "METAR",
      "id": "KMSP",
      "site": "Minneapolis-St Paul",
      "prior": 1,
      "obsTime": "2023-10-15T00:53:00Z",
      "temp": 10.0,
      "dewp": 5.6,
      "wspd": 9,
      "wdir": 350,
      "ceil": 45,
      "cover": "OVC",
      "cldCvg1": "BKN",
      "cldBas1": "45",
      "cldCvg2": "OVC",
      "cldBas2": "55",
      "visib": 10.00,
      "fltcat": "VFR",
      "altim": 1024.8,
      "slp": 1025.0,
      "rawOb": "KMSP 150053Z 35009KT 10SM BKN045 OVC055 10/06 A3026 RMK AO2 SLP250 T01000056"
    },
    "geometry": {
      "type": "Point",
      "coordinates": [-93.231,44.885]
    } 
  }]}
