{ "type": "FeatureCollection",
  "features": [
  { "type": "Feature",
    "properties": {
      "data": "METAR",
      "beg_time": "1693433407",
      "end_time": "1693440607",
      "wrap": "",
      "bbox": "-93.2717,44.8398,-93.1411,44.9201"
    }
  },
  { "type": "Feature",
    "id": "1379229380",
    "properties": {
      "data": "METAR",
      "id": "KMSP",
      "site": "Minneapolis-St Paul",
      "prior": 1,
      "obsTime": "2023-08-30T23:53:00Z",
      "temp": 25.0,
      "dewp": 12.8,
      "wspd": 10,
      "wdir": 140,
      "cover": "CLR",
      "cldCvg1": "CLR",
      "visib": 10.00,
      "fltcat": "VFR",
      "altim": 1017.0,
      "slp": 1016.6,
      "rawOb": "KMSP 302353Z 14010KT 10SM CLR 25/13 A3003 RMK AO2 SLP166 T02500128 10267 20233 56012"
    },
    "geometry": {
      "type": "Point",
      "coordinates": [-93.231,44.885]
    } 
  }]}
