{ "type": "FeatureCollection",
  "features": [
  { "type": "Feature",
    "properties": {
      "data": "METAR",
      "beg_time": "1694074207",
      "end_time": "1694081407",
      "wrap": "",
      "bbox": "-93.2717,44.8398,-93.1411,44.9201"
    }
  },
  { "type": "Feature",
    "id": "1309612849",
    "properties": {
      "data": "METAR",
      "id": "KMSP",
      "site": "Minneapolis-St Paul",
      "prior": 1,
      "obsTime": "2023-09-07T09:53:00Z",
      "temp": 15.0,
      "dewp": 11.1,
      "wspd": 9,
      "wdir": 20,
      "ceil": 32,
      "cover": "OVC",
      "cldCvg1": "FEW",
      "cldBas1": "21",
      "cldCvg2": "OVC",
      "cldBas2": "32",
      "visib": 10.00,
      "fltcat": "VFR",
      "altim": 1017.4,
      "slp": 1017.1,
      "rawOb": "KMSP 070953Z 02009KT 10SM FEW021 OVC032 15/11 A3004 RMK AO2 SLP171 T01500111"
    },
    "geometry": {
      "type": "Point",
      "coordinates": [-93.231,44.885]
    } 
  }]}
