{ "type": "FeatureCollection",
  "features": [
  { "type": "Feature",
    "properties": {
      "data": "METAR",
      "beg_time": "1692731404",
      "end_time": "1692738604",
      "wrap": "",
      "bbox": "-93.2717,44.8398,-93.1411,44.9201"
    }
  },
  { "type": "Feature",
    "id": "1370752780",
    "properties": {
      "data": "METAR",
      "id": "KMSP",
      "site": "Minneapolis-St Paul",
      "prior": 1,
      "obsTime": "2023-08-22T20:53:00Z",
      "temp": 36.7,
      "dewp": 24.4,
      "wspd": 11,
      "wgst": 20,
      "wdir": 230,
      "cover": "CLR",
      "cldCvg1": "CLR",
      "visib": 10.00,
      "fltcat": "VFR",
      "altim": 1013.3,
      "slp": 1012.4,
      "rawOb": "KMSP 222053Z 23011G20KT 10SM CLR 37/24 A2992 RMK AO2 SLP124 T03670244 56019"
    },
    "geometry": {
      "type": "Point",
      "coordinates": [-93.231,44.885]
    } 
  }]}
