{ "type": "FeatureCollection",
  "features": [
  { "type": "Feature",
    "properties": {
      "data": "METAR",
      "beg_time": "1692756606",
      "end_time": "1692763806",
      "wrap": "",
      "bbox": "-93.2717,44.8398,-93.1411,44.9201"
    }
  },
  { "type": "Feature",
    "id": "1371048656",
    "properties": {
      "data": "METAR",
      "id": "KMSP",
      "site": "Minneapolis-St Paul",
      "prior": 1,
      "obsTime": "2023-08-23T03:53:00Z",
      "temp": 31.7,
      "dewp": 25.0,
      "wspd": 15,
      "wgst": 23,
      "wdir": 220,
      "cover": "CLR",
      "cldCvg1": "CLR",
      "visib": 10.00,
      "fltcat": "VFR",
      "altim": 1012.6,
      "slp": 1011.7,
      "rawOb": "KMSP 230353Z 22015G23KT 10SM CLR 32/25 A2990 RMK AO2 SLP117 T03170250"
    },
    "geometry": {
      "type": "Point",
      "coordinates": [-93.231,44.885]
    } 
  }]}
