{ "type": "FeatureCollection",
  "features": [
  { "type": "Feature",
    "properties": {
      "data": "METAR",
      "beg_time": "1697058607",
      "end_time": "1697065807",
      "wrap": "",
      "bbox": "-93.2717,44.8398,-93.1411,44.9201"
    }
  },
  { "type": "Feature",
    "id": "1423109698",
    "properties": {
      "data": "METAR",
      "id": "KMSP",
      "site": "Minneapolis-St Paul",
      "prior": 1,
      "obsTime": "2023-10-11T22:53:00Z",
      "temp": 15.6,
      "dewp": 5.0,
      "wspd": 9,
      "wdir": 80,
      "cover": "FEW",
      "cldCvg1": "FEW",
      "cldBas1": "40",
      "cldCvg2": "FEW",
      "cldBas2": "250",
      "visib": 10.00,
      "fltcat": "VFR",
      "altim": 1007.9,
      "slp": 1007.9,
      "rawOb": "KMSP 112253Z 08009KT 10SM FEW040 FEW250 16/05 A2976 RMK AO2 PK WND 10027/2216 SLP079 T01560050"
    },
    "geometry": {
      "type": "Point",
      "coordinates": [-93.231,44.885]
    } 
  }]}
