{ "type": "FeatureCollection",
  "features": [
  { "type": "Feature",
    "properties": {
      "data": "METAR",
      "beg_time": "1693591807",
      "end_time": "1693599007",
      "wrap": "",
      "bbox": "-93.2717,44.8398,-93.1411,44.9201"
    }
  },
  { "type": "Feature",
    "id": "1381129658",
    "properties": {
      "data": "METAR",
      "id": "KMSP",
      "site": "Minneapolis-St Paul",
      "prior": 1,
      "obsTime": "2023-09-01T19:53:00Z",
      "temp": 31.7,
      "dewp": 15.6,
      "wspd": 12,
      "wgst": 21,
      "wdir": 220,
      "cover": "FEW",
      "cldCvg1": "FEW",
      "cldBas1": "250",
      "visib": 10.00,
      "fltcat": "VFR",
      "altim": 1014.3,
      "slp": 1013.6,
      "rawOb": "KMSP 011953Z 22012G21KT 10SM FEW250 32/16 A2995 RMK AO2 PK WND 24026/1855 SLP136 T03170156"
    },
    "geometry": {
      "type": "Point",
      "coordinates": [-93.231,44.885]
    } 
  }]}
