{ "type": "FeatureCollection",
  "features": [
  { "type": "Feature",
    "properties": {
      "data": "METAR",
      "beg_time": "1692997807",
      "end_time": "1693005007",
      "wrap": "",
      "bbox": "-93.2717,44.8398,-93.1411,44.9201"
    }
  },
  { "type": "Feature",
    "id": "1373941112",
    "properties": {
      "data": "METAR",
      "id": "KMSP",
      "site": "Minneapolis-St Paul",
      "prior": 1,
      "obsTime": "2023-08-25T22:53:00Z",
      "temp": 30.6,
      "dewp": 18.3,
      "wspd": 9,
      "wdir": 330,
      "cover": "FEW",
      "cldCvg1": "FEW",
      "cldBas1": "70",
      "visib": 10.00,
      "fltcat": "VFR",
      "altim": 1014.6,
      "slp": 1014.0,
      "rawOb": "KMSP 252253Z 33009KT 10SM FEW070 31/18 A2996 RMK AO2 SLP140 T03060183"
    },
    "geometry": {
      "type": "Point",
      "coordinates": [-93.231,44.885]
    } 
  }]}
