{ "type": "FeatureCollection",
  "features": [
  { "type": "Feature",
    "properties": {
      "data": "METAR",
      "beg_time": "1696965007",
      "end_time": "1696972207",
      "wrap": "",
      "bbox": "-93.2717,44.8398,-93.1411,44.9201"
    }
  },
  { "type": "Feature",
    "id": "1421955432",
    "properties": {
      "data": "METAR",
      "id": "KMSP",
      "site": "Minneapolis-St Paul",
      "prior": 1,
      "obsTime": "2023-10-10T20:53:00Z",
      "temp": 14.4,
      "dewp": -1.7,
      "wspd": 4,
      "wdir": 300,
      "cover": "FEW",
      "cldCvg1": "FEW",
      "cldBas1": "100",
      "visib": 10.00,
      "fltcat": "VFR",
      "altim": 1008.9,
      "slp": 1009.0,
      "rawOb": "KMSP 102053Z 30004KT 10SM FEW100 14/M02 A2979 RMK AO2 SLP090 T01441017 56016"
    },
    "geometry": {
      "type": "Point",
      "coordinates": [-93.231,44.885]
    } 
  }]}
