{ "type": "FeatureCollection",
  "features": [
  { "type": "Feature",
    "properties": {
      "data": "METAR",
      "beg_time": "1697094607",
      "end_time": "1697101807",
      "wrap": "",
      "bbox": "-93.2717,44.8398,-93.1411,44.9201"
    }
  },
  { "type": "Feature",
    "id": "1423560128",
    "properties": {
      "data": "METAR",
      "id": "KMSP",
      "site": "Minneapolis-St Paul",
      "prior": 1,
      "obsTime": "2023-10-12T08:53:00Z",
      "temp": 8.3,
      "dewp": 2.8,
      "wspd": 10,
      "wdir": 80,
      "cover": "CLR",
      "cldCvg1": "CLR",
      "visib": 10.00,
      "fltcat": "VFR",
      "altim": 1010.2,
      "slp": 1010.4,
      "rawOb": "KMSP 120853Z 08010KT 10SM CLR 08/03 A2983 RMK AO2 SLP104 T00830028 58001"
    },
    "geometry": {
      "type": "Point",
      "coordinates": [-93.231,44.885]
    } 
  }]}
