{ "type": "FeatureCollection",
  "features": [
  { "type": "Feature",
    "properties": {
      "data": "METAR",
      "beg_time": "1695420607",
      "end_time": "1695427807",
      "wrap": "",
      "bbox": "-93.2717,44.8398,-93.1411,44.9201"
    }
  },
  { "type": "Feature",
    "id": "1325903737",
    "properties": {
      "data": "METAR",
      "id": "KMSP",
      "site": "Minneapolis-St Paul",
      "prior": 1,
      "obsTime": "2023-09-22T23:53:00Z",
      "temp": 22.2,
      "dewp": 15.6,
      "wspd": 10,
      "wdir": 110,
      "ceil": 70,
      "cover": "OVC",
      "cldCvg1": "SCT",
      "cldBas1": "32",
      "cldCvg2": "OVC",
      "cldBas2": "70",
      "visib": 10.00,
      "fltcat": "VFR",
      "altim": 1016.3,
      "slp": 1016.1,
      "rawOb": "KMSP 222353Z 11010KT 10SM SCT032 OVC070 22/16 A3001 RMK AO2 SLP161 T02220156 10244 20222 57007"
    },
    "geometry": {
      "type": "Point",
      "coordinates": [-93.231,44.885]
    } 
  }]}
