{ "type": "FeatureCollection",
  "features": [
  { "type": "Feature",
    "properties": {
      "data": "METAR",
      "beg_time": "1696248607",
      "end_time": "1696255807",
      "wrap": "",
      "bbox": "-93.2717,44.8398,-93.1411,44.9201"
    }
  },
  { "type": "Feature",
    "id": "1413161986",
    "properties": {
      "data": "METAR",
      "id": "KMSP",
      "site": "Minneapolis-St Paul",
      "prior": 1,
      "obsTime": "2023-10-02T13:53:00Z",
      "temp": 21.1,
      "dewp": 13.9,
      "wspd": 5,
      "wdir": 130,
      "cover": "FEW",
      "cldCvg1": "FEW",
      "cldBas1": "250",
      "visib": 10.00,
      "fltcat": "VFR",
      "altim": 1018.4,
      "slp": 1017.8,
      "rawOb": "KMSP 021353Z 13005KT 10SM FEW250 21/14 A3007 RMK AO2 SLP178 CB DSNT NW MOV NE TCU DSNT W T02110139"
    },
    "geometry": {
      "type": "Point",
      "coordinates": [-93.231,44.885]
    } 
  }]}
