{ "type": "FeatureCollection",
  "features": [
  { "type": "Feature",
    "properties": {
      "data": "METAR",
      "beg_time": "1692857407",
      "end_time": "1692864607",
      "wrap": "",
      "bbox": "-93.2717,44.8398,-93.1411,44.9201"
    }
  },
  { "type": "Feature",
    "id": "1372246446",
    "properties": {
      "data": "METAR",
      "id": "KMSP",
      "site": "Minneapolis-St Paul",
      "prior": 1,
      "obsTime": "2023-08-24T07:53:00Z",
      "temp": 25.6,
      "dewp": 22.8,
      "wspd": 4,
      "wdir": 10,
      "cover": "CLR",
      "cldCvg1": "CLR",
      "visib": 9.00,
      "fltcat": "VFR",
      "altim": 1008.9,
      "slp": 1007.9,
      "rawOb": "KMSP 240753Z 01004KT 9SM CLR 26/23 A2979 RMK AO2 SLP079 T02560228"
    },
    "geometry": {
      "type": "Point",
      "coordinates": [-93.231,44.885]
    } 
  }]}
