{ "type": "FeatureCollection",
  "features": [
  { "type": "Feature",
    "properties": {
      "data": "METAR",
      "beg_time": "1697433006",
      "end_time": "1697440206",
      "wrap": "",
      "bbox": "-93.2717,44.8398,-93.1411,44.9201"
    }
  },
  { "type": "Feature",
    "id": "1350639873",
    "properties": {
      "data": "METAR",
      "id": "KMSP",
      "site": "Minneapolis-St Paul",
      "prior": 1,
      "obsTime": "2023-10-16T06:53:00Z",
      "temp": 7.2,
      "dewp": 4.4,
      "wspd": 5,
      "wdir": 350,
      "cover": "CLR",
      "cldCvg1": "CLR",
      "visib": 10.00,
      "fltcat": "VFR",
      "altim": 1022.8,
      "slp": 1023.3,
      "rawOb": "KMSP 160653Z 35005KT 10SM CLR 07/04 A3020 RMK AO2 SLP233 T00720044"
    },
    "geometry": {
      "type": "Point",
      "coordinates": [-93.231,44.885]
    } 
  }]}
