{ "type": "FeatureCollection",
  "features": [
  { "type": "Feature",
    "properties": {
      "data": "METAR",
      "beg_time": "1693959007",
      "end_time": "1693966207",
      "wrap": "",
      "bbox": "-93.2717,44.8398,-93.1411,44.9201"
    }
  },
  { "type": "Feature",
    "id": "1385470866",
    "properties": {
      "data": "METAR",
      "id": "KMSP",
      "site": "Minneapolis-St Paul",
      "prior": 1,
      "obsTime": "2023-09-06T01:53:00Z",
      "temp": 27.2,
      "dewp": 19.4,
      "wspd": 10,
      "wdir": 300,
      "cover": "SCT",
      "cldCvg1": "SCT",
      "cldBas1": "100",
      "visib": 10.00,
      "fltcat": "VFR",
      "altim": 1004.1,
      "slp": 1003.3,
      "rawOb": "KMSP 060153Z 30010KT 10SM SCT100 27/19 A2965 RMK AO2 SLP033 T02720194"
    },
    "geometry": {
      "type": "Point",
      "coordinates": [-93.231,44.885]
    } 
  }]}
