{ "type": "FeatureCollection",
  "features": [
  { "type": "Feature",
    "properties": {
      "data": "METAR",
      "beg_time": "1693325407",
      "end_time": "1693332607",
      "wrap": "",
      "bbox": "-93.2717,44.8398,-93.1411,44.9201"
    }
  },
  { "type": "Feature",
    "id": "1377891424",
    "properties": {
      "data": "METAR",
      "id": "KMSP",
      "site": "Minneapolis-St Paul",
      "prior": 1,
      "obsTime": "2023-08-29T17:53:00Z",
      "temp": 26.7,
      "dewp": 12.8,
      "wspd": 12,
      "wdir": 340,
      "cover": "FEW",
      "cldCvg1": "FEW",
      "cldBas1": "50",
      "visib": 7.00,
      "fltcat": "VFR",
      "altim": 1015.7,
      "slp": 1015.2,
      "rawOb": "KMSP 291753Z 34012KT 7SM FEW050 27/13 A2999 RMK AO2 SLP152 T02670128 10272 20178 50000"
    },
    "geometry": {
      "type": "Point",
      "coordinates": [-93.231,44.885]
    } 
  }]}
