{ "type": "FeatureCollection",
  "features": [
  { "type": "Feature",
    "properties": {
      "data": "METAR",
      "beg_time": "1697382607",
      "end_time": "1697389807",
      "wrap": "",
      "bbox": "-93.2717,44.8398,-93.1411,44.9201"
    }
  },
  { "type": "Feature",
    "id": "1350036803",
    "properties": {
      "data": "METAR",
      "id": "KMSP",
      "site": "Minneapolis-St Paul",
      "prior": 1,
      "obsTime": "2023-10-15T16:53:00Z",
      "temp": 8.9,
      "dewp": 3.9,
      "wspd": 11,
      "wdir": 350,
      "ceil": 26,
      "cover": "BKN",
      "cldCvg1": "SCT",
      "cldBas1": "21",
      "cldCvg2": "BKN",
      "cldBas2": "26",
      "visib": 10.00,
      "fltcat": "MVFR",
      "altim": 1025.8,
      "slp": 1026.0,
      "rawOb": "KMSP 151653Z 35011KT 10SM SCT021 BKN026 09/04 A3029 RMK AO2 SLP260 T00890039"
    },
    "geometry": {
      "type": "Point",
      "coordinates": [-93.231,44.885]
    } 
  }]}
