{ "type": "FeatureCollection",
  "features": [
  { "type": "Feature",
    "properties": {
      "data": "METAR",
      "beg_time": "1694977807",
      "end_time": "1694985007",
      "wrap": "",
      "bbox": "-93.2717,44.8398,-93.1411,44.9201"
    }
  },
  { "type": "Feature",
    "id": "1320643821",
    "properties": {
      "data": "METAR",
      "id": "KMSP",
      "site": "Minneapolis-St Paul",
      "prior": 1,
      "obsTime": "2023-09-17T20:53:00Z",
      "temp": 21.1,
      "dewp": 7.8,
      "wspd": 0,
      "wdir": 0,
      "ceil": 60,
      "cover": "BKN",
      "cldCvg1": "BKN",
      "cldBas1": "60",
      "visib": 10.00,
      "fltcat": "VFR",
      "altim": 1018.0,
      "slp": 1018.0,
      "rawOb": "KMSP 172053Z 00000KT 10SM BKN060 21/08 A3006 RMK AO2 SLP180 T02110078 58014 $"
    },
    "geometry": {
      "type": "Point",
      "coordinates": [-93.231,44.885]
    } 
  }]}
