{ "type": "FeatureCollection",
  "features": [
  { "type": "Feature",
    "properties": {
      "data": "METAR",
      "beg_time": "1693656606",
      "end_time": "1693663806",
      "wrap": "",
      "bbox": "-93.2717,44.8398,-93.1411,44.9201"
    }
  },
  { "type": "Feature",
    "id": "1381902948",
    "properties": {
      "data": "METAR",
      "id": "KMSP",
      "site": "Minneapolis-St Paul",
      "prior": 1,
      "obsTime": "2023-09-02T13:53:00Z",
      "temp": 23.3,
      "dewp": 13.9,
      "wspd": 10,
      "wgst": 17,
      "wdir": 210,
      "cover": "SCT",
      "cldCvg1": "SCT",
      "cldBas1": "250",
      "visib": 10.00,
      "fltcat": "VFR",
      "altim": 1013.3,
      "slp": 1012.7,
      "rawOb": "KMSP 021353Z 21010G17KT 10SM SCT250 23/14 A2992 RMK AO2 SLP127 CB DSNT N MOV E T02330139"
    },
    "geometry": {
      "type": "Point",
      "coordinates": [-93.231,44.885]
    } 
  }]}
