{ "type": "FeatureCollection",
  "features": [
  { "type": "Feature",
    "properties": {
      "data": "METAR",
      "beg_time": "1697022606",
      "end_time": "1697029806",
      "wrap": "",
      "bbox": "-93.2717,44.8398,-93.1411,44.9201"
    }
  },
  { "type": "Feature",
    "id": "1422668910",
    "properties": {
      "data": "METAR",
      "id": "KMSP",
      "site": "Minneapolis-St Paul",
      "prior": 1,
      "obsTime": "2023-10-11T12:53:00Z",
      "temp": 5.0,
      "dewp": 2.8,
      "wspd": 3,
      "wdir": 160,
      "cover": "CLR",
      "cldCvg1": "CLR",
      "visib": 10.00,
      "fltcat": "VFR",
      "altim": 1009.9,
      "slp": 1010.3,
      "wx": "BCFG",
      "rawOb": "KMSP 111253Z 16003KT 10SM BCFG CLR 05/03 A2982 RMK AO2 SLP103 BCFG E-SE T00500028"
    },
    "geometry": {
      "type": "Point",
      "coordinates": [-93.231,44.885]
    } 
  }]}
