{ "type": "FeatureCollection",
  "features": [
  { "type": "Feature",
    "properties": {
      "data": "METAR",
      "beg_time": "1696097407",
      "end_time": "1696104607",
      "wrap": "",
      "bbox": "-93.2717,44.8398,-93.1411,44.9201"
    }
  },
  { "type": "Feature",
    "id": "1411301650",
    "properties": {
      "data": "METAR",
      "id": "KMSP",
      "site": "Minneapolis-St Paul",
      "prior": 1,
      "obsTime": "2023-09-30T19:53:00Z",
      "temp": 29.4,
      "dewp": 18.3,
      "wspd": 10,
      "wdir": 190,
      "cover": "SCT",
      "cldCvg1": "FEW",
      "cldBas1": "65",
      "cldCvg2": "FEW",
      "cldBas2": "150",
      "cldCvg3": "SCT",
      "cldBas3": "250",
      "visib": 10.00,
      "fltcat": "VFR",
      "altim": 1016.3,
      "slp": 1015.6,
      "rawOb": "KMSP 301953Z 19010KT 10SM FEW065 FEW150 SCT250 29/18 A3001 RMK AO2 SLP156 T02940183"
    },
    "geometry": {
      "type": "Point",
      "coordinates": [-93.231,44.885]
    } 
  }]}
