{ "type": "FeatureCollection",
  "features": [
  { "type": "Feature",
    "properties": {
      "data": "METAR",
      "beg_time": "1694538606",
      "end_time": "1694545806",
      "wrap": "",
      "bbox": "-93.2717,44.8398,-93.1411,44.9201"
    }
  },
  { "type": "Feature",
    "id": "1315306543",
    "properties": {
      "data": "METAR",
      "id": "KMSP",
      "site": "Minneapolis-St Paul",
      "prior": 1,
      "obsTime": "2023-09-12T18:53:00Z",
      "temp": 17.8,
      "dewp": 8.3,
      "wspd": 7,
      "wgst": 16,
      "wdir": 340,
      "cover": "SCT",
      "cldCvg1": "SCT",
      "cldBas1": "31",
      "visib": 10.00,
      "fltcat": "VFR",
      "altim": 1021.1,
      "slp": 1020.8,
      "rawOb": "KMSP 121853Z 34007G16KT 10SM SCT031 18/08 A3015 RMK AO2 SLP208 T01780083"
    },
    "geometry": {
      "type": "Point",
      "coordinates": [-93.231,44.885]
    } 
  }]}
