{ "type": "FeatureCollection",
  "features": [
  { "type": "Feature",
    "properties": {
      "data": "METAR",
      "beg_time": "1696187407",
      "end_time": "1696194607",
      "wrap": "",
      "bbox": "-93.2717,44.8398,-93.1411,44.9201"
    }
  },
  { "type": "Feature",
    "id": "1412417070",
    "properties": {
      "data": "METAR",
      "id": "KMSP",
      "site": "Minneapolis-St Paul",
      "prior": 1,
      "obsTime": "2023-10-01T20:53:00Z",
      "temp": 32.8,
      "dewp": 16.1,
      "wspd": 9,
      "wgst": 24,
      "wdir": 200,
      "cover": "CLR",
      "cldCvg1": "CLR",
      "visib": 10.00,
      "fltcat": "VFR",
      "altim": 1017.7,
      "slp": 1016.8,
      "rawOb": "KMSP 012053Z 20009G24KT 10SM CLR 33/16 A3005 RMK AO2 SLP168 T03280161 56019"
    },
    "geometry": {
      "type": "Point",
      "coordinates": [-93.231,44.885]
    } 
  }]}
