{ "type": "FeatureCollection",
  "features": [
  { "type": "Feature",
    "properties": {
      "data": "METAR",
      "beg_time": "1693181407",
      "end_time": "1693188607",
      "wrap": "",
      "bbox": "-93.2717,44.8398,-93.1411,44.9201"
    }
  },
  { "type": "Feature",
    "id": "1376153386",
    "properties": {
      "data": "METAR",
      "id": "KMSP",
      "site": "Minneapolis-St Paul",
      "prior": 1,
      "obsTime": "2023-08-28T01:53:00Z",
      "temp": 22.8,
      "dewp": 12.8,
      "wspd": 5,
      "wdir": 230,
      "cover": "FEW",
      "cldCvg1": "FEW",
      "cldBas1": "110",
      "visib": 10.00,
      "fltcat": "VFR",
      "altim": 1016.7,
      "slp": 1016.1,
      "rawOb": "KMSP 280153Z 23005KT 10SM FEW110 23/13 A3002 RMK AO2 SLP161 T02280128"
    },
    "geometry": {
      "type": "Point",
      "coordinates": [-93.231,44.885]
    } 
  }]}
