{ "type": "FeatureCollection",
  "features": [
  { "type": "Feature",
    "properties": {
      "data": "METAR",
      "beg_time": "1693663807",
      "end_time": "1693671007",
      "wrap": "",
      "bbox": "-93.2717,44.8398,-93.1411,44.9201"
    }
  },
  { "type": "Feature",
    "id": "1381989952",
    "properties": {
      "data": "METAR",
      "id": "KMSP",
      "site": "Minneapolis-St Paul",
      "prior": 1,
      "obsTime": "2023-09-02T15:53:00Z",
      "temp": 27.2,
      "dewp": 15.0,
      "wspd": 8,
      "wdir": 210,
      "cover": "SCT",
      "cldCvg1": "FEW",
      "cldBas1": "200",
      "cldCvg2": "SCT",
      "cldBas2": "250",
      "visib": 10.00,
      "fltcat": "VFR",
      "altim": 1012.6,
      "slp": 1011.7,
      "rawOb": "KMSP 021553Z 21008KT 10SM FEW200 SCT250 27/15 A2990 RMK AO2 SLP117 T02720150"
    },
    "geometry": {
      "type": "Point",
      "coordinates": [-93.231,44.885]
    } 
  }]}
