{ "type": "FeatureCollection",
  "features": [
  { "type": "Feature",
    "properties": {
      "data": "METAR",
      "beg_time": "1695143407",
      "end_time": "1695150607",
      "wrap": "",
      "bbox": "-93.2717,44.8398,-93.1411,44.9201"
    }
  },
  { "type": "Feature",
    "id": "1322603801",
    "properties": {
      "data": "METAR",
      "id": "KMSP",
      "site": "Minneapolis-St Paul",
      "prior": 1,
      "obsTime": "2023-09-19T18:53:00Z",
      "temp": 25.6,
      "dewp": 14.4,
      "wspd": 8,
      "wdir": 130,
      "cover": "FEW",
      "cldCvg1": "FEW",
      "cldBas1": "200",
      "cldCvg2": "FEW",
      "cldBas2": "250",
      "visib": 10.00,
      "fltcat": "VFR",
      "altim": 1008.9,
      "slp": 1008.4,
      "rawOb": "KMSP 191853Z 13008KT 10SM FEW200 FEW250 26/14 A2979 RMK AO2 SLP084 T02560144"
    },
    "geometry": {
      "type": "Point",
      "coordinates": [-93.231,44.885]
    } 
  }]}
