{ "type": "FeatureCollection",
  "features": [
  { "type": "Feature",
    "properties": {
      "data": "METAR",
      "beg_time": "1695075007",
      "end_time": "1695082207",
      "wrap": "",
      "bbox": "-93.2717,44.8398,-93.1411,44.9201"
    }
  },
  { "type": "Feature",
    "id": "1321844347",
    "properties": {
      "data": "METAR",
      "id": "KMSP",
      "site": "Minneapolis-St Paul",
      "prior": 1,
      "obsTime": "2023-09-18T23:53:00Z",
      "temp": 23.3,
      "dewp": 8.9,
      "wspd": 9,
      "wdir": 100,
      "ceil": 100,
      "cover": "BKN",
      "cldCvg1": "SCT",
      "cldBas1": "70",
      "cldCvg2": "BKN",
      "cldBas2": "100",
      "cldCvg3": "BKN",
      "cldBas3": "200",
      "visib": 10.00,
      "fltcat": "VFR",
      "altim": 1011.6,
      "slp": 1011.3,
      "rawOb": "KMSP 182353Z 10009KT 10SM SCT070 BKN100 BKN200 23/09 A2987 RMK AO2 SLP113 60000 T02330089 10250 20228 55003"
    },
    "geometry": {
      "type": "Point",
      "coordinates": [-93.231,44.885]
    } 
  }]}
