{ "type": "FeatureCollection",
  "features": [
  { "type": "Feature",
    "properties": {
      "data": "METAR",
      "beg_time": "1694110207",
      "end_time": "1694117407",
      "wrap": "",
      "bbox": "-93.2717,44.8398,-93.1411,44.9201"
    }
  },
  { "type": "Feature",
    "id": "1310047775",
    "properties": {
      "data": "METAR",
      "id": "KMSP",
      "site": "Minneapolis-St Paul",
      "prior": 1,
      "obsTime": "2023-09-07T19:53:00Z",
      "temp": 17.2,
      "dewp": 10.0,
      "wspd": 5,
      "wdir": 40,
      "ceil": 28,
      "cover": "OVC",
      "cldCvg1": "OVC",
      "cldBas1": "28",
      "visib": 10.00,
      "fltcat": "MVFR",
      "altim": 1017.4,
      "slp": 1017.2,
      "rawOb": "KMSP 071953Z 04005KT 10SM OVC028 17/10 A3004 RMK AO2 SLP172 T01720100"
    },
    "geometry": {
      "type": "Point",
      "coordinates": [-93.231,44.885]
    } 
  }]}
