{ "type": "FeatureCollection",
  "features": [
  { "type": "Feature",
    "properties": {
      "data": "METAR",
      "beg_time": "1695028206",
      "end_time": "1695035406",
      "wrap": "",
      "bbox": "-93.2717,44.8398,-93.1411,44.9201"
    }
  },
  { "type": "Feature",
    "id": "1321259417",
    "properties": {
      "data": "METAR",
      "id": "KMSP",
      "site": "Minneapolis-St Paul",
      "prior": 1,
      "obsTime": "2023-09-18T10:53:00Z",
      "temp": 12.8,
      "dewp": 10.0,
      "wspd": 5,
      "wdir": 130,
      "cover": "CLR",
      "cldCvg1": "CLR",
      "visib": 10.00,
      "fltcat": "VFR",
      "altim": 1016.7,
      "slp": 1016.5,
      "rawOb": "KMSP 181053Z 13005KT 10SM CLR 13/10 A3002 RMK AO2 SLP165 T01280100 $"
    },
    "geometry": {
      "type": "Point",
      "coordinates": [-93.231,44.885]
    } 
  }]}
