{ "type": "FeatureCollection",
  "features": [
  { "type": "Feature",
    "properties": {
      "data": "METAR",
      "beg_time": "1692961807",
      "end_time": "1692969007",
      "wrap": "",
      "bbox": "-93.2717,44.8398,-93.1411,44.9201"
    }
  },
  { "type": "Feature",
    "id": "1373521908",
    "properties": {
      "data": "METAR",
      "id": "KMSP",
      "site": "Minneapolis-St Paul",
      "prior": 1,
      "obsTime": "2023-08-25T12:53:00Z",
      "temp": 22.2,
      "dewp": 19.4,
      "wspd": 7,
      "wdir": 80,
      "cover": "SCT",
      "cldCvg1": "SCT",
      "cldBas1": "140",
      "cldCvg2": "SCT",
      "cldBas2": "250",
      "visib": 10.00,
      "fltcat": "VFR",
      "altim": 1015.0,
      "slp": 1014.3,
      "rawOb": "KMSP 251253Z 08007KT 10SM SCT140 SCT250 22/19 A2997 RMK AO2 SLP143 T02220194"
    },
    "geometry": {
      "type": "Point",
      "coordinates": [-93.231,44.885]
    } 
  }]}
