{ "type": "FeatureCollection",
  "features": [
  { "type": "Feature",
    "properties": {
      "data": "METAR",
      "beg_time": "1693887007",
      "end_time": "1693894207",
      "wrap": "",
      "bbox": "-93.2717,44.8398,-93.1411,44.9201"
    }
  },
  { "type": "Feature",
    "id": "1384626882",
    "properties": {
      "data": "METAR",
      "id": "KMSP",
      "site": "Minneapolis-St Paul",
      "prior": 1,
      "obsTime": "2023-09-05T05:53:00Z",
      "temp": 28.9,
      "dewp": 17.2,
      "wspd": 11,
      "wdir": 170,
      "cover": "FEW",
      "cldCvg1": "FEW",
      "cldBas1": "250",
      "visib": 10.00,
      "fltcat": "VFR",
      "altim": 1005.2,
      "slp": 1004.3,
      "rawOb": "KMSP 050553Z 17011KT 10SM FEW250 29/17 A2968 RMK AO2 SLP043 T02890172 10350 20289 403670233 51004"
    },
    "geometry": {
      "type": "Point",
      "coordinates": [-93.231,44.885]
    } 
  }]}
