{ "type": "FeatureCollection",
  "features": [
  { "type": "Feature",
    "properties": {
      "data": "METAR",
      "beg_time": "1693721407",
      "end_time": "1693728607",
      "wrap": "",
      "bbox": "-93.2717,44.8398,-93.1411,44.9201"
    }
  },
  { "type": "Feature",
    "id": "1382664514",
    "properties": {
      "data": "METAR",
      "id": "KMSP",
      "site": "Minneapolis-St Paul",
      "prior": 1,
      "obsTime": "2023-09-03T07:53:00Z",
      "temp": 27.2,
      "dewp": 17.2,
      "wspd": 11,
      "wdir": 220,
      "cover": "SCT",
      "cldCvg1": "SCT",
      "cldBas1": "220",
      "visib": 10.00,
      "fltcat": "VFR",
      "altim": 1008.5,
      "slp": 1007.7,
      "rawOb": "KMSP 030753Z 22011KT 10SM SCT220 27/17 A2978 RMK AO2 SLP077 T02720172"
    },
    "geometry": {
      "type": "Point",
      "coordinates": [-93.231,44.885]
    } 
  }]}
