{ "type": "FeatureCollection",
  "features": [
  { "type": "Feature",
    "properties": {
      "data": "METAR",
      "beg_time": "1693419007",
      "end_time": "1693426207",
      "wrap": "",
      "bbox": "-93.2717,44.8398,-93.1411,44.9201"
    }
  },
  { "type": "Feature",
    "id": "1379056474",
    "properties": {
      "data": "METAR",
      "id": "KMSP",
      "site": "Minneapolis-St Paul",
      "prior": 1,
      "obsTime": "2023-08-30T19:53:00Z",
      "temp": 25.0,
      "dewp": 11.7,
      "wspd": 7,
      "wdir": 140,
      "cover": "FEW",
      "cldCvg1": "FEW",
      "cldBas1": "50",
      "visib": 10.00,
      "fltcat": "VFR",
      "altim": 1018.7,
      "slp": 1018.2,
      "rawOb": "KMSP 301953Z 14007KT 090V170 10SM FEW050 25/12 A3008 RMK AO2 SLP182 T02500117"
    },
    "geometry": {
      "type": "Point",
      "coordinates": [-93.231,44.885]
    } 
  }]}
