{ "type": "FeatureCollection",
  "features": [
  { "type": "Feature",
    "properties": {
      "data": "METAR",
      "beg_time": "1693804207",
      "end_time": "1693811407",
      "wrap": "",
      "bbox": "-93.2717,44.8398,-93.1411,44.9201"
    }
  },
  { "type": "Feature",
    "id": "1383643796",
    "properties": {
      "data": "METAR",
      "id": "KMSP",
      "site": "Minneapolis-St Paul",
      "prior": 1,
      "obsTime": "2023-09-04T06:53:00Z",
      "temp": 27.8,
      "dewp": 15.0,
      "wspd": 10,
      "wgst": 18,
      "wdir": 210,
      "cover": "CLR",
      "cldCvg1": "CLR",
      "visib": 10.00,
      "fltcat": "VFR",
      "altim": 1007.9,
      "slp": 1006.9,
      "rawOb": "KMSP 040653Z 21010G18KT 10SM CLR 28/15 A2976 RMK AO2 SLP069 T02780150"
    },
    "geometry": {
      "type": "Point",
      "coordinates": [-93.231,44.885]
    } 
  }]}
