{ "type": "FeatureCollection",
  "features": [
  { "type": "Feature",
    "properties": {
      "data": "METAR",
      "beg_time": "1692490206",
      "end_time": "1692497406",
      "wrap": "",
      "bbox": "-93.2717,44.8398,-93.1411,44.9201"
    }
  },
  { "type": "Feature",
    "id": "1290643023",
    "properties": {
      "data": "METAR",
      "id": "KMSP",
      "site": "Minneapolis-St Paul",
      "prior": 1,
      "obsTime": "2023-08-20T01:53:00Z",
      "temp": 29.4,
      "dewp": 22.2,
      "wspd": 0,
      "wdir": 0,
      "cover": "FEW",
      "cldCvg1": "FEW",
      "cldBas1": "150",
      "visib": 10.00,
      "fltcat": "VFR",
      "altim": 1011.9,
      "slp": 1011.1,
      "rawOb": "KMSP 200153Z 00000KT 10SM FEW150 29/22 A2988 RMK AO2 SLP111 T02940222"
    },
    "geometry": {
      "type": "Point",
      "coordinates": [-93.231,44.885]
    } 
  }]}
