{ "type": "FeatureCollection",
  "features": [
  { "type": "Feature",
    "properties": {
      "data": "METAR",
      "beg_time": "1695467407",
      "end_time": "1695474607",
      "wrap": "",
      "bbox": "-93.2717,44.8398,-93.1411,44.9201"
    }
  },
  { "type": "Feature",
    "id": "1326477971",
    "properties": {
      "data": "METAR",
      "id": "KMSP",
      "site": "Minneapolis-St Paul",
      "prior": 1,
      "obsTime": "2023-09-23T12:53:00Z",
      "temp": 18.9,
      "dewp": 16.7,
      "wspd": 9,
      "wdir": 80,
      "ceil": 11,
      "cover": "OVC",
      "cldCvg1": "OVC",
      "cldBas1": "11",
      "visib": 10.00,
      "fltcat": "MVFR",
      "altim": 1013.6,
      "slp": 1013.4,
      "rawOb": "KMSP 231253Z 08009KT 10SM OVC011 19/17 A2993 RMK AO2 SLP134 T01890167"
    },
    "geometry": {
      "type": "Point",
      "coordinates": [-93.231,44.885]
    } 
  }]}
