{ "type": "FeatureCollection",
  "features": [
  { "type": "Feature",
    "properties": {
      "data": "METAR",
      "beg_time": "1694848207",
      "end_time": "1694855407",
      "wrap": "",
      "bbox": "-93.2717,44.8398,-93.1411,44.9201"
    }
  },
  { "type": "Feature",
    "id": "1319073639",
    "properties": {
      "data": "METAR",
      "id": "KMSP",
      "site": "Minneapolis-St Paul",
      "prior": 1,
      "obsTime": "2023-09-16T08:53:00Z",
      "temp": 13.3,
      "dewp": 13.3,
      "wspd": 0,
      "wdir": 0,
      "ceil": 1,
      "cover": "OVX",
      "cldCvg1": "OVX",
      "cldBas1": "0",
      "visib": 0.25,
      "fltcat": "LIFR",
      "altim": 1016.0,
      "slp": 1015.8,
      "wx": "FG",
      "rawOb": "KMSP 160853Z 00000KT 1/4SM R30L/1000V1600FT FG VV001 13/13 A3000 RMK AO2 SLP158 T01330133 58006 $"
    },
    "geometry": {
      "type": "Point",
      "coordinates": [-93.231,44.885]
    } 
  }]}
