{ "type": "FeatureCollection",
  "features": [
  { "type": "Feature",
    "properties": {
      "data": "METAR",
      "beg_time": "1695417007",
      "end_time": "1695424207",
      "wrap": "",
      "bbox": "-93.2717,44.8398,-93.1411,44.9201"
    }
  },
  { "type": "Feature",
    "id": "1325861717",
    "properties": {
      "data": "METAR",
      "id": "KMSP",
      "site": "Minneapolis-St Paul",
      "prior": 1,
      "obsTime": "2023-09-22T22:53:00Z",
      "temp": 22.8,
      "dewp": 15.0,
      "wspd": 8,
      "wdir": 110,
      "ceil": 65,
      "cover": "OVC",
      "cldCvg1": "SCT",
      "cldBas1": "32",
      "cldCvg2": "OVC",
      "cldBas2": "65",
      "visib": 10.00,
      "fltcat": "VFR",
      "altim": 1017.0,
      "slp": 1016.5,
      "rawOb": "KMSP 222253Z 11008KT 10SM SCT032 OVC065 23/15 A3003 RMK AO2 SLP165 T02280150"
    },
    "geometry": {
      "type": "Point",
      "coordinates": [-93.231,44.885]
    } 
  }]}
