{ "type": "FeatureCollection",
  "features": [
  { "type": "Feature",
    "properties": {
      "data": "METAR",
      "beg_time": "1693796995",
      "end_time": "1693804195",
      "wrap": "",
      "bbox": "-93.2717,44.8398,-93.1411,44.9201"
    }
  },
  { "type": "Feature",
    "id": "1383555486",
    "properties": {
      "data": "METAR",
      "id": "KMSP",
      "site": "Minneapolis-St Paul",
      "prior": 1,
      "obsTime": "2023-09-04T04:53:00Z",
      "temp": 29.4,
      "dewp": 15.6,
      "wspd": 7,
      "wdir": 200,
      "cover": "CLR",
      "cldCvg1": "CLR",
      "visib": 10.00,
      "fltcat": "VFR",
      "altim": 1008.2,
      "slp": 1007.2,
      "rawOb": "KMSP 040453Z 20007KT 10SM CLR 29/16 A2977 RMK AO2 SLP072 T02940156"
    },
    "geometry": {
      "type": "Point",
      "coordinates": [-93.231,44.885]
    } 
  }]}
