{ "type": "FeatureCollection",
  "features": [
  { "type": "Feature",
    "properties": {
      "data": "METAR",
      "beg_time": "1696695006",
      "end_time": "1696702206",
      "wrap": "",
      "bbox": "-93.2717,44.8398,-93.1411,44.9201"
    }
  },
  { "type": "Feature",
    "id": "1418689864",
    "properties": {
      "data": "METAR",
      "id": "KMSP",
      "site": "Minneapolis-St Paul",
      "prior": 1,
      "obsTime": "2023-10-07T17:53:00Z",
      "temp": 11.1,
      "dewp": 1.1,
      "wspd": 8,
      "wdir": 260,
      "ceil": 38,
      "cover": "BKN",
      "cldCvg1": "BKN",
      "cldBas1": "38",
      "cldCvg2": "BKN",
      "cldBas2": "50",
      "cldCvg3": "BKN",
      "cldBas3": "200",
      "visib": 10.00,
      "fltcat": "VFR",
      "altim": 1023.1,
      "slp": 1023.3,
      "rawOb": "KMSP 071753Z 26008KT 10SM BKN038 BKN050 BKN200 11/01 A3021 RMK AO2 SLP233 T01110011 10111 20067 58014"
    },
    "geometry": {
      "type": "Point",
      "coordinates": [-93.231,44.885]
    } 
  }]}
