{ "type": "FeatureCollection",
  "features": [
  { "type": "Feature",
    "properties": {
      "data": "METAR",
      "beg_time": "1697335806",
      "end_time": "1697343006",
      "wrap": "",
      "bbox": "-93.2717,44.8398,-93.1411,44.9201"
    }
  },
  { "type": "Feature",
    "id": "1349465763",
    "properties": {
      "data": "METAR",
      "id": "KMSP",
      "site": "Minneapolis-St Paul",
      "prior": 1,
      "obsTime": "2023-10-15T03:53:00Z",
      "temp": 8.9,
      "dewp": 5.0,
      "wspd": 11,
      "wdir": 10,
      "ceil": 50,
      "cover": "BKN",
      "cldCvg1": "FEW",
      "cldBas1": "30",
      "cldCvg2": "BKN",
      "cldBas2": "50",
      "visib": 10.00,
      "fltcat": "VFR",
      "altim": 1025.1,
      "slp": 1025.5,
      "rawOb": "KMSP 150353Z 01011KT 10SM FEW030 BKN050 09/05 A3027 RMK AO2 SLP255 T00890050"
    },
    "geometry": {
      "type": "Point",
      "coordinates": [-93.231,44.885]
    } 
  }]}
