{ "type": "FeatureCollection",
  "features": [
  { "type": "Feature",
    "properties": {
      "data": "METAR",
      "beg_time": "1697231406",
      "end_time": "1697238606",
      "wrap": "",
      "bbox": "-93.2717,44.8398,-93.1411,44.9201"
    }
  },
  { "type": "Feature",
    "id": "1425289602",
    "properties": {
      "data": "METAR",
      "id": "KMSP",
      "site": "Minneapolis-St Paul",
      "prior": 1,
      "obsTime": "2023-10-13T22:53:00Z",
      "temp": 8.9,
      "dewp": 7.2,
      "wspd": 15,
      "wgst": 24,
      "wdir": 60,
      "ceil": 13,
      "cover": "OVC",
      "cldCvg1": "OVC",
      "cldBas1": "13",
      "visib": 6.00,
      "fltcat": "MVFR",
      "altim": 1012.3,
      "slp": 1012.7,
      "wx": "-RA BR",
      "rawOb": "KMSP 132253Z 06015G24KT 6SM -RA BR OVC013 09/07 A2989 RMK AO2 PK WND 07030/2205 SLP127 P0003 T00890072"
    },
    "geometry": {
      "type": "Point",
      "coordinates": [-93.231,44.885]
    } 
  }]}
