{ "type": "FeatureCollection",
  "features": [
  { "type": "Feature",
    "properties": {
      "data": "METAR",
      "beg_time": "1697019007",
      "end_time": "1697026207",
      "wrap": "",
      "bbox": "-93.2717,44.8398,-93.1411,44.9201"
    }
  },
  { "type": "Feature",
    "id": "1422623890",
    "properties": {
      "data": "METAR",
      "id": "KMSP",
      "site": "Minneapolis-St Paul",
      "prior": 1,
      "obsTime": "2023-10-11T11:53:00Z",
      "temp": 4.4,
      "dewp": 2.2,
      "wspd": 3,
      "wdir": 30,
      "cover": "CLR",
      "cldCvg1": "CLR",
      "visib": 9.00,
      "fltcat": "VFR",
      "altim": 1009.2,
      "slp": 1009.6,
      "rawOb": "KMSP 111153Z 03003KT 9SM CLR 04/02 A2980 RMK AO2 SLP096 T00440022 10067 20033 53006"
    },
    "geometry": {
      "type": "Point",
      "coordinates": [-93.231,44.885]
    } 
  }]}
